X,Y,OBJECTID,location,county,feedID,url,iframe,lat,long
-8503572.3371,4720926.7446,1,WPL C506 at Gantry S-9 MP 33.6,Anne Arundel County,dd0157c42d7c001300503336c4235c0a,https://chart.maryland.gov/video/video.php?feed=dd0157c42d7c001300503336c4235c0a,"<iframe width=""484"" height=""364"" src=""https://chart.maryland.gov/video/video.php?feed=dd0157c42d7c001300503336c4235c0a"" frame border=""0"" allowfullscreen></iframe>",38.9948,-76.38889
-8540381.2399,4753624.6994,2,I895 @ I95 Interchange (South Baltimore - C043-Cen)MP 0.3,Howard County,c200dc0dc37401b8004606363d235daa,https://chart.maryland.gov/video/video.php?feed=c200dc0dc37401b8004606363d235daa,"<iframe width=""484"" height=""364"" src=""https://chart.maryland.gov/video/video.php?feed=c200dc0dc37401b8004606363d235daa"" frame border=""0"" allowfullscreen></iframe>",39.22272,-76.71955
-8461942.1871,4809275.0224,3,I-95 S of Chesapeake H. (C006) MP 96.1,Cecil County,c201714c00e30039004606363d235daa,https://chart.maryland.gov/video/video.php?feed=c201714c00e30039004606363d235daa,"<iframe width=""484"" height=""364"" src=""https://chart.maryland.gov/video/video.php?feed=c201714c00e30039004606363d235daa"" frame border=""0"" allowfullscreen></iframe>",39.608932,-76.01492
-8504145.6324,4792419.3594,4,US 1 AT MD 152,Harford County,dbff0b9400bf00580045e2369e235daa,https://chart.maryland.gov/video/video.php?feed=dbff0b9400bf00580045e2369e235daa,"<iframe width=""484"" height=""364"" src=""https://chart.maryland.gov/video/video.php?feed=dbff0b9400bf00580045e2369e235daa"" frame border=""0"" allowfullscreen></iframe>",39.49218,-76.39404
-8600047.3738,4748081.7574,5,I-270 & Germantown Rd (MD 118),Montgomery County,8601655500f60074004d823633235daa,https://chart.maryland.gov/video/video.php?feed=8601655500f60074004d823633235daa,"<iframe width=""484"" height=""364"" src=""https://chart.maryland.gov/video/video.php?feed=8601655500f60074004d823633235daa"" frame border=""0"" allowfullscreen></iframe>",39.184135,-77.25554
-8603324.6196,4754885.7003,6,I-270 AT MD 121 CLARKSBURG RD,Montgomery County,2d00cd8100080075004d823633235daa,https://chart.maryland.gov/video/video.php?feed=2d00cd8100080075004d823633235daa,"<iframe width=""484"" height=""364"" src=""https://chart.maryland.gov/video/video.php?feed=2d00cd8100080075004d823633235daa"" frame border=""0"" allowfullscreen></iframe>",39.231495,-77.28498
-8532189.9065,4743557.0031,7,I-97 AT MD 100 | 502018,Anne Arundel County,bb01295800f700d700437a45351f0214,https://chart.maryland.gov/video/video.php?feed=bb01295800f700d700437a45351f0214,"<iframe width=""484"" height=""364"" src=""https://chart.maryland.gov/video/video.php?feed=bb01295800f700d700437a45351f0214"" frame border=""0"" allowfullscreen></iframe>",39.152622,-76.645966
-8467019.4691,4689087.2249,8,US 50 AT MD 331,Talbot County,6d0027da0096007b00488436cf235d0a,https://chart.maryland.gov/video/video.php?feed=6d0027da0096007b00488436cf235d0a,"<iframe width=""484"" height=""364"" src=""https://chart.maryland.gov/video/video.php?feed=6d0027da0096007b00488436cf235d0a"" frame border=""0"" allowfullscreen></iframe>",38.772156,-76.06053
-8582156.1052,4719463.0305,9,East-West Hwy (MD 410) & Wisconsin Ave (MD 355),Montgomery County,efff918500020075004d823633235daa,https://chart.maryland.gov/video/video.php?feed=efff918500020075004d823633235daa,"<iframe width=""484"" height=""364"" src=""https://chart.maryland.gov/video/video.php?feed=efff918500020075004d823633235daa"" frame border=""0"" allowfullscreen></iframe>",38.98458,-77.09482
-8535043.4703,4759394.6913,10,I-95 S of Caton Ave Ex 50 (C032) - MP 49.9,Baltimore City,cc006eaf019000e300441a366e230214,https://chart.maryland.gov/video/video.php?feed=cc006eaf019000e300441a366e230214,"<iframe width=""484"" height=""364"" src=""https://chart.maryland.gov/video/video.php?feed=cc006eaf019000e300441a366e230214"" frame border=""0"" allowfullscreen></iframe>",39.262863,-76.6716
-8473500.4898,4804577.7872,11,I-95 S of Tydings Br. (C011) MP 90.0,Harford County,9d016d2b00e30039004606363d235daa,https://chart.maryland.gov/video/video.php?feed=9d016d2b00e30039004606363d235daa,"<iframe width=""484"" height=""364"" src=""https://chart.maryland.gov/video/video.php?feed=9d016d2b00e30039004606363d235daa"" frame border=""0"" allowfullscreen></iframe>",39.576416,-76.11875
-8379062.5998,4631615.5137,12,US 50 E AT MD 90,Worcester County,58004a9f0099007b00488436cf235d0a,https://chart.maryland.gov/video/video.php?feed=58004a9f0099007b00488436cf235d0a,"<iframe width=""484"" height=""364"" src=""https://chart.maryland.gov/video/video.php?feed=58004a9f0099007b00488436cf235d0a"" frame border=""0"" allowfullscreen></iframe>",38.36851,-75.2704
-8517680.4127,4720785.8063,13,US 50 AT Ex 24 MD 70 Rowe Blvd,Anne Arundel County,fa0017fb008d004b004af03676235daa,https://chart.maryland.gov/video/video.php?feed=fa0017fb008d004b004af03676235daa,"<iframe width=""484"" height=""364"" src=""https://chart.maryland.gov/video/video.php?feed=fa0017fb008d004b004af03676235daa"" frame border=""0"" allowfullscreen></iframe>",38.993816,-76.515625
-8642767.3415,4805938.9438,14,I-70 AT EXIT 35 MD 66 MAPLEVILLE RD (WB),Washington County,bd00eec8003600fd0057fa36c4235c0a,https://chart.maryland.gov/video/video.php?feed=bd00eec8003600fd0057fa36c4235c0a,"<iframe width=""484"" height=""364"" src=""https://chart.maryland.gov/video/video.php?feed=bd00eec8003600fd0057fa36c4235c0a"" frame border=""0"" allowfullscreen></iframe>",39.58584,-77.6393
-8588498.4219,4723004.3784,15,I-495 AT BRADLEY BLVD,Montgomery County,1f018d5800f700d700437a45351f0214,https://chart.maryland.gov/video/video.php?feed=1f018d5800f700d700437a45351f0214,"<iframe width=""484"" height=""364"" src=""https://chart.maryland.gov/video/video.php?feed=1f018d5800f700d700437a45351f0214"" frame border=""0"" allowfullscreen></iframe>",39.009304,-77.151794
-8534605.9847,4755099.5472,16,I-895 at I-695 Interchange MP 3.50 (C045),Baltimore County,9000f4c3c37401b8004606363d235daa,https://chart.maryland.gov/video/video.php?feed=9000f4c3c37401b8004606363d235daa,"<iframe width=""484"" height=""364"" src=""https://chart.maryland.gov/video/video.php?feed=9000f4c3c37401b8004606363d235daa"" frame border=""0"" allowfullscreen></iframe>",39.232983,-76.66767
-8569587.0215,4721886.8667,17,New Hampshire Ave (MD 650) & Piney Branch Rd (MD 320),Prince George's County,4e00a5cd00050075004d823633235daa,https://chart.maryland.gov/video/video.php?feed=4e00a5cd00050075004d823633235daa,"<iframe width=""484"" height=""364"" src=""https://chart.maryland.gov/video/video.php?feed=4e00a5cd00050075004d823633235daa"" frame border=""0"" allowfullscreen></iframe>",39.001503,-76.98191
-8516661.2828,4771334.8325,18,I-95 S of I-695 (C026) I-95 N of Kenwood Ave (MP 63.1),Baltimore County,2f009e8a00e50039004606363d235daa,https://chart.maryland.gov/video/video.php?feed=2f009e8a00e50039004606363d235daa,"<iframe width=""484"" height=""364"" src=""https://chart.maryland.gov/video/video.php?feed=2f009e8a00e50039004606363d235daa"" frame border=""0"" allowfullscreen></iframe>",39.34586,-76.50647
-8522740.4402,4759869.742,19,I-895 N of Baltimore Harbor Tunnel (C036) MP 10.6,Baltimore City,0b017ae1019100e300441a366e230214,https://chart.maryland.gov/video/video.php?feed=0b017ae1019100e300441a366e230214,"<iframe width=""484"" height=""364"" src=""https://chart.maryland.gov/video/video.php?feed=0b017ae1019100e300441a366e230214"" frame border=""0"" allowfullscreen></iframe>",39.266167,-76.56108
-8519503.2694,4752523.195,20,I-695 I/L Pier #16,Baltimore City,4e022563017c00790053fa36c4235c0a,https://chart.maryland.gov/video/video.php?feed=4e022563017c00790053fa36c4235c0a,"<iframe width=""484"" height=""364"" src=""https://chart.maryland.gov/video/video.php?feed=4e022563017c00790053fa36c4235c0a"" frame border=""0"" allowfullscreen></iframe>",39.215054,-76.532
-8378976.8838,4631642.4905,21,US 50 W AT MD 90,Worcester County,f100453d0099007b00488436cf235d0a,https://chart.maryland.gov/video/video.php?feed=f100453d0099007b00488436cf235d0a,"<iframe width=""484"" height=""364"" src=""https://chart.maryland.gov/video/video.php?feed=f100453d0099007b00488436cf235d0a"" frame border=""0"" allowfullscreen></iframe>",38.3687,-75.26963
-8580254.323,4719900.8336,22,Connecticut Ave (MD 185) & East-West Hwy (MD 410),Montgomery County,0b01b57900060075004d823633235daa,https://chart.maryland.gov/video/video.php?feed=0b01b57900060075004d823633235daa,"<iframe width=""484"" height=""364"" src=""https://chart.maryland.gov/video/video.php?feed=0b01b57900060075004d823633235daa"" frame border=""0"" allowfullscreen></iframe>",38.987637,-77.077736
-8479256.3754,4718736.9807,23,US 50 W OF US 301 SPLIT,Queen Anne's County,40000a9300320014004a8436cf235d0a,https://chart.maryland.gov/video/video.php?feed=40000a9300320014004a8436cf235d0a,"<iframe width=""484"" height=""364"" src=""https://chart.maryland.gov/video/video.php?feed=40000a9300320014004a8436cf235d0a"" frame border=""0"" allowfullscreen></iframe>",38.97951,-76.170456
-8788753.9482,4813910.1345,24,I-68 AT EXIT 33 MD 736 MIDLOTHIAN RD (EB),Allegany County,8a00eb0900bf00030057fa36c4235c0a,https://chart.maryland.gov/video/video.php?feed=8a00eb0900bf00030057fa36c4235c0a,"<iframe width=""484"" height=""364"" src=""https://chart.maryland.gov/video/video.php?feed=8a00eb0900bf00030057fa36c4235c0a"" frame border=""0"" allowfullscreen></iframe>",39.641003,-78.95072
-8562839.9472,4695967.6803,25,I-95/495 AT MD-5,Prince George's County,76001126000a000e004ee33696235daa,https://chart.maryland.gov/video/video.php?feed=76001126000a000e004ee33696235daa,"<iframe width=""484"" height=""364"" src=""https://chart.maryland.gov/video/video.php?feed=76001126000a000e004ee33696235daa"" frame border=""0"" allowfullscreen></iframe>",38.820328,-76.9213
-8516232.7028,4766490.0004,26,I-695 PRIOR TO CHESACO AVE,Baltimore County,b700e75ce1df03c4004a06363d235daa,https://chart.maryland.gov/video/video.php?feed=b700e75ce1df03c4004a06363d235daa,"<iframe width=""484"" height=""364"" src=""https://chart.maryland.gov/video/video.php?feed=b700e75ce1df03c4004a06363d235daa"" frame border=""0"" allowfullscreen></iframe>",39.312195,-76.50262
-8577731.1554,4727404.2833,27,University Blvd (MD 193) & Veirs Mill Rd (MD 586),Montgomery County,0c0159ba01210075004d823633235daa,https://chart.maryland.gov/video/video.php?feed=0c0159ba01210075004d823633235daa,"<iframe width=""484"" height=""364"" src=""https://chart.maryland.gov/video/video.php?feed=0c0159ba01210075004d823633235daa"" frame border=""0"" allowfullscreen></iframe>",39.04001,-77.05507
-8571846.2506,4732500.6807,28,New Hampshire Ave (MD 650) & Randolph Rd,Montgomery County,5e0089a0025c0075004d823633235daa,https://chart.maryland.gov/video/video.php?feed=5e0089a0025c0075004d823633235daa,"<iframe width=""484"" height=""364"" src=""https://chart.maryland.gov/video/video.php?feed=5e0089a0025c0075004d823633235daa"" frame border=""0"" allowfullscreen></iframe>",39.07556,-77.002205
-8481415.3056,4750116.7128,29,RWIS MD-20 AT MD-21,Kent County,85000982013700f20053fa36c4235c0a,https://chart.maryland.gov/video/video.php?feed=85000982013700f20053fa36c4235c0a,"<iframe width=""484"" height=""364"" src=""https://chart.maryland.gov/video/video.php?feed=85000982013700f20053fa36c4235c0a"" frame border=""0"" allowfullscreen></iframe>",39.198303,-76.18985
-8748942.7587,4799600.2512,30,RWIS MD-51 AT OLDTOWN SALT DOME,Allegany County,b200c8ac005700170053fa36c4235c0a,https://chart.maryland.gov/video/video.php?feed=b200c8ac005700170053fa36c4235c0a,"<iframe width=""484"" height=""364"" src=""https://chart.maryland.gov/video/video.php?feed=b200c8ac005700170053fa36c4235c0a"" frame border=""0"" allowfullscreen></iframe>",39.541943,-78.59309
-8585807.3845,4726101.5655,31,Old Georgetown Rd (MD 187) & I-270,Montgomery County,a900598700f30074004d823633235daa,https://chart.maryland.gov/video/video.php?feed=a900598700f30074004d823633235daa,"<iframe width=""484"" height=""364"" src=""https://chart.maryland.gov/video/video.php?feed=a900598700f30074004d823633235daa"" frame border=""0"" allowfullscreen></iframe>",39.03092,-77.12762
-8474857.4744,4804481.8893,32,I-95 N of Lapidum Rd (C012) MP 89.4,Harford County,f000856500e40039004606363d235daa,https://chart.maryland.gov/video/video.php?feed=f000856500e40039004606363d235daa,"<iframe width=""484"" height=""364"" src=""https://chart.maryland.gov/video/video.php?feed=f000856500e40039004606363d235daa"" frame border=""0"" allowfullscreen></iframe>",39.575752,-76.13094
-8460265.7156,4810326.2649,33,I-95 N of Chesapeake H. (C005) MP 97.1,Cecil County,480169db00e20039004606363d235daa,https://chart.maryland.gov/video/video.php?feed=480169db00e20039004606363d235daa,"<iframe width=""484"" height=""364"" src=""https://chart.maryland.gov/video/video.php?feed=480169db00e20039004606363d235daa"" frame border=""0"" allowfullscreen></iframe>",39.616207,-75.99986
-8498853.5038,4784791.4265,34,MD 152 E. of I-95 JOPPA TWR,Harford County,1b0011cc006300800045833633235daa,https://chart.maryland.gov/video/video.php?feed=1b0011cc006300800045833633235daa,"<iframe width=""484"" height=""364"" src=""https://chart.maryland.gov/video/video.php?feed=1b0011cc006300800045833633235daa"" frame border=""0"" allowfullscreen></iframe>",39.43928,-76.3465
-8523196.8501,4751087.7989,35,I-695 W of Quarantine Rd (C050) MP 50.4,Baltimore City,aa002ea0c47601b8004606363d235daa,https://chart.maryland.gov/video/video.php?feed=aa002ea0c47601b8004606363d235daa,"<iframe width=""484"" height=""364"" src=""https://chart.maryland.gov/video/video.php?feed=aa002ea0c47601b8004606363d235daa"" frame border=""0"" allowfullscreen></iframe>",39.205063,-76.56518
-8521899.978,4761953.0979,36,I-895 S of O'Donnell St (C035) MP 11.8,Baltimore City,b8007791019100e300441a366e230214,https://chart.maryland.gov/video/video.php?feed=b8007791019100e300441a366e230214,"<iframe width=""484"" height=""364"" src=""https://chart.maryland.gov/video/video.php?feed=b8007791019100e300441a366e230214"" frame border=""0"" allowfullscreen></iframe>",39.280655,-76.55353
-8367657.918,4628485.5523,37,US 50 AT RACETRACK RD,Worcester County,3200db9600fb00f30056fa36c4235c0a,https://chart.maryland.gov/video/video.php?feed=3200db9600fb00f30056fa36c4235c0a,"<iframe width=""484"" height=""364"" src=""https://chart.maryland.gov/video/video.php?feed=3200db9600fb00f30056fa36c4235c0a"" frame border=""0"" allowfullscreen></iframe>",38.346462,-75.16795
-8523402.7912,4759491.3099,38,I-95 FMT East Vent Bldg Roof Top (C039) MP 55.9,Baltimore City,47017d19019200e300441a366e230214,https://chart.maryland.gov/video/video.php?feed=47017d19019200e300441a366e230214,"<iframe width=""484"" height=""364"" src=""https://chart.maryland.gov/video/video.php?feed=47017d19019200e300441a366e230214"" frame border=""0"" allowfullscreen></iframe>",39.263535,-76.56703
-8571419.3403,4692558.0085,39,MD 210 S of I-95/495,Prince George's County,5b00069600230088004502366d235daa,https://chart.maryland.gov/video/video.php?feed=5b00069600230088004502366d235daa,"<iframe width=""484"" height=""364"" src=""https://chart.maryland.gov/video/video.php?feed=5b00069600230088004502366d235daa"" frame border=""0"" allowfullscreen></iframe>",38.79646,-76.99837
-8822268.3507,4821421.5522,40,I-68 AT US-219 (Keyser's Ridge TWR),Garrett County,0e0109d100f1003d00471536ea235d0a,https://chart.maryland.gov/video/video.php?feed=0e0109d100f1003d00471536ea235d0a,"<iframe width=""484"" height=""364"" src=""https://chart.maryland.gov/video/video.php?feed=0e0109d100f1003d00471536ea235d0a"" frame border=""0"" allowfullscreen></iframe>",39.692944,-79.251785
-8524800.964,4780460.2166,41,I-695 AT PROVIDENCE RD,Baltimore County,52ff0db500bd00a8004be2369e235daa,https://chart.maryland.gov/video/video.php?feed=52ff0db500bd00a8004be2369e235daa,"<iframe width=""484"" height=""364"" src=""https://chart.maryland.gov/video/video.php?feed=52ff0db500bd00a8004be2369e235daa"" frame border=""0"" allowfullscreen></iframe>",39.409225,-76.57959
-8598681.4836,4749218.5414,42,Frederick Rd (MD 355) & Germantown Rd (MD 118),Montgomery County,0601b17800060075004d823633235daa,https://chart.maryland.gov/video/video.php?feed=0601b17800060075004d823633235daa,"<iframe width=""484"" height=""364"" src=""https://chart.maryland.gov/video/video.php?feed=0601b17800060075004d823633235daa"" frame border=""0"" allowfullscreen></iframe>",39.19205,-77.24327
-8581264.4361,4722733.9066,43,I-495 W. OF CONN AVE,Montgomery County,e301515800f700d700437a45351f0214,https://chart.maryland.gov/video/video.php?feed=e301515800f700d700437a45351f0214,"<iframe width=""484"" height=""364"" src=""https://chart.maryland.gov/video/video.php?feed=e301515800f700d700437a45351f0214"" frame border=""0"" allowfullscreen></iframe>",39.007416,-77.08681
-8762561.5852,4818640.8263,44,I-68 AT US 220,Allegany County,daffdc99009b00f60057fa36c4235c0a,https://chart.maryland.gov/video/video.php?feed=daffdc99009b00f60057fa36c4235c0a,"<iframe width=""484"" height=""364"" src=""https://chart.maryland.gov/video/video.php?feed=daffdc99009b00f60057fa36c4235c0a"" frame border=""0"" allowfullscreen></iframe>",39.67372,-78.71543
-8716662.3327,4824162.8236,45,"I-68 EXIT 74, MOUNTAIN RD",Washington County,1301e837002300fd0057fa36c4235c0a,https://chart.maryland.gov/video/video.php?feed=1301e837002300fd0057fa36c4235c0a,"<iframe width=""484"" height=""364"" src=""https://chart.maryland.gov/video/video.php?feed=1301e837002300fd0057fa36c4235c0a"" frame border=""0"" allowfullscreen></iframe>",39.71189,-78.30311
-8518844.258,4768456.2907,46,"I-95 NB, S of Chesaco Ave MM 61.4 (C027C)",Baltimore County,7d004bd400b500a5004e3336c4235c0a,https://chart.maryland.gov/video/video.php?feed=7d004bd400b500a5004e3336c4235c0a,"<iframe width=""484"" height=""364"" src=""https://chart.maryland.gov/video/video.php?feed=7d004bd400b500a5004e3336c4235c0a"" frame border=""0"" allowfullscreen></iframe>",39.32586,-76.52608
-8504902.605,4722112.0495,47,WPL C504 at Gantry S-4 MP 32.7,Anne Arundel County,ed01636a2ed2001a00503336c4235c0a,https://chart.maryland.gov/video/video.php?feed=ed01636a2ed2001a00503336c4235c0a,"<iframe width=""484"" height=""364"" src=""https://chart.maryland.gov/video/video.php?feed=ed01636a2ed2001a00503336c4235c0a"" frame border=""0"" allowfullscreen></iframe>",39.003075,-76.40084
-8565943.5346,4695537.9084,48,I-95/495 AT TEMPLE HILLS RD,Prince George's County,bd00080800ec00a8004a02366d235daa,https://chart.maryland.gov/video/video.php?feed=bd00080800ec00a8004a02366d235daa,"<iframe width=""484"" height=""364"" src=""https://chart.maryland.gov/video/video.php?feed=bd00080800ec00a8004a02366d235daa"" frame border=""0"" allowfullscreen></iframe>",38.81732,-76.94918
-8552214.5018,4714114.1078,49,US 50 AT LOTTSFORD VISTA RD,Prince George's County,d2ff0e21009700e9004ae33696235daa,https://chart.maryland.gov/video/video.php?feed=d2ff0e21009700e9004ae33696235daa,"<iframe width=""484"" height=""364"" src=""https://chart.maryland.gov/video/video.php?feed=d2ff0e21009700e9004ae33696235daa"" frame border=""0"" allowfullscreen></iframe>",38.94722,-76.82585
-8515882.0464,4723272.7084,50,US 50 E. OF SEVERN RIV,Anne Arundel County,7401e25800f700d700437a45351f0214,https://chart.maryland.gov/video/video.php?feed=7401e25800f700d700437a45351f0214,"<iframe width=""484"" height=""364"" src=""https://chart.maryland.gov/video/video.php?feed=7401e25800f700d700437a45351f0214"" frame border=""0"" allowfullscreen></iframe>",39.011177,-76.49947
-8639150.5713,4798930.0401,51,RWIS US 40 AT FRED/WASH CO. LINE,Washington County,7f01ae3d006200620053fa36c4235c0a,https://chart.maryland.gov/video/video.php?feed=7f01ae3d006200620053fa36c4235c0a,"<iframe width=""484"" height=""364"" src=""https://chart.maryland.gov/video/video.php?feed=7f01ae3d006200620053fa36c4235c0a"" frame border=""0"" allowfullscreen></iframe>",39.5373,-77.60681
-8475906.7719,4803322.81,52,I-95 S of Md 155  (C013) MP 88.6,Harford County,6a0091d300e40039004606363d235daa,https://chart.maryland.gov/video/video.php?feed=6a0091d300e40039004606363d235daa,"<iframe width=""484"" height=""364"" src=""https://chart.maryland.gov/video/video.php?feed=6a0091d300e40039004606363d235daa"" frame border=""0"" allowfullscreen></iframe>",39.567726,-76.140366
-8555975.9874,4750635.1405,53,US 29 AT BROKENLAND PKWY,Howard County,95ff27b100a900b4004b823633235daa,https://chart.maryland.gov/video/video.php?feed=95ff27b100a900b4004b823633235daa,"<iframe width=""484"" height=""364"" src=""https://chart.maryland.gov/video/video.php?feed=95ff27b100a900b4004b823633235daa"" frame border=""0"" allowfullscreen></iframe>",39.201912,-76.85964
-8531365.4743,4781991.5985,54,I-695 EX 24 AT I-83,Baltimore County,4c01ba5800f700d700437a45351f0214,https://chart.maryland.gov/video/video.php?feed=4c01ba5800f700d700437a45351f0214,"<iframe width=""484"" height=""364"" src=""https://chart.maryland.gov/video/video.php?feed=4c01ba5800f700d700437a45351f0214"" frame border=""0"" allowfullscreen></iframe>",39.419853,-76.63856
-8595759.347,4743028.0294,55,I-270 & Montgomery Village Ave (MD 124),Montgomery County,3d010dec036a0075004d823633235daa,https://chart.maryland.gov/video/video.php?feed=3d010dec036a0075004d823633235daa,"<iframe width=""484"" height=""364"" src=""https://chart.maryland.gov/video/video.php?feed=3d010dec036a0075004d823633235daa"" frame border=""0"" allowfullscreen></iframe>",39.148937,-77.21702
-8580290.3905,4733637.8644,56,Connecticut Ave (MD 185) & Georgia Ave (MD 97),Montgomery County,9500b9a102620075004d823633235daa,https://chart.maryland.gov/video/video.php?feed=9500b9a102620075004d823633235daa,"<iframe width=""484"" height=""364"" src=""https://chart.maryland.gov/video/video.php?feed=9500b9a102620075004d823633235daa"" frame border=""0"" allowfullscreen></iframe>",39.08349,-77.07806
-8581760.921,4718347.4843,57,Bradley Blvd (MD 191) & Wisconsin Ave (MD 355),Montgomery County,f70054e703e00077004d823633235daa,https://chart.maryland.gov/video/video.php?feed=f70054e703e00077004d823633235daa,"<iframe width=""484"" height=""364"" src=""https://chart.maryland.gov/video/video.php?feed=f70054e703e00077004d823633235daa"" frame border=""0"" allowfullscreen></iframe>",38.97679,-77.09127
-8540149.6953,4715057.1231,58,US 50 AT US 301/MD 3,Prince George's County,6f01dc5801f700d700437a45351f0214,https://chart.maryland.gov/video/video.php?feed=6f01dc5801f700d700437a45351f0214,"<iframe width=""484"" height=""364"" src=""https://chart.maryland.gov/video/video.php?feed=6f01dc5801f700d700437a45351f0214"" frame border=""0"" allowfullscreen></iframe>",38.953808,-76.71747
-8746144.7433,4823242.5198,59,I-68 AT BLACK VALLEY RD,Allegany County,cfffe28200a100f60057fa36c4235c0a,https://chart.maryland.gov/video/video.php?feed=cfffe28200a100f60057fa36c4235c0a,"<iframe width=""484"" height=""364"" src=""https://chart.maryland.gov/video/video.php?feed=cfffe28200a100f60057fa36c4235c0a"" frame border=""0"" allowfullscreen></iframe>",39.70553,-78.567955
-8505047.3203,4722553.9781,60,WPL C503 at Gantry N-3 MP 0.9,Anne Arundel County,b1019e712e53001b00503336c4235c0a,https://chart.maryland.gov/video/video.php?feed=b1019e712e53001b00503336c4235c0a,"<iframe width=""484"" height=""364"" src=""https://chart.maryland.gov/video/video.php?feed=b1019e712e53001b00503336c4235c0a"" frame border=""0"" allowfullscreen></iframe>",39.00616,-76.40214
-8546056.3075,4713833.9971,61,US 50 AT CHURCH RD,Prince George's County,ac016133026300e50051fa36c4235c0a,https://chart.maryland.gov/video/video.php?feed=ac016133026300e50051fa36c4235c0a,"<iframe width=""484"" height=""364"" src=""https://chart.maryland.gov/video/video.php?feed=ac016133026300e50051fa36c4235c0a"" frame border=""0"" allowfullscreen></iframe>",38.945263,-76.77053
-8563033.0865,4724410.7187,62,I-95/495 AT US 1,Prince George's County,440020db006e00800045833633235daa,https://chart.maryland.gov/video/video.php?feed=440020db006e00800045833633235daa,"<iframe width=""484"" height=""364"" src=""https://chart.maryland.gov/video/video.php?feed=440020db006e00800045833633235daa"" frame border=""0"" allowfullscreen></iframe>",39.01912,-76.923035
-8479046.4269,4719002.6201,63,US 50 AT US 301 SPLIT,Queen Anne's County,cb000f1800330014004a8436cf235d0a,https://chart.maryland.gov/video/video.php?feed=cb000f1800330014004a8436cf235d0a,"<iframe width=""484"" height=""364"" src=""https://chart.maryland.gov/video/video.php?feed=cb000f1800330014004a8436cf235d0a"" frame border=""0"" allowfullscreen></iframe>",38.981365,-76.16857
-8467326.2656,4712457.0295,64,US 50 AT MD 404 WYE MILLS TWR,Talbot County,2f0013b20094007b00488436cf235d0a,https://chart.maryland.gov/video/video.php?feed=2f0013b20094007b00488436cf235d0a,"<iframe width=""484"" height=""364"" src=""https://chart.maryland.gov/video/video.php?feed=2f0013b20094007b00488436cf235d0a"" frame border=""0"" allowfullscreen></iframe>",38.935642,-76.063286
-8359910.0814,4626750.3449,65,RWIS US 50 AT OC DRAWBRIDGE,Worcester County,ca00391d02aa00fa0051fa36c4235c0a,https://chart.maryland.gov/video/video.php?feed=ca00391d02aa00fa0051fa36c4235c0a,"<iframe width=""484"" height=""364"" src=""https://chart.maryland.gov/video/video.php?feed=ca00391d02aa00fa0051fa36c4235c0a"" frame border=""0"" allowfullscreen></iframe>",38.334236,-75.09835
-8517062.033,4754652.7446,66,"I-695 I/L, N of FSK Bridge (C053) MP47.1",Baltimore County,4a014528c47701b8004606363d235daa,https://chart.maryland.gov/video/video.php?feed=4a014528c47701b8004606363d235daa,"<iframe width=""484"" height=""364"" src=""https://chart.maryland.gov/video/video.php?feed=4a014528c47701b8004606363d235daa"" frame border=""0"" allowfullscreen></iframe>",39.229874,-76.51007
-8361389.5174,4627286.9421,67,US 50 AT MD 611,Worcester County,a6004fe80099007b00488436cf235d0a,https://chart.maryland.gov/video/video.php?feed=a6004fe80099007b00488436cf235d0a,"<iframe width=""484"" height=""364"" src=""https://chart.maryland.gov/video/video.php?feed=a6004fe80099007b00488436cf235d0a"" frame border=""0"" allowfullscreen></iframe>",38.338017,-75.11164
-8593402.7134,4738710.1418,68,I-270 & I-370,Montgomery County,f50009a903690075004d823633235daa,https://chart.maryland.gov/video/video.php?feed=f50009a903690075004d823633235daa,"<iframe width=""484"" height=""364"" src=""https://chart.maryland.gov/video/video.php?feed=f50009a903690075004d823633235daa"" frame border=""0"" allowfullscreen></iframe>",39.11885,-77.19585
-8556297.2554,4740204.6251,69,I-95 AT MD 216,Howard County,8eff12b900a400ff0047e33696235daa,https://chart.maryland.gov/video/video.php?feed=8eff12b900a400ff0047e33696235daa,"<iframe width=""484"" height=""364"" src=""https://chart.maryland.gov/video/video.php?feed=8eff12b900a400ff0047e33696235daa"" frame border=""0"" allowfullscreen></iframe>",39.129265,-76.862526
-8532677.9311,4773460.5885,70,I-83 and Northern Parkway,Baltimore City,b70059fa00980068004f823633235daa,https://chart.maryland.gov/video/video.php?feed=b70059fa00980068004f823633235daa,"<iframe width=""484"" height=""364"" src=""https://chart.maryland.gov/video/video.php?feed=b70059fa00980068004f823633235daa"" frame border=""0"" allowfullscreen></iframe>",39.360626,-76.65035
-8543179.8119,4767891.9052,71,I-695 N OF Ex 17 at Dogwood Rd,Baltimore County,3b00149c00e000a6004e3436c4235c0a,https://chart.maryland.gov/video/video.php?feed=3b00149c00e000a6004e3436c4235c0a,"<iframe width=""484"" height=""364"" src=""https://chart.maryland.gov/video/video.php?feed=3b00149c00e000a6004e3436c4235c0a"" frame border=""0"" allowfullscreen></iframe>",39.321938,-76.74469
-8470547.629,4802165.3088,72,US 40 S Pier #18 Hatem Br (C063),Harford County,5e012cb424680007004806363d235daa,https://chart.maryland.gov/video/video.php?feed=5e012cb424680007004806363d235daa,"<iframe width=""484"" height=""364"" src=""https://chart.maryland.gov/video/video.php?feed=5e012cb424680007004806363d235daa"" frame border=""0"" allowfullscreen></iframe>",39.55971,-76.092224
-8555363.7302,4713907.7097,73,US 50 E. OF I-95/495,Prince George's County,3801a55801f700d700437a45351f0214,https://chart.maryland.gov/video/video.php?feed=3801a55801f700d700437a45351f0214,"<iframe width=""484"" height=""364"" src=""https://chart.maryland.gov/video/video.php?feed=3801a55801f700d700437a45351f0214"" frame border=""0"" allowfullscreen></iframe>",38.945778,-76.85414
-8576128.1548,4723620.273,74,I-495 AT MD 97,Montgomery County,4e00dc82005e00bd0058fa36c4235c0a,https://chart.maryland.gov/video/video.php?feed=4e00dc82005e00bd0058fa36c4235c0a,"<iframe width=""484"" height=""364"" src=""https://chart.maryland.gov/video/video.php?feed=4e00dc82005e00bd0058fa36c4235c0a"" frame border=""0"" allowfullscreen></iframe>",39.013603,-77.04067
-8481875.0551,4797095.5973,75,I-95 S of Md 22 (C015) MP 84.4,Harford County,d100b31600e60039004606363d235daa,https://chart.maryland.gov/video/video.php?feed=d100b31600e60039004606363d235daa,"<iframe width=""484"" height=""364"" src=""https://chart.maryland.gov/video/video.php?feed=d100b31600e60039004606363d235daa"" frame border=""0"" allowfullscreen></iframe>",39.52459,-76.19398
-8531703.2177,4740097.2847,76,I-97 AT NEW CUT ROAD,Anne Arundel County,00012848007300bc004c823633235daa,https://chart.maryland.gov/video/video.php?feed=00012848007300bc004c823633235daa,"<iframe width=""484"" height=""364"" src=""https://chart.maryland.gov/video/video.php?feed=00012848007300bc004c823633235daa"" frame border=""0"" allowfullscreen></iframe>",39.128517,-76.641594
-8511679.2903,4774806.0099,77,I-95 S of Md 43 (C023) MP 66.1,Baltimore County,94017d1100e40039004606363d235daa,https://chart.maryland.gov/video/video.php?feed=94017d1100e40039004606363d235daa,"<iframe width=""484"" height=""364"" src=""https://chart.maryland.gov/video/video.php?feed=94017d1100e40039004606363d235daa"" frame border=""0"" allowfullscreen></iframe>",39.36997,-76.461716
-8528421.5191,4781117.956,78,I-695 W. OF YORK RD,Baltimore County,9cff12c400ef00ac004be2369e235daa,https://chart.maryland.gov/video/video.php?feed=9cff12c400ef00ac004be2369e235daa,"<iframe width=""484"" height=""364"" src=""https://chart.maryland.gov/video/video.php?feed=9cff12c400ef00ac004be2369e235daa"" frame border=""0"" allowfullscreen></iframe>",39.41379,-76.612114
-8408838.3372,4631821.3909,79,US 50 AT US 13 SALISBURY BYPASS,Wicomico County,d7000a1f00200031004a8436cf235d0a,https://chart.maryland.gov/video/video.php?feed=d7000a1f00200031004a8436cf235d0a,"<iframe width=""484"" height=""364"" src=""https://chart.maryland.gov/video/video.php?feed=d7000a1f00200031004a8436cf235d0a"" frame border=""0"" allowfullscreen></iframe>",38.36996,-75.53788
-8553522.5058,4788410.0064,80,I-795 AT COCKEYS MILL RD,Baltimore County,60000d3b003300ba004be2369e235daa,https://chart.maryland.gov/video/video.php?feed=60000d3b003300ba004be2369e235daa,"<iframe width=""484"" height=""364"" src=""https://chart.maryland.gov/video/video.php?feed=60000d3b003300ba004be2369e235daa"" frame border=""0"" allowfullscreen></iframe>",39.46438,-76.8376
-8572994.5111,4743071.5233,81,Ashton Rd (MD 108) & New Hampshire Ave (MD 650),Montgomery County,27014de201200075004d823633235daa,https://chart.maryland.gov/video/video.php?feed=27014de201200075004d823633235daa,"<iframe width=""484"" height=""364"" src=""https://chart.maryland.gov/video/video.php?feed=27014de201200075004d823633235daa"" frame border=""0"" allowfullscreen></iframe>",39.14924,-77.01252
-8571743.28,4693272.7621,82,I-95/495 AT MD 210,Prince George's County,2901965801f700d700437a45351f0214,https://chart.maryland.gov/video/video.php?feed=2901965801f700d700437a45351f0214,"<iframe width=""484"" height=""364"" src=""https://chart.maryland.gov/video/video.php?feed=2901965801f700d700437a45351f0214"" frame border=""0"" allowfullscreen></iframe>",38.801464,-77.00128
-8469651.6184,4802697.1132,83,US 40 S Pier #35 Hatem Br (C064),Cecil County,a50136f124680007004806363d235daa,https://chart.maryland.gov/video/video.php?feed=a50136f124680007004806363d235daa,"<iframe width=""484"" height=""364"" src=""https://chart.maryland.gov/video/video.php?feed=a50136f124680007004806363d235daa"" frame border=""0"" allowfullscreen></iframe>",39.563393,-76.084175
-8515733.9914,4771969.086,84,"I-95N ML @ I-695, MP 63.7(C024C)",Baltimore County,de00376802d0009e0052fa36c4235c0a,https://chart.maryland.gov/video/video.php?feed=de00376802d0009e0052fa36c4235c0a,"<iframe width=""484"" height=""364"" src=""https://chart.maryland.gov/video/video.php?feed=de00376802d0009e0052fa36c4235c0a"" frame border=""0"" allowfullscreen></iframe>",39.350266,-76.49814
-8534638.2674,4793172.662,85,I-83 AT SHAWAN ROAD,Baltimore County,5cff0d8f00d900bc004be2369e235daa,https://chart.maryland.gov/video/video.php?feed=5cff0d8f00d900bc004be2369e235daa,"<iframe width=""484"" height=""364"" src=""https://chart.maryland.gov/video/video.php?feed=5cff0d8f00d900bc004be2369e235daa"" frame border=""0"" allowfullscreen></iframe>",39.497402,-76.66796
-8618250.3369,4778829.0933,86,I-70 E. OF I-270,Frederick County,9201ff5801f700d700437a45351f0214,https://chart.maryland.gov/video/video.php?feed=9201ff5801f700d700437a45351f0214,"<iframe width=""484"" height=""364"" src=""https://chart.maryland.gov/video/video.php?feed=9201ff5801f700d700437a45351f0214"" frame border=""0"" allowfullscreen></iframe>",39.397903,-77.41906
-8713614.8503,4823879.1989,87,RWIS I-68/SIDELING HILL,Washington County,c1ff9c0c00a100ab0050fa36c4235c0a,https://chart.maryland.gov/video/video.php?feed=c1ff9c0c00a100ab0050fa36c4235c0a,"<iframe width=""484"" height=""364"" src=""https://chart.maryland.gov/video/video.php?feed=c1ff9c0c00a100ab0050fa36c4235c0a"" frame border=""0"" allowfullscreen></iframe>",39.70993,-78.275734
-8529639.4656,4766299.3633,88,I-83 and North Ave,Baltimore City,88005dc600990068004f823633235daa,https://chart.maryland.gov/video/video.php?feed=88005dc600990068004f823633235daa,"<iframe width=""484"" height=""364"" src=""https://chart.maryland.gov/video/video.php?feed=88005dc600990068004f823633235daa"" frame border=""0"" allowfullscreen></iframe>",39.31087,-76.623055
-8585661.556,4730839.7331,89,Rockville Pk (MD 355) & Congressional La,Montgomery County,5601494900ee0074004d823633235daa,https://chart.maryland.gov/video/video.php?feed=5601494900ee0074004d823633235daa,"<iframe width=""484"" height=""364"" src=""https://chart.maryland.gov/video/video.php?feed=5601494900ee0074004d823633235daa"" frame border=""0"" allowfullscreen></iframe>",39.063976,-77.12631
-8591495.8105,4739240.0375,90,Frederick Rd (MD 355) & Shady Grove Rd,Montgomery County,9c00a1c202600075004d823633235daa,https://chart.maryland.gov/video/video.php?feed=9c00a1c202600075004d823633235daa,"<iframe width=""484"" height=""364"" src=""https://chart.maryland.gov/video/video.php?feed=9c00a1c202600075004d823633235daa"" frame border=""0"" allowfullscreen></iframe>",39.122543,-77.17872
-8559310.5627,4731284.4802,91,"ICC MD 200 EB AT KONTERRA DRIVE, MM 19.6 (C-227)",Prince George's County,2f01de5c00e300410054fa36c4235c0a,https://chart.maryland.gov/video/video.php?feed=2f01de5c00e300410054fa36c4235c0a,"<iframe width=""484"" height=""364"" src=""https://chart.maryland.gov/video/video.php?feed=2f01de5c00e300410054fa36c4235c0a"" frame border=""0"" allowfullscreen></iframe>",39.067078,-76.889595
-8591502.4896,4718066.8271,92,I-495 N. OF AMER LEG,Montgomery County,d901475800f700d700437a45351f0214,https://chart.maryland.gov/video/video.php?feed=d901475800f700d700437a45351f0214,"<iframe width=""484"" height=""364"" src=""https://chart.maryland.gov/video/video.php?feed=d901475800f700d700437a45351f0214"" frame border=""0"" allowfullscreen></iframe>",38.97483,-77.17878
-8635384.0763,4823577.9288,93,MD 64 AT MD 418,Washington County,c000e031002400b90055fa36c4235c0a,https://chart.maryland.gov/video/video.php?feed=c000e031002400b90055fa36c4235c0a,"<iframe width=""484"" height=""364"" src=""https://chart.maryland.gov/video/video.php?feed=c000e031002400b90055fa36c4235c0a"" frame border=""0"" allowfullscreen></iframe>",39.707848,-77.572975
-8529771.9358,4754574.8543,94,I-895 at Ritchie Spur (C047) MP 5.9,Anne Arundel County,db01192600680049004806363d235daa,https://chart.maryland.gov/video/video.php?feed=db01192600680049004806363d235daa,"<iframe width=""484"" height=""364"" src=""https://chart.maryland.gov/video/video.php?feed=db01192600680049004806363d235daa"" frame border=""0"" allowfullscreen></iframe>",39.229332,-76.624245
-8534226.3852,4651829.6262,95,RWIS MD-231 AT PATUXENT RIVER,Calvert County,2c01b630005100240054fa36c4235c0a,https://chart.maryland.gov/video/video.php?feed=2c01b630005100240054fa36c4235c0a,"<iframe width=""484"" height=""364"" src=""https://chart.maryland.gov/video/video.php?feed=2c01b630005100240054fa36c4235c0a"" frame border=""0"" allowfullscreen></iframe>",38.51074,-76.66426
-8560988.704,4732157.9732,96,ICC MD 200 WB E OF I-95 MM 18.6 (C-225),Prince George's County,7f00d20700f400ae004e3336c4235c0a,https://chart.maryland.gov/video/video.php?feed=7f00d20700f400ae004e3336c4235c0a,"<iframe width=""484"" height=""364"" src=""https://chart.maryland.gov/video/video.php?feed=7f00d20700f400ae004e3336c4235c0a"" frame border=""0"" allowfullscreen></iframe>",39.07317,-76.90467
-8535217.1287,4759270.1811,97,I-95 N. OF I-695 SW,Baltimore City,c0012d5801f700d700437a45351f0214,https://chart.maryland.gov/video/video.php?feed=c0012d5801f700d700437a45351f0214,"<iframe width=""484"" height=""364"" src=""https://chart.maryland.gov/video/video.php?feed=c0012d5801f700d700437a45351f0214"" frame border=""0"" allowfullscreen></iframe>",39.261997,-76.67316
-8616585.6652,4785186.956,98,US 15 AT MD 26,Frederick County,ccffd39d00a000e90056fa36c4235c0a,https://chart.maryland.gov/video/video.php?feed=ccffd39d00a000e90056fa36c4235c0a,"<iframe width=""484"" height=""364"" src=""https://chart.maryland.gov/video/video.php?feed=ccffd39d00a000e90056fa36c4235c0a"" frame border=""0"" allowfullscreen></iframe>",39.442024,-77.404106
-8583131.2639,4739800.6695,99,"ICC MD 200 WB E OF MUNCASTER, MM 6.5 (C-211)",Montgomery County,800026950585004b004d06363d235daa,https://chart.maryland.gov/video/video.php?feed=800026950585004b004d06363d235daa,"<iframe width=""484"" height=""364"" src=""https://chart.maryland.gov/video/video.php?feed=800026950585004b004d06363d235daa"" frame border=""0"" allowfullscreen></iframe>",39.12645,-77.10358
-8555079.8655,4709809.5288,100,I-95/495 AT MD 202,Prince George's County,5101be5801f700d700437a45351f0214,https://chart.maryland.gov/video/video.php?feed=5101be5801f700d700437a45351f0214,"<iframe width=""484"" height=""364"" src=""https://chart.maryland.gov/video/video.php?feed=5101be5801f700d700437a45351f0214"" frame border=""0"" allowfullscreen></iframe>",38.91714,-76.85159
-8530330.7597,4716988.2304,101,US 50 E. OF RUTLAND RD,Anne Arundel County,2a0155be026200e50051fa36c4235c0a,https://chart.maryland.gov/video/video.php?feed=2a0155be026200e50051fa36c4235c0a,"<iframe width=""484"" height=""364"" src=""https://chart.maryland.gov/video/video.php?feed=2a0155be026200e50051fa36c4235c0a"" frame border=""0"" allowfullscreen></iframe>",38.967297,-76.629265
-8508325.6793,4778693.2504,102,I-95 S NORTH OF JOPPA RD (C-021A) MP68.6,Baltimore County,5601403c00860064004d06363d235daa,https://chart.maryland.gov/video/video.php?feed=5601403c00860064004d06363d235daa,"<iframe width=""484"" height=""364"" src=""https://chart.maryland.gov/video/video.php?feed=5601403c00860064004d06363d235daa"" frame border=""0"" allowfullscreen></iframe>",39.39696,-76.43159
-8834849.1229,4764291.4907,103,RWIS US 50 AT TABLE ROCK,Garrett County,be00a3fe007d00d30050fa36c4235c0a,https://chart.maryland.gov/video/video.php?feed=be00a3fe007d00d30050fa36c4235c0a,"<iframe width=""484"" height=""364"" src=""https://chart.maryland.gov/video/video.php?feed=be00a3fe007d00d30050fa36c4235c0a"" frame border=""0"" allowfullscreen></iframe>",39.296913,-79.3648
-8513278.2835,4773590.1697,104,"I-95 N, North of King Ave (C023A), MP 65.1",Baltimore County,f80049ce008d0064004d06363d235daa,https://chart.maryland.gov/video/video.php?feed=f80049ce008d0064004d06363d235daa,"<iframe width=""484"" height=""364"" src=""https://chart.maryland.gov/video/video.php?feed=f80049ce008d0064004d06363d235daa"" frame border=""0"" allowfullscreen></iframe>",39.361526,-76.47608
-8566683.3639,4733036.4174,105,ICC MD 200 EB W OF US 29 MM 15.8 (C-221),Montgomery County,6c017914001e00bd004e3336c4235c0a,https://chart.maryland.gov/video/video.php?feed=6c017914001e00bd004e3336c4235c0a,"<iframe width=""484"" height=""364"" src=""https://chart.maryland.gov/video/video.php?feed=6c017914001e00bd004e3336c4235c0a"" frame border=""0"" allowfullscreen></iframe>",39.079296,-76.955826
-8481279.4958,4797508.3538,106,I-95 N of Md 22 (C014) MP 84.8,Harford County,4d00a5a100e50039004606363d235daa,https://chart.maryland.gov/video/video.php?feed=4d00a5a100e50039004606363d235daa,"<iframe width=""484"" height=""364"" src=""https://chart.maryland.gov/video/video.php?feed=4d00a5a100e50039004606363d235daa"" frame border=""0"" allowfullscreen></iframe>",39.52745,-76.18863
-8515208.5634,4620672.0479,107,MD 235 AT CHANCELLORS RUN RD,St. Mary's County,4c00dc0e008b00070053fa36c4235c0a,https://chart.maryland.gov/video/video.php?feed=4c00dc0e008b00070053fa36c4235c0a,"<iframe width=""484"" height=""364"" src=""https://chart.maryland.gov/video/video.php?feed=4c00dc0e008b00070053fa36c4235c0a"" frame border=""0"" allowfullscreen></iframe>",38.291393,-76.49342
-8580176.1767,4718331.7329,108,Bradley Blvd (MD 191) & Connecticut Ave (MD 185),Montgomery County,a1008d3b00020075004d823633235daa,https://chart.maryland.gov/video/video.php?feed=a1008d3b00020075004d823633235daa,"<iframe width=""484"" height=""364"" src=""https://chart.maryland.gov/video/video.php?feed=a1008d3b00020075004d823633235daa"" frame border=""0"" allowfullscreen></iframe>",38.97668,-77.077034
-8441849.019,4706871.2137,109,MD 404 AT CHOPTANK RIVER,Caroline County,9900ea4405b500e20052fa36c4235c0a,https://chart.maryland.gov/video/video.php?feed=9900ea4405b500e20052fa36c4235c0a,"<iframe width=""484"" height=""364"" src=""https://chart.maryland.gov/video/video.php?feed=9900ea4405b500e20052fa36c4235c0a"" frame border=""0"" allowfullscreen></iframe>",38.8966,-75.83442
-8534042.1515,4779253.9205,110,I-83 AT RUXTON RD,Baltimore County,f70020c2006800a8004e3436c4235c0a,https://chart.maryland.gov/video/video.php?feed=f70020c2006800a8004e3436c4235c0a,"<iframe width=""484"" height=""364"" src=""https://chart.maryland.gov/video/video.php?feed=f70020c2006800a8004e3436c4235c0a"" frame border=""0"" allowfullscreen></iframe>",39.400852,-76.662605
-8776951.8557,4812984.2701,113,I-68 EAST PRIOR TO WINCHESTER RD,Allegany County,bb00f8c6002300050058fa36c4235c0a,https://chart.maryland.gov/video/video.php?feed=bb00f8c6002300050058fa36c4235c0a,"<iframe width=""484"" height=""364"" src=""https://chart.maryland.gov/video/video.php?feed=bb00f8c6002300050058fa36c4235c0a"" frame border=""0"" allowfullscreen></iframe>",39.634598,-78.8447
-8532036.1743,4769739.7308,114,I-83 and 41st Street,Baltimore City,2601615f009a0068004f823633235daa,https://chart.maryland.gov/video/video.php?feed=2601615f009a0068004f823633235daa,"<iframe width=""484"" height=""364"" src=""https://chart.maryland.gov/video/video.php?feed=2601615f009a0068004f823633235daa"" frame border=""0"" allowfullscreen></iframe>",39.334778,-76.644585
-8520424.5495,4766538.7753,115,I-895 at Moravia Rd (C029) MP14.1,Baltimore City,7f01597a018d00e300441a366e230214,https://chart.maryland.gov/video/video.php?feed=7f01597a018d00e300441a366e230214,"<iframe width=""484"" height=""364"" src=""https://chart.maryland.gov/video/video.php?feed=7f01597a018d00e300441a366e230214"" frame border=""0"" allowfullscreen></iframe>",39.312534,-76.540276
-8525923.0644,4759617.9796,117,I-95 at FMT Top of South Portal (C040)MP 54.5,Baltimore City,a9008078019200e300441a366e230214,https://chart.maryland.gov/video/video.php?feed=a9008078019200e300441a366e230214,"<iframe width=""484"" height=""364"" src=""https://chart.maryland.gov/video/video.php?feed=a9008078019200e300441a366e230214"" frame border=""0"" allowfullscreen></iframe>",39.264416,-76.58967
-8530309.4976,4736333.9164,118,I-97 N. of  EX 10 BENFIELD BLVD,Anne Arundel County,1e010edb006a00bb004af03676235daa,https://chart.maryland.gov/video/video.php?feed=1e010edb006a00bb004af03676235daa,"<iframe width=""484"" height=""364"" src=""https://chart.maryland.gov/video/video.php?feed=1e010edb006a00bb004af03676235daa"" frame border=""0"" allowfullscreen></iframe>",39.102287,-76.629074
-8538029.6156,4758700.4156,119,I-695 AT WILKENS AVE,Baltimore County,c501325801f700d700437a45351f0214,https://chart.maryland.gov/video/video.php?feed=c501325801f700d700437a45351f0214,"<iframe width=""484"" height=""364"" src=""https://chart.maryland.gov/video/video.php?feed=c501325801f700d700437a45351f0214"" frame border=""0"" allowfullscreen></iframe>",39.258034,-76.698425
-8455886.4068,4812256.9375,120,I-95 S of Md 272 (C004) MP 99.4,Cecil County,d501656c00e20039004606363d235daa,https://chart.maryland.gov/video/video.php?feed=d501656c00e20039004606363d235daa,"<iframe width=""484"" height=""364"" src=""https://chart.maryland.gov/video/video.php?feed=d501656c00e20039004606363d235daa"" frame border=""0"" allowfullscreen></iframe>",39.629566,-75.96052
-8554084.6692,4709945.4501,121,RUBY LOCKHART AT ST. JOSEPH'S DR,Prince George's County,b300be2300a4005c0055fa36c4235c0a,https://chart.maryland.gov/video/video.php?feed=b300be2300a4005c0055fa36c4235c0a,"<iframe width=""484"" height=""364"" src=""https://chart.maryland.gov/video/video.php?feed=b300be2300a4005c0055fa36c4235c0a"" frame border=""0"" allowfullscreen></iframe>",38.91809,-76.84265
-8562023.9753,4732400.7351,122,ICC MD 200 WB W OF I-95 MM 18.1 (C-224),Prince George's County,c8008761001f00bd004e3336c4235c0a,https://chart.maryland.gov/video/video.php?feed=c8008761001f00bd004e3336c4235c0a,"<iframe width=""484"" height=""364"" src=""https://chart.maryland.gov/video/video.php?feed=c8008761001f00bd004e3336c4235c0a"" frame border=""0"" allowfullscreen></iframe>",39.074863,-76.91397
-8497347.3511,4681486.0223,123,MD 33 AT KNAPPS NARROWS BRIDGE,Talbot County,cf00ee7505b600e20052fa36c4235c0a,https://chart.maryland.gov/video/video.php?feed=cf00ee7505b600e20052fa36c4235c0a,"<iframe width=""484"" height=""364"" src=""https://chart.maryland.gov/video/video.php?feed=cf00ee7505b600e20052fa36c4235c0a"" frame border=""0"" allowfullscreen></iframe>",38.7189,-76.33297
-8529808.1147,4760134.0202,124,I-95 AT I-395,Baltimore City,bb01285801f700d700437a45351f0214,https://chart.maryland.gov/video/video.php?feed=bb01285801f700d700437a45351f0214,"<iframe width=""484"" height=""364"" src=""https://chart.maryland.gov/video/video.php?feed=bb01285801f700d700437a45351f0214"" frame border=""0"" allowfullscreen></iframe>",39.268005,-76.62457
-8532313.9164,4771222.5539,125,I-83 AND COLDSPRING LANE,Baltimore City,1600d0e600de001e004f823633235daa,https://chart.maryland.gov/video/video.php?feed=1600d0e600de001e004f823633235daa,"<iframe width=""484"" height=""364"" src=""https://chart.maryland.gov/video/video.php?feed=1600d0e600de001e004f823633235daa"" frame border=""0"" allowfullscreen></iframe>",39.34508,-76.64708
-8556610.5085,4707057.5869,126,GARRETT A. MORGAN BLVD AT RIDGEFIELD,Prince George's County,ef00c25800a7005c0055fa36c4235c0a,https://chart.maryland.gov/video/video.php?feed=ef00c25800a7005c0055fa36c4235c0a,"<iframe width=""484"" height=""364"" src=""https://chart.maryland.gov/video/video.php?feed=ef00c25800a7005c0055fa36c4235c0a"" frame border=""0"" allowfullscreen></iframe>",38.897903,-76.86534
-8492162.0893,4801481.4987,127,MD 22 AT SHUCKS RD,Harford County,e8ff1a9100c000580045e2369e235daa,https://chart.maryland.gov/video/video.php?feed=e8ff1a9100c000580045e2369e235daa,"<iframe width=""484"" height=""364"" src=""https://chart.maryland.gov/video/video.php?feed=e8ff1a9100c000580045e2369e235daa"" frame border=""0"" allowfullscreen></iframe>",39.554974,-76.28639
-8506867.9506,4770090.4818,128,RWIS MD 43 AT MD 150,Baltimore County,85ffb0bb00a200ab0050fa36c4235c0a,https://chart.maryland.gov/video/video.php?feed=85ffb0bb00a200ab0050fa36c4235c0a,"<iframe width=""484"" height=""364"" src=""https://chart.maryland.gov/video/video.php?feed=85ffb0bb00a200ab0050fa36c4235c0a"" frame border=""0"" allowfullscreen></iframe>",39.337215,-76.418495
-8409945.9661,4588514.9294,129,RWIS US 13 AT US 113 (North),Worcester County,1e01f2f2004d001e0052fa36c4235c0a,https://chart.maryland.gov/video/video.php?feed=1e01f2f2004d001e0052fa36c4235c0a,"<iframe width=""484"" height=""364"" src=""https://chart.maryland.gov/video/video.php?feed=1e01f2f2004d001e0052fa36c4235c0a"" frame border=""0"" allowfullscreen></iframe>",38.064312,-75.54783
-8556003.3719,4709896.8044,130,MD 202 AT BRIGHTSEAT RD,Prince George's County,5601c35801f700d700437a45351f0214,https://chart.maryland.gov/video/video.php?feed=5601c35801f700d700437a45351f0214,"<iframe width=""484"" height=""364"" src=""https://chart.maryland.gov/video/video.php?feed=5601c35801f700d700437a45351f0214"" frame border=""0"" allowfullscreen></iframe>",38.91775,-76.859886
-8519722.1235,4767520.9419,131,I-95 N of I-895 Split (C028) MP 14.7,Baltimore City,5f00c39300e70039004606363d235daa,https://chart.maryland.gov/video/video.php?feed=5f00c39300e70039004606363d235daa,"<iframe width=""484"" height=""364"" src=""https://chart.maryland.gov/video/video.php?feed=5f00c39300e70039004606363d235daa"" frame border=""0"" allowfullscreen></iframe>",39.31936,-76.533966
-8554941.8293,4708353.1398,132,I-95/495 AT ARENA DR,Prince George's County,4c01b95801f700d700437a45351f0214,https://chart.maryland.gov/video/video.php?feed=4c01b95801f700d700437a45351f0214,"<iframe width=""484"" height=""364"" src=""https://chart.maryland.gov/video/video.php?feed=4c01b95801f700d700437a45351f0214"" frame border=""0"" allowfullscreen></iframe>",38.90696,-76.85035
-8532664.5728,4787328.6207,133,I-83 N OF Padonia RD,Baltimore County,f20026b2006d00a8004e3436c4235c0a,https://chart.maryland.gov/video/video.php?feed=f20026b2006d00a8004e3436c4235c0a,"<iframe width=""484"" height=""364"" src=""https://chart.maryland.gov/video/video.php?feed=f20026b2006d00a8004e3436c4235c0a"" frame border=""0"" allowfullscreen></iframe>",39.45688,-76.65023
-8515340.5884,4772067.8408,134,"I-95N GP @ I-695, MP 63.9(C024B)",Baltimore County,0000309302ce009e0052fa36c4235c0a,https://chart.maryland.gov/video/video.php?feed=0000309302ce009e0052fa36c4235c0a,"<iframe width=""484"" height=""364"" src=""https://chart.maryland.gov/video/video.php?feed=0000309302ce009e0052fa36c4235c0a"" frame border=""0"" allowfullscreen></iframe>",39.350952,-76.494606
-8552217.1734,4764224.8898,135,I-70 AT US 29,Howard County,4b002ac3002700d7004b823633235daa,https://chart.maryland.gov/video/video.php?feed=4b002ac3002700d7004b823633235daa,"<iframe width=""484"" height=""364"" src=""https://chart.maryland.gov/video/video.php?feed=4b002ac3002700d7004b823633235daa"" frame border=""0"" allowfullscreen></iframe>",39.29645,-76.825874
-8516492.0772,4755151.5725,136,I-695 I/L S of Broening Hgwy (C054) MP 46.4,Baltimore County,83014c5ac47701b8004606363d235daa,https://chart.maryland.gov/video/video.php?feed=83014c5ac47701b8004606363d235daa,"<iframe width=""484"" height=""364"" src=""https://chart.maryland.gov/video/video.php?feed=83014c5ac47701b8004606363d235daa"" frame border=""0"" allowfullscreen></iframe>",39.233345,-76.50495
-8518712.3444,4753288.8902,137,I-695 I/L Pier #18,Baltimore City,ecffa184017100850053fa36c4235c0a,https://chart.maryland.gov/video/video.php?feed=ecffa184017100850053fa36c4235c0a,"<iframe width=""484"" height=""364"" src=""https://chart.maryland.gov/video/video.php?feed=ecffa184017100850053fa36c4235c0a"" frame border=""0"" allowfullscreen></iframe>",39.220383,-76.524895
-8613325.5626,4780096.4252,138,I-70 E. EX 56 MD 144,Frederick County,8701c10d073d000800447a45351f0214,https://chart.maryland.gov/video/video.php?feed=8701c10d073d000800447a45351f0214,"<iframe width=""484"" height=""364"" src=""https://chart.maryland.gov/video/video.php?feed=8701c10d073d000800447a45351f0214"" frame border=""0"" allowfullscreen></iframe>",39.4067,-77.37482
-8455455.6004,4812619.1517,139,I-95 N of Md 272 (C003) MP 99.9,Cecil County,5c0161f800e10039004606363d235daa,https://chart.maryland.gov/video/video.php?feed=5c0161f800e10039004606363d235daa,"<iframe width=""484"" height=""364"" src=""https://chart.maryland.gov/video/video.php?feed=5c0161f800e10039004606363d235daa"" frame border=""0"" allowfullscreen></iframe>",39.632072,-75.95665
-8587689.7971,4723551.9339,140,I-495 N OF I-270 SPUR,Montgomery County,4800e8aa00ab0059005cd336c4235c0a,https://chart.maryland.gov/video/video.php?feed=4800e8aa00ab0059005cd336c4235c0a,"<iframe width=""484"" height=""364"" src=""https://chart.maryland.gov/video/video.php?feed=4800e8aa00ab0059005cd336c4235c0a"" frame border=""0"" allowfullscreen></iframe>",39.013153,-77.144615
-8499306.5742,4785233.227,141,I-95 S of Md 152  (C021) MP 74.1,Harford County,4c01cf7300e80039004606363d235daa,https://chart.maryland.gov/video/video.php?feed=4c01cf7300e80039004606363d235daa,"<iframe width=""484"" height=""364"" src=""https://chart.maryland.gov/video/video.php?feed=4c01cf7300e80039004606363d235daa"" frame border=""0"" allowfullscreen></iframe>",39.442345,-76.35057
-8530453.7677,4732338.9328,142,I-97 N OF MD 32,Anne Arundel County,1b0001f0019700c40051fa36c4235c0a,https://chart.maryland.gov/video/video.php?feed=1b0001f0019700c40051fa36c4235c0a,"<iframe width=""484"" height=""364"" src=""https://chart.maryland.gov/video/video.php?feed=1b0001f0019700c40051fa36c4235c0a"" frame border=""0"" allowfullscreen></iframe>",39.074432,-76.63037
-8560592.9632,4742464.0605,143,US 29 at MD 216,Howard County,53000a2a002d00cf004ae33696235daa,https://chart.maryland.gov/video/video.php?feed=53000a2a002d00cf004ae33696235daa,"<iframe width=""484"" height=""364"" src=""https://chart.maryland.gov/video/video.php?feed=53000a2a002d00cf004ae33696235daa"" frame border=""0"" allowfullscreen></iframe>",39.145008,-76.901115
-8502020.5434,4720653.1773,144,WPL C507 at Gantry N-12 MP 2.7,Anne Arundel County,e30088da2e32001b00503336c4235c0a,https://chart.maryland.gov/video/video.php?feed=e30088da2e32001b00503336c4235c0a,"<iframe width=""484"" height=""364"" src=""https://chart.maryland.gov/video/video.php?feed=e30088da2e32001b00503336c4235c0a"" frame border=""0"" allowfullscreen></iframe>",38.99289,-76.37495
-8579982.0355,4726205.7481,145,Connecticut Ave (MD 185) & University Blvd (MD 193),Montgomery County,be00f98402680075004d823633235daa,https://chart.maryland.gov/video/video.php?feed=be00f98402680075004d823633235daa,"<iframe width=""484"" height=""364"" src=""https://chart.maryland.gov/video/video.php?feed=be00f98402680075004d823633235daa"" frame border=""0"" allowfullscreen></iframe>",39.031647,-77.07529
-8514323.5735,4624507.1866,146,MD 4 AT THOMAS JOHNSON BRIDGE,Saint Mary's County,b50008f100c700dc004a02366d235daa,https://chart.maryland.gov/video/video.php?feed=b50008f100c700dc004a02366d235daa,"<iframe width=""484"" height=""364"" src=""https://chart.maryland.gov/video/video.php?feed=b50008f100c700dc004a02366d235daa"" frame border=""0"" allowfullscreen></iframe>",38.318428,-76.48547
-8568209.5541,4733587.384,147,ICC MD 200 EB W OF US 29 MM 14.9 (C-220),Montgomery County,7d01722d001d00bd004e3336c4235c0a,https://chart.maryland.gov/video/video.php?feed=7d01722d001d00bd004e3336c4235c0a,"<iframe width=""484"" height=""364"" src=""https://chart.maryland.gov/video/video.php?feed=7d01722d001d00bd004e3336c4235c0a"" frame border=""0"" allowfullscreen></iframe>",39.083138,-76.969536
-8563835.1434,4728980.9535,148,I-95 AT MD 212,Prince George's County,f701655800f700d700437a45351f0214,https://chart.maryland.gov/video/video.php?feed=f701655800f700d700437a45351f0214,"<iframe width=""484"" height=""364"" src=""https://chart.maryland.gov/video/video.php?feed=f701655800f700d700437a45351f0214"" frame border=""0"" allowfullscreen></iframe>",39.05101,-76.93024
-8471095.9888,4805798.8332,149,I-95 N of Tydings Br (C010) MP 91.3,Cecil County,7d0095e200e40039004606363d235daa,https://chart.maryland.gov/video/video.php?feed=7d0095e200e40039004606363d235daa,"<iframe width=""484"" height=""364"" src=""https://chart.maryland.gov/video/video.php?feed=7d0095e200e40039004606363d235daa"" frame border=""0"" allowfullscreen></iframe>",39.58487,-76.09715
-8533975.9164,4789523.2344,150,I-83 AT WARREN RD,Baltimore County,57010d62007a0043004be2369e235daa,https://chart.maryland.gov/video/video.php?feed=57010d62007a0043004be2369e235daa,"<iframe width=""484"" height=""364"" src=""https://chart.maryland.gov/video/video.php?feed=57010d62007a0043004be2369e235daa"" frame border=""0"" allowfullscreen></iframe>",39.4721,-76.66201
-8577592.0061,4723644.9153,151,I-495 W OF MD 97,Montgomery County,0b02795800f700d700437a45351f0214,https://chart.maryland.gov/video/video.php?feed=0b02795800f700d700437a45351f0214,"<iframe width=""484"" height=""364"" src=""https://chart.maryland.gov/video/video.php?feed=0b02795800f700d700437a45351f0214"" frame border=""0"" allowfullscreen></iframe>",39.013775,-77.05382
-8519515.5145,4719587.1945,152,US 50 AT MD 2 - Ex 23 (Parole Twr),Anne Arundel County,8801f65800f700d700437a45351f0214,https://chart.maryland.gov/video/video.php?feed=8801f65800f700d700437a45351f0214,"<iframe width=""484"" height=""364"" src=""https://chart.maryland.gov/video/video.php?feed=8801f65800f700d700437a45351f0214"" frame border=""0"" allowfullscreen></iframe>",38.985447,-76.53211
-8770172.4988,4814550.1225,153,I-68 AT EXIT 42 AT US-220,Allegany County,2d00048601c700070057fa36c4235c0a,https://chart.maryland.gov/video/video.php?feed=2d00048601c700070057fa36c4235c0a,"<iframe width=""484"" height=""364"" src=""https://chart.maryland.gov/video/video.php?feed=2d00048601c700070057fa36c4235c0a"" frame border=""0"" allowfullscreen></iframe>",39.64543,-78.7838
-8567456.3664,4730629.5532,154,Columbia Pk (US 29) & Randolph Rd,Montgomery County,790175d402570075004d823633235daa,https://chart.maryland.gov/video/video.php?feed=790175d402570075004d823633235daa,"<iframe width=""484"" height=""364"" src=""https://chart.maryland.gov/video/video.php?feed=790175d402570075004d823633235daa"" frame border=""0"" allowfullscreen></iframe>",39.06251,-76.96277
-8576357.4729,4723919.2797,155,Forest Glen Rd (MD 192) & Georgia Ave (MD 97),Montgomery County,410175d201220075004d823633235daa,https://chart.maryland.gov/video/video.php?feed=410175d201220075004d823633235daa,"<iframe width=""484"" height=""364"" src=""https://chart.maryland.gov/video/video.php?feed=410175d201220075004d823633235daa"" frame border=""0"" allowfullscreen></iframe>",39.01569,-77.04273
-8480463.524,4815958.9055,156,US 1 AT CONOWINGO,Harford County,030016aa006800800045833633235daa,https://chart.maryland.gov/video/video.php?feed=030016aa006800800045833633235daa,"<iframe width=""484"" height=""364"" src=""https://chart.maryland.gov/video/video.php?feed=030016aa006800800045833633235daa"" frame border=""0"" allowfullscreen></iframe>",39.655174,-76.1813
-8467246.5608,4807292.4844,157,I-95 N of Md 222 (C007) MP 93.4,Cecil County,400179c200e30039004606363d235daa,https://chart.maryland.gov/video/video.php?feed=400179c200e30039004606363d235daa,"<iframe width=""484"" height=""364"" src=""https://chart.maryland.gov/video/video.php?feed=400179c200e30039004606363d235daa"" frame border=""0"" allowfullscreen></iframe>",39.59521,-76.06257
-8580396.144,4738789.0577,158,"ICC MD 200 WB W OF MD 97, MM 8.0 (C-212)",Montgomery County,8201404900b00059004d06363d235daa,https://chart.maryland.gov/video/video.php?feed=8201404900b00059004d06363d235daa,"<iframe width=""484"" height=""364"" src=""https://chart.maryland.gov/video/video.php?feed=8201404900b00059004d06363d235daa"" frame border=""0"" allowfullscreen></iframe>",39.1194,-77.07901
-8557523.3283,4718594.641,159,I-95/495 AT GOOD LUCK ROAD,Prince George's County,260016bb004200f0004ae33696235daa,https://chart.maryland.gov/video/video.php?feed=260016bb004200f0004ae33696235daa,"<iframe width=""484"" height=""364"" src=""https://chart.maryland.gov/video/video.php?feed=260016bb004200f0004ae33696235daa"" frame border=""0"" allowfullscreen></iframe>",38.978516,-76.87354
-8552649.761,4744453.9532,160,I-95 SB AT MD 32,Howard County,ed015b5800f700d700437a45351f0214,https://chart.maryland.gov/video/video.php?feed=ed015b5800f700d700437a45351f0214,"<iframe width=""484"" height=""364"" src=""https://chart.maryland.gov/video/video.php?feed=ed015b5800f700d700437a45351f0214"" frame border=""0"" allowfullscreen></iframe>",39.15887,-76.82976
-8789171.9529,4816180.1302,161,RWIS I-68 AT SAVAGE MT,Allegany County,faff984a00a000ab0050fa36c4235c0a,https://chart.maryland.gov/video/video.php?feed=faff984a00a000ab0050fa36c4235c0a,"<iframe width=""484"" height=""364"" src=""https://chart.maryland.gov/video/video.php?feed=faff984a00a000ab0050fa36c4235c0a"" frame border=""0"" allowfullscreen></iframe>",39.656704,-78.954475
-8576453.2077,4735985.3413,162,ICC MD 200 EB W OF 182 LAYHILL RD MM 10.4 (C-215),Montgomery County,d7006b8f001c00bd004e3336c4235c0a,https://chart.maryland.gov/video/video.php?feed=d7006b8f001c00bd004e3336c4235c0a,"<iframe width=""484"" height=""364"" src=""https://chart.maryland.gov/video/video.php?feed=d7006b8f001c00bd004e3336c4235c0a"" frame border=""0"" allowfullscreen></iframe>",39.099857,-77.04359
-8560407.0597,4731352.728,163,ICC MD 200 EB E OF I-95 MM 19.1 (C-226),Prince George's County,86008e17002000bd004e3336c4235c0a,https://chart.maryland.gov/video/video.php?feed=86008e17002000bd004e3336c4235c0a,"<iframe width=""484"" height=""364"" src=""https://chart.maryland.gov/video/video.php?feed=86008e17002000bd004e3336c4235c0a"" frame border=""0"" allowfullscreen></iframe>",39.067554,-76.899445
-8508504.9037,4725258.9727,164,US 50 E OF ST MARGARETS,Anne Arundel County,7e01ec5800f700d700437a45351f0214,https://chart.maryland.gov/video/video.php?feed=7e01ec5800f700d700437a45351f0214,"<iframe width=""484"" height=""364"" src=""https://chart.maryland.gov/video/video.php?feed=7e01ec5800f700d700437a45351f0214"" frame border=""0"" allowfullscreen></iframe>",39.02504,-76.4332
-8591729.5814,4721939.8673,165,Bradley Blvd (MD 191) & River Road (MD 190),Montgomery County,3101502603df0077004d823633235daa,https://chart.maryland.gov/video/video.php?feed=3101502603df0077004d823633235daa,"<iframe width=""484"" height=""364"" src=""https://chart.maryland.gov/video/video.php?feed=3101502603df0077004d823633235daa"" frame border=""0"" allowfullscreen></iframe>",39.001873,-77.18082
-8592571.1568,4737470.0965,166,I-270 & Shady Grove Rd,Montgomery County,490169b102560075004d823633235daa,https://chart.maryland.gov/video/video.php?feed=490169b102560075004d823633235daa,"<iframe width=""484"" height=""364"" src=""https://chart.maryland.gov/video/video.php?feed=490169b102560075004d823633235daa"" frame border=""0"" allowfullscreen></iframe>",39.110207,-77.18838
-8530685.3122,4750686.1372,167,I-695 AT I-97,Anne Arundel County,b601245800f700d700437a45351f0214,https://chart.maryland.gov/video/video.php?feed=b601245800f700d700437a45351f0214,"<iframe width=""484"" height=""364"" src=""https://chart.maryland.gov/video/video.php?feed=b601245800f700d700437a45351f0214"" frame border=""0"" allowfullscreen></iframe>",39.202267,-76.63245
-8582435.5171,4721561.707,168,Rockville Pk (MD 355) & South Dr,Montgomery County,f400498202500075004d823633235daa,https://chart.maryland.gov/video/video.php?feed=f400498202500075004d823633235daa,"<iframe width=""484"" height=""364"" src=""https://chart.maryland.gov/video/video.php?feed=f400498202500075004d823633235daa"" frame border=""0"" allowfullscreen></iframe>",38.999233,-77.09733
-8600920.1186,4750014.8691,169,I-270 AT Father Hurley Blvd,Montgomery County,47010d4f01130075004d823633235daa,https://chart.maryland.gov/video/video.php?feed=47010d4f01130075004d823633235daa,"<iframe width=""484"" height=""364"" src=""https://chart.maryland.gov/video/video.php?feed=47010d4f01130075004d823633235daa"" frame border=""0"" allowfullscreen></iframe>",39.197594,-77.26338
-8500669.7927,4720057.0839,170,WPL C510 at Gantry S-15 MP 35.0,Anne Arundel County,a800e0862df8001700503336c4235c0a,https://chart.maryland.gov/video/video.php?feed=a800e0862df8001700503336c4235c0a,"<iframe width=""484"" height=""364"" src=""https://chart.maryland.gov/video/video.php?feed=a800e0862df8001700503336c4235c0a"" frame border=""0"" allowfullscreen></iframe>",38.988728,-76.362816
-8520439.4663,4678274.0285,171,RWIS MD-260 AT Cox Road,Calvert County,dcffb99000fa00c80054fa36c4235c0a,https://chart.maryland.gov/video/video.php?feed=dcffb99000fa00c80054fa36c4235c0a,"<iframe width=""484"" height=""364"" src=""https://chart.maryland.gov/video/video.php?feed=dcffb99000fa00c80054fa36c4235c0a"" frame border=""0"" allowfullscreen></iframe>",38.696384,-76.54041
-8409945.9661,4588514.9294,172,RWIS US 13 AT US 113 (South),Worcester County,f1003d4002aa00fa0051fa36c4235c0a,https://chart.maryland.gov/video/video.php?feed=f1003d4002aa00fa0051fa36c4235c0a,"<iframe width=""484"" height=""364"" src=""https://chart.maryland.gov/video/video.php?feed=f1003d4002aa00fa0051fa36c4235c0a"" frame border=""0"" allowfullscreen></iframe>",38.064312,-75.54783
-8514369.8824,4772798.8869,173,I-95 N of Rossville Blvd  (C024) MP 64.4,Baltimore County,36008da300e40039004606363d235daa,https://chart.maryland.gov/video/video.php?feed=36008da300e40039004606363d235daa,"<iframe width=""484"" height=""364"" src=""https://chart.maryland.gov/video/video.php?feed=36008da300e40039004606363d235daa"" frame border=""0"" allowfullscreen></iframe>",39.35603,-76.485886
-8845727.2636,4816705.3055,174,RWIS I-68 AT WV LINE,Garrett County,da0072eb01fc00b10052fa36c4235c0a,https://chart.maryland.gov/video/video.php?feed=da0072eb01fc00b10052fa36c4235c0a,"<iframe width=""484"" height=""364"" src=""https://chart.maryland.gov/video/video.php?feed=da0072eb01fc00b10052fa36c4235c0a"" frame border=""0"" allowfullscreen></iframe>",39.660336,-79.46252
-8531418.9077,4782330.2401,175,I-83 N OF I-695 EX 24,Baltimore County,4701b55800f700d700437a45351f0214,https://chart.maryland.gov/video/video.php?feed=4701b55800f700d700437a45351f0214,"<iframe width=""484"" height=""364"" src=""https://chart.maryland.gov/video/video.php?feed=4701b55800f700d700437a45351f0214"" frame border=""0"" allowfullscreen></iframe>",39.422203,-76.63904
-8558343.7529,4720929.6092,177,MD-295 AT MD-193,Prince George's County,aa01d4760070001b0058fa36c4235c0a,https://chart.maryland.gov/video/video.php?feed=aa01d4760070001b0058fa36c4235c0a,"<iframe width=""484"" height=""364"" src=""https://chart.maryland.gov/video/video.php?feed=aa01d4760070001b0058fa36c4235c0a"" frame border=""0"" allowfullscreen></iframe>",38.99482,-76.88091
-8587337.4709,4725481.9377,178,I-270 N OF DEMOCRACY,Montgomery County,10027e5800f700d700437a45351f0214,https://chart.maryland.gov/video/video.php?feed=10027e5800f700d700437a45351f0214,"<iframe width=""484"" height=""364"" src=""https://chart.maryland.gov/video/video.php?feed=10027e5800f700d700437a45351f0214"" frame border=""0"" allowfullscreen></iframe>",39.026596,-77.141365
-8509046.473,4777523.0314,179,"I-95N, N of Cowenton Ave, MM 67.9 (C021B)",Baltimore County,3401cf1d00fc007b0054fa36c4235c0a,https://chart.maryland.gov/video/video.php?feed=3401cf1d00fc007b0054fa36c4235c0a,"<iframe width=""484"" height=""364"" src=""https://chart.maryland.gov/video/video.php?feed=3401cf1d00fc007b0054fa36c4235c0a"" frame border=""0"" allowfullscreen></iframe>",39.388836,-76.438065
-8539822.416,4715267.8392,180,US 50 E OF US 301/MD 3,Prince George's County,7401e15801f700d700437a45351f0214,https://chart.maryland.gov/video/video.php?feed=7401e15801f700d700437a45351f0214,"<iframe width=""484"" height=""364"" src=""https://chart.maryland.gov/video/video.php?feed=7401e15801f700d700437a45351f0214"" frame border=""0"" allowfullscreen></iframe>",38.95528,-76.71453
-8560646.9532,4723108.8157,181,I-95/495 N OF MD 201,Prince George's County,2401925800f700d700437a45351f0214,https://chart.maryland.gov/video/video.php?feed=2401925800f700d700437a45351f0214,"<iframe width=""484"" height=""364"" src=""https://chart.maryland.gov/video/video.php?feed=2401925800f700d700437a45351f0214"" frame border=""0"" allowfullscreen></iframe>",39.010033,-76.9016
-8556737.4127,4698790.2237,182,I-95/495 AT MD 4,Prince George's County,6a01d75801f700d700437a45351f0214,https://chart.maryland.gov/video/video.php?feed=6a01d75801f700d700437a45351f0214,"<iframe width=""484"" height=""364"" src=""https://chart.maryland.gov/video/video.php?feed=6a01d75801f700d700437a45351f0214"" frame border=""0"" allowfullscreen></iframe>",38.84008,-76.86648
-8607593.2768,4761427.4729,183,RWIS I-270 AT MD 109,Montgomery County,2100d19c00cc00180053fa36c4235c0a,https://chart.maryland.gov/video/video.php?feed=2100d19c00cc00180053fa36c4235c0a,"<iframe width=""484"" height=""364"" src=""https://chart.maryland.gov/video/video.php?feed=2100d19c00cc00180053fa36c4235c0a"" frame border=""0"" allowfullscreen></iframe>",39.277,-77.323326
-8466809.0752,4670062.6212,184,US 50 E OF MD 565 TRAPPE TWR,Talbot County,97001d0e0096007b00488436cf235d0a,https://chart.maryland.gov/video/video.php?feed=97001d0e0096007b00488436cf235d0a,"<iframe width=""484"" height=""364"" src=""https://chart.maryland.gov/video/video.php?feed=97001d0e0096007b00488436cf235d0a"" frame border=""0"" allowfullscreen></iframe>",38.63879,-76.05864
-8488024.3438,4717527.8724,185,RWIS US 50 AT KENT NARROWS BRG,Queen Anne's County,3c0090ba006f00b60050fa36c4235c0a,https://chart.maryland.gov/video/video.php?feed=3c0090ba006f00b60050fa36c4235c0a,"<iframe width=""484"" height=""364"" src=""https://chart.maryland.gov/video/video.php?feed=3c0090ba006f00b60050fa36c4235c0a"" frame border=""0"" allowfullscreen></iframe>",38.971066,-76.24922
-8558073.2466,4696945.3074,186,I-95/495 AT FORESTVILLE RD,Prince George's County,e5016766026300e50051fa36c4235c0a,https://chart.maryland.gov/video/video.php?feed=e5016766026300e50051fa36c4235c0a,"<iframe width=""484"" height=""364"" src=""https://chart.maryland.gov/video/video.php?feed=e5016766026300e50051fa36c4235c0a"" frame border=""0"" allowfullscreen></iframe>",38.82717,-76.87848
-8580196.8822,4722403.5627,187,Connecticut Ave (MD 185) & I-495,Montgomery County,ac00a13000040075004d823633235daa,https://chart.maryland.gov/video/video.php?feed=ac00a13000040075004d823633235daa,"<iframe width=""484"" height=""364"" src=""https://chart.maryland.gov/video/video.php?feed=ac00a13000040075004d823633235daa"" frame border=""0"" allowfullscreen></iframe>",39.00511,-77.07722
-8520754.5005,4751557.1428,188,I-695 S of FSK Bridge (C052) MP 49.1,Baltimore City,15013dfcc47601b8004606363d235daa,https://chart.maryland.gov/video/video.php?feed=15013dfcc47601b8004606363d235daa,"<iframe width=""484"" height=""364"" src=""https://chart.maryland.gov/video/video.php?feed=15013dfcc47601b8004606363d235daa"" frame border=""0"" allowfullscreen></iframe>",39.20833,-76.54324
-8471205.0819,4805775.7224,189,RWIS I-95 AT TYDINGS BRIDGE,Cecil County,8800c7b6006a00d40050fa36c4235c0a,https://chart.maryland.gov/video/video.php?feed=8800c7b6006a00d40050fa36c4235c0a,"<iframe width=""484"" height=""364"" src=""https://chart.maryland.gov/video/video.php?feed=8800c7b6006a00d40050fa36c4235c0a"" frame border=""0"" allowfullscreen></iframe>",39.58471,-76.09813
-8559314.4589,4736011.5916,190,I-95 AT MD-198,Prince George's County,63ff12a0008d00030048e33696235daa,https://chart.maryland.gov/video/video.php?feed=63ff12a0008d00030048e33696235daa,"<iframe width=""484"" height=""364"" src=""https://chart.maryland.gov/video/video.php?feed=63ff12a0008d00030048e33696235daa"" frame border=""0"" allowfullscreen></iframe>",39.10004,-76.88963
-8532889.4382,4816262.2593,191,I-83 AT YORK RD,Baltimore County,01000de0003700b2004be2369e235daa,https://chart.maryland.gov/video/video.php?feed=01000de0003700b2004be2369e235daa,"<iframe width=""484"" height=""364"" src=""https://chart.maryland.gov/video/video.php?feed=01000de0003700b2004be2369e235daa"" frame border=""0"" allowfullscreen></iframe>",39.657272,-76.65225
-8557260.6143,4713620.0188,192,Ardwick Ardmore Rd At Pennsy Dr,Prince George's County,bd000b0500ea00af004502366d235daa,https://chart.maryland.gov/video/video.php?feed=bd000b0500ea00af004502366d235daa,"<iframe width=""484"" height=""364"" src=""https://chart.maryland.gov/video/video.php?feed=bd000b0500ea00af004502366d235daa"" frame border=""0"" allowfullscreen></iframe>",38.943768,-76.87118
-8580544.7556,4737300.3787,193,Muncaster Mill Rd (MD 115) & Norbeck Rd (MD 28),Montgomery County,8401296e01150075004d823633235daa,https://chart.maryland.gov/video/video.php?feed=8401296e01150075004d823633235daa,"<iframe width=""484"" height=""364"" src=""https://chart.maryland.gov/video/video.php?feed=8401296e01150075004d823633235daa"" frame border=""0"" allowfullscreen></iframe>",39.109024,-77.080345
-8563688.7583,4719216.7119,194,Paint Branch Pkwy at MFRI,Prince George's County,c5ff65d2008900a1004f823633235daa,https://chart.maryland.gov/video/video.php?feed=c5ff65d2008900a1004f823633235daa,"<iframe width=""484"" height=""364"" src=""https://chart.maryland.gov/video/video.php?feed=c5ff65d2008900a1004f823633235daa"" frame border=""0"" allowfullscreen></iframe>",38.98286,-76.928925
-8530736.5192,4749500.0642,195,I-97 S OF I-695,Anne Arundel County,b1011f5800f700d700437a45351f0214,https://chart.maryland.gov/video/video.php?feed=b1011f5800f700d700437a45351f0214,"<iframe width=""484"" height=""364"" src=""https://chart.maryland.gov/video/video.php?feed=b1011f5800f700d700437a45351f0214"" frame border=""0"" allowfullscreen></iframe>",39.19401,-76.63291
-8674375.3978,4815440.9985,196,I-70 AT CLEARSPRING RD,Washington County,3800cfd80092002b0057fa36c4235c0a,https://chart.maryland.gov/video/video.php?feed=3800cfd80092002b0057fa36c4235c0a,"<iframe width=""484"" height=""364"" src=""https://chart.maryland.gov/video/video.php?feed=3800cfd80092002b0057fa36c4235c0a"" frame border=""0"" allowfullscreen></iframe>",39.651592,-77.92324
-8637842.0107,4795483.1238,197,I-70 E AT SOUTH MOUNTAIN,Frederick County,0200f4dc00c300a00052fa36c4235c0a,https://chart.maryland.gov/video/video.php?feed=0200f4dc00c300a00052fa36c4235c0a,"<iframe width=""484"" height=""364"" src=""https://chart.maryland.gov/video/video.php?feed=0200f4dc00c300a00052fa36c4235c0a"" frame border=""0"" allowfullscreen></iframe>",39.513416,-77.595055
-8519666.909,4762741.5149,198,I-95 S of Eastern Ave (C042) MP 58.5,Baltimore City,e1000d84021a004b004606363d235daa,https://chart.maryland.gov/video/video.php?feed=e1000d84021a004b004606363d235daa,"<iframe width=""484"" height=""364"" src=""https://chart.maryland.gov/video/video.php?feed=e1000d84021a004b004606363d235daa"" frame border=""0"" allowfullscreen></iframe>",39.286137,-76.53347
-8531000.7917,4785577.0232,199,"I-83 N OF EX 16, TIMONIUM ROAD (403043)",Baltimore County,59011876001200b4004e3436c4235c0a,https://chart.maryland.gov/video/video.php?feed=59011876001200b4004e3436c4235c0a,"<iframe width=""484"" height=""364"" src=""https://chart.maryland.gov/video/video.php?feed=59011876001200b4004e3436c4235c0a"" frame border=""0"" allowfullscreen></iframe>",39.44473,-76.635284
-8570428.5968,4630773.5899,200,US 301 N HWN Br Pier #20 (C059) MP 1.4,Charles County,9e01734dc47801b8004606363d235daa,https://chart.maryland.gov/video/video.php?feed=9e01734dc47801b8004606363d235daa,"<iframe width=""484"" height=""364"" src=""https://chart.maryland.gov/video/video.php?feed=9e01734dc47801b8004606363d235daa"" frame border=""0"" allowfullscreen></iframe>",38.36258,-76.98947
-8590721.0268,4740353.4398,201,"ICC MD 200 WB AT CRABBS BRANCH WAY, MM 2.2 (C-201)",Montgomery County,c50024ab00ad0059004d06363d235daa,https://chart.maryland.gov/video/video.php?feed=c50024ab00ad0059004d06363d235daa,"<iframe width=""484"" height=""364"" src=""https://chart.maryland.gov/video/video.php?feed=c50024ab00ad0059004d06363d235daa"" frame border=""0"" allowfullscreen></iframe>",39.130302,-77.17176
-8468439.9058,4803403.2452,202,US 40 N TJH Bridge Top of Toll Plaza (C065),Cecil County,f601423524690007004806363d235daa,https://chart.maryland.gov/video/video.php?feed=f601423524690007004806363d235daa,"<iframe width=""484"" height=""364"" src=""https://chart.maryland.gov/video/video.php?feed=f601423524690007004806363d235daa"" frame border=""0"" allowfullscreen></iframe>",39.568283,-76.07329
-8367962.3768,4633300.2785,203,MD 90 AT MD 589,Worcester County,c1000a2d004700e700498436cf235d0a,https://chart.maryland.gov/video/video.php?feed=c1000a2d004700e700498436cf235d0a,"<iframe width=""484"" height=""364"" src=""https://chart.maryland.gov/video/video.php?feed=c1000a2d004700e700498436cf235d0a"" frame border=""0"" allowfullscreen></iframe>",38.380375,-75.170685
-8586268.2472,4741348.2729,204,"ICC MD 200 WB, DECKOVER APPROACH, MM 4.7 (C-208)",Montgomery County,7f014af00502004e004d06363d235daa,https://chart.maryland.gov/video/video.php?feed=7f014af00502004e004d06363d235daa,"<iframe width=""484"" height=""364"" src=""https://chart.maryland.gov/video/video.php?feed=7f014af00502004e004d06363d235daa"" frame border=""0"" allowfullscreen></iframe>",39.137234,-77.13176
-8518175.2279,4622410.6278,205,MD 235 AT ST ANDREWS CHURCH RD,Saint Mary's County,fdffe2b9008b00070053fa36c4235c0a,https://chart.maryland.gov/video/video.php?feed=fdffe2b9008b00070053fa36c4235c0a,"<iframe width=""484"" height=""364"" src=""https://chart.maryland.gov/video/video.php?feed=fdffe2b9008b00070053fa36c4235c0a"" frame border=""0"" allowfullscreen></iframe>",38.30365,-76.52007
-8505808.7456,4818418.6793,206,MD 24 AT MD 165,Harford County,08010a4401e30024005cd336c4235c0a,https://chart.maryland.gov/video/video.php?feed=08010a4401e30024005cd336c4235c0a,"<iframe width=""484"" height=""364"" src=""https://chart.maryland.gov/video/video.php?feed=08010a4401e30024005cd336c4235c0a"" frame border=""0"" allowfullscreen></iframe>",39.672184,-76.40898
-8587801.1166,4741003.8302,208,"ICC MD 200 EB, REDLAND RD, MM 3.9 (C203)",Montgomery County,7b011318000d0053004d06363d235daa,https://chart.maryland.gov/video/video.php?feed=7b011318000d0053004d06363d235daa,"<iframe width=""484"" height=""364"" src=""https://chart.maryland.gov/video/video.php?feed=7b011318000d0053004d06363d235daa"" frame border=""0"" allowfullscreen></iframe>",39.134834,-77.14553
-8510596.5969,4776145.5627,209,"MD 43 EB, West of I-95  (C022A) MP 67.0",Baltimore County,d200cf40000100f20053fa36c4235c0a,https://chart.maryland.gov/video/video.php?feed=d200cf40000100f20053fa36c4235c0a,"<iframe width=""484"" height=""364"" src=""https://chart.maryland.gov/video/video.php?feed=d200cf40000100f20053fa36c4235c0a"" frame border=""0"" allowfullscreen></iframe>",39.379272,-76.45199
-8545238.1093,4777822.4873,210,I-795 AT MCDONOGH RD (403046),Baltimore County,c701321a0027004e004f3436c4235c0a,https://chart.maryland.gov/video/video.php?feed=c701321a0027004e004f3436c4235c0a,"<iframe width=""484"" height=""364"" src=""https://chart.maryland.gov/video/video.php?feed=c701321a0027004e004f3436c4235c0a"" frame border=""0"" allowfullscreen></iframe>",39.390915,-76.76318
-8573493.2224,4723912.1161,211,I-495 AT US-29,Montgomery County,470011e600ef003a004ee33696235daa,https://chart.maryland.gov/video/video.php?feed=470011e600ef003a004ee33696235daa,"<iframe width=""484"" height=""364"" src=""https://chart.maryland.gov/video/video.php?feed=470011e600ef003a004ee33696235daa"" frame border=""0"" allowfullscreen></iframe>",39.01564,-77.017
-8555229.0336,4701135.3653,212,I-95/495 AT D'ARCY ROAD,Prince George's County,d8000e99005e00ba004a02366d235daa,https://chart.maryland.gov/video/video.php?feed=d8000e99005e00ba004a02366d235daa,"<iframe width=""484"" height=""364"" src=""https://chart.maryland.gov/video/video.php?feed=d8000e99005e00ba004a02366d235daa"" frame border=""0"" allowfullscreen></iframe>",38.856487,-76.85293
-8577588.6665,4737073.8536,213,ICC MD 200 WB LONGMEAD CROSSING DR MM 9.6 (C-214),Montgomery County,75003cc500a600ca004e3336c4235c0a,https://chart.maryland.gov/video/video.php?feed=75003cc500a600ca004e3336c4235c0a,"<iframe width=""484"" height=""364"" src=""https://chart.maryland.gov/video/video.php?feed=75003cc500a600ca004e3336c4235c0a"" frame border=""0"" allowfullscreen></iframe>",39.107445,-77.05379
-8585671.5747,4740871.223,214,"ICC MD 200 WB N OF NEEDWOOD RD, MM 5.1 (C-209)",Montgomery County,bc001dc100950059004d06363d235daa,https://chart.maryland.gov/video/video.php?feed=bc001dc100950059004d06363d235daa,"<iframe width=""484"" height=""364"" src=""https://chart.maryland.gov/video/video.php?feed=bc001dc100950059004d06363d235daa"" frame border=""0"" allowfullscreen></iframe>",39.13391,-77.1264
-8518952.6832,4752611.7017,215,I-695 O/L Pier #17,Baltimore City,0d009bac017000850053fa36c4235c0a,https://chart.maryland.gov/video/video.php?feed=0d009bac017000850053fa36c4235c0a,"<iframe width=""484"" height=""364"" src=""https://chart.maryland.gov/video/video.php?feed=0d009bac017000850053fa36c4235c0a"" frame border=""0"" allowfullscreen></iframe>",39.21567,-76.527054
-8571475.0001,4806696.8751,216,RWIS MD 140 AT MD 97,Carroll County,45009b93007700d30050fa36c4235c0a,https://chart.maryland.gov/video/video.php?feed=45009b93007700d30050fa36c4235c0a,"<iframe width=""484"" height=""364"" src=""https://chart.maryland.gov/video/video.php?feed=45009b93007700d30050fa36c4235c0a"" frame border=""0"" allowfullscreen></iframe>",39.591087,-76.99887
-8499738.4938,4797378.4636,217,US 1B AT MD 24,Harford County,030006cc00b400580045e2369e235daa,https://chart.maryland.gov/video/video.php?feed=030006cc00b400580045e2369e235daa,"<iframe width=""484"" height=""364"" src=""https://chart.maryland.gov/video/video.php?feed=030006cc00b400580045e2369e235daa"" frame border=""0"" allowfullscreen></iframe>",39.52655,-76.35445
-8506061.9975,4813343.0414,219,RWIS MD 24 AT ROCKS ST. PARK,Harford County,2e00ac6800a200ab0050fa36c4235c0a,https://chart.maryland.gov/video/video.php?feed=2e00ac6800a200ab0050fa36c4235c0a,"<iframe width=""484"" height=""364"" src=""https://chart.maryland.gov/video/video.php?feed=2e00ac6800a200ab0050fa36c4235c0a"" frame border=""0"" allowfullscreen></iframe>",39.63708,-76.411255
-8544402.0999,4741793.3388,220,MD 295 SB AT MD 175,Anne Arundel County,3c013258006300f20047833633235daa,https://chart.maryland.gov/video/video.php?feed=3c013258006300f20047833633235daa,"<iframe width=""484"" height=""364"" src=""https://chart.maryland.gov/video/video.php?feed=3c013258006300f20047833633235daa"" frame border=""0"" allowfullscreen></iframe>",39.140335,-76.75567
-8467633.9527,4684871.7223,221,US 50 AT MD 322 EASTON TWR,Talbot County,050018820095007b00488436cf235d0a,https://chart.maryland.gov/video/video.php?feed=050018820095007b00488436cf235d0a,"<iframe width=""484"" height=""364"" src=""https://chart.maryland.gov/video/video.php?feed=050018820095007b00488436cf235d0a"" frame border=""0"" allowfullscreen></iframe>",38.742626,-76.06605
-8573105.8306,4724462.2997,222,Colesville Rd (US 29) & University Blvd (MD 193),Montgomery County,a000d98902650075004d823633235daa,https://chart.maryland.gov/video/video.php?feed=a000d98902650075004d823633235daa,"<iframe width=""484"" height=""364"" src=""https://chart.maryland.gov/video/video.php?feed=a000d98902650075004d823633235daa"" frame border=""0"" allowfullscreen></iframe>",39.01948,-77.01352
-8571864.0617,4735382.8941,224,Bonifant Rd / Good Hope Rd & New Hampshire Ave (MD 650),Montgomery County,c7008d04025d0075004d823633235daa,https://chart.maryland.gov/video/video.php?feed=c7008d04025d0075004d823633235daa,"<iframe width=""484"" height=""364"" src=""https://chart.maryland.gov/video/video.php?feed=c7008d04025d0075004d823633235daa"" frame border=""0"" allowfullscreen></iframe>",39.095657,-77.002365
-8490306.3933,4794629.5154,225,MD 543 AT MD 136,Harford County,40001fe400c000580045e2369e235daa,https://chart.maryland.gov/video/video.php?feed=40001fe400c000580045e2369e235daa,"<iframe width=""484"" height=""364"" src=""https://chart.maryland.gov/video/video.php?feed=40001fe400c000580045e2369e235daa"" frame border=""0"" allowfullscreen></iframe>",39.5075,-76.26972
-8530722.0477,4747655.658,226,I-97 N OF MD-648 (502024),Anne Arundel County,0900adbd00ee00e30051fa36c4235c0a,https://chart.maryland.gov/video/video.php?feed=0900adbd00ee00e30051fa36c4235c0a,"<iframe width=""484"" height=""364"" src=""https://chart.maryland.gov/video/video.php?feed=0900adbd00ee00e30051fa36c4235c0a"" frame border=""0"" allowfullscreen></iframe>",39.181168,-76.63278
-8514526.175,4769365.8209,227,I-695 AT PULASKI HWY,Baltimore County,cf013c5801f700d700437a45351f0214,https://chart.maryland.gov/video/video.php?feed=cf013c5801f700d700437a45351f0214,"<iframe width=""484"" height=""364"" src=""https://chart.maryland.gov/video/video.php?feed=cf013c5801f700d700437a45351f0214"" frame border=""0"" allowfullscreen></iframe>",39.33218,-76.48729
-8505308.9211,4723042.4857,228,WPL C501 at Gantry N-1 MP 0.7,Anne Arundel County,6100bdd12e83001c00503336c4235c0a,https://chart.maryland.gov/video/video.php?feed=6100bdd12e83001c00503336c4235c0a,"<iframe width=""484"" height=""364"" src=""https://chart.maryland.gov/video/video.php?feed=6100bdd12e83001c00503336c4235c0a"" frame border=""0"" allowfullscreen></iframe>",39.00957,-76.40449
-8599123.422,4746791.4509,229,I-270 & Middlebrook Rd,Montgomery County,520119f4036b0075004d823633235daa,https://chart.maryland.gov/video/video.php?feed=520119f4036b0075004d823633235daa,"<iframe width=""484"" height=""364"" src=""https://chart.maryland.gov/video/video.php?feed=520119f4036b0075004d823633235daa"" frame border=""0"" allowfullscreen></iframe>",39.17515,-77.24724
-8589261.6283,4720360.2822,230,I-495 & River Rd (MD 190),Montgomery County,c600bd2b00070075004d823633235daa,https://chart.maryland.gov/video/video.php?feed=c600bd2b00070075004d823633235daa,"<iframe width=""484"" height=""364"" src=""https://chart.maryland.gov/video/video.php?feed=c600bd2b00070075004d823633235daa"" frame border=""0"" allowfullscreen></iframe>",38.990845,-77.15865
-8533982.5956,4776835.1376,231,I-83 S OF OLD PIMLICO RD,Baltimore County,63001ed500b100ba004e3436c4235c0a,https://chart.maryland.gov/video/video.php?feed=63001ed500b100ba004e3436c4235c0a,"<iframe width=""484"" height=""364"" src=""https://chart.maryland.gov/video/video.php?feed=63001ed500b100ba004e3436c4235c0a"" frame border=""0"" allowfullscreen></iframe>",39.38406,-76.66207
-8543302.2633,4771609.7763,232,I-695 AT LIBERTY RD,Baltimore County,3d01ab5800f700d700437a45351f0214,https://chart.maryland.gov/video/video.php?feed=3d01ab5800f700d700437a45351f0214,"<iframe width=""484"" height=""364"" src=""https://chart.maryland.gov/video/video.php?feed=3d01ab5800f700d700437a45351f0214"" frame border=""0"" allowfullscreen></iframe>",39.34777,-76.74579
-8462431.9929,4726072.9048,233,US 301 AT MD 304 QUEEN ANNE SAFETY DR TWR,Queen Anne's County,e30009710093007b00488436cf235d0a,https://chart.maryland.gov/video/video.php?feed=e30009710093007b00488436cf235d0a,"<iframe width=""484"" height=""364"" src=""https://chart.maryland.gov/video/video.php?feed=e30009710093007b00488436cf235d0a"" frame border=""0"" allowfullscreen></iframe>",39.03072,-76.01932
-8510455.2212,4775779.1912,234,"I-95N, Prior to MD 43, MM 66.8 (C022C)",Baltimore County,6401c95400fb007b0054fa36c4235c0a,https://chart.maryland.gov/video/video.php?feed=6401c95400fb007b0054fa36c4235c0a,"<iframe width=""484"" height=""364"" src=""https://chart.maryland.gov/video/video.php?feed=6401c95400fb007b0054fa36c4235c0a"" frame border=""0"" allowfullscreen></iframe>",39.376728,-76.45072
-8589716.925,4741339.0876,235,"ICC MD 200 WB N/METRO ACCESS RD, MM 2.9 (C-202)",Montgomery County,2a012b0800ae0059004d06363d235daa,https://chart.maryland.gov/video/video.php?feed=2a012b0800ae0059004d06363d235daa,"<iframe width=""484"" height=""364"" src=""https://chart.maryland.gov/video/video.php?feed=2a012b0800ae0059004d06363d235daa"" frame border=""0"" allowfullscreen></iframe>",39.13717,-77.16274
-8653905.9698,4822516.1763,236,I-81 AT SHOWALTER RD,Washington County,9a00c9410091002b0057fa36c4235c0a,https://chart.maryland.gov/video/video.php?feed=9a00c9410091002b0057fa36c4235c0a,"<iframe width=""484"" height=""364"" src=""https://chart.maryland.gov/video/video.php?feed=9a00c9410091002b0057fa36c4235c0a"" frame border=""0"" allowfullscreen></iframe>",39.70051,-77.73936
-8588867.112,4729734.5453,237,I-270 & Montrose Rd,Montgomery County,4e01d53b02650075004d823633235daa,https://chart.maryland.gov/video/video.php?feed=4e01d53b02650075004d823633235daa,"<iframe width=""484"" height=""364"" src=""https://chart.maryland.gov/video/video.php?feed=4e01d53b02650075004d823633235daa"" frame border=""0"" allowfullscreen></iframe>",39.056267,-77.155106
-8570682.4053,4630726.7395,238,US 301 N of Nice Br Pier #7 (C058) MP 1.3,Charles County,75016d2ac47801b8004606363d235daa,https://chart.maryland.gov/video/video.php?feed=75016d2ac47801b8004606363d235daa,"<iframe width=""484"" height=""364"" src=""https://chart.maryland.gov/video/video.php?feed=75016d2ac47801b8004606363d235daa"" frame border=""0"" allowfullscreen></iframe>",38.36225,-76.99175
-8586412.9625,4741406.5422,239,"ICC MD 200 WB, Deckover Interior, MM 4.7 (C207)",Montgomery County,b000389a059e004b004d06363d235daa,https://chart.maryland.gov/video/video.php?feed=b000389a059e004b004d06363d235daa,"<iframe width=""484"" height=""364"" src=""https://chart.maryland.gov/video/video.php?feed=b000389a059e004b004d06363d235daa"" frame border=""0"" allowfullscreen></iframe>",39.13764,-77.13306
-8782266.2482,4813677.9737,240,RWIS I-68 EB AT MD-55,Allegany County,0001ba0e00fa006d0054fa36c4235c0a,https://chart.maryland.gov/video/video.php?feed=0001ba0e00fa006d0054fa36c4235c0a,"<iframe width=""484"" height=""364"" src=""https://chart.maryland.gov/video/video.php?feed=0001ba0e00fa006d0054fa36c4235c0a"" frame border=""0"" allowfullscreen></iframe>",39.639397,-78.89244
-8575142.4207,4735440.4119,241,ICC MD 200 WB E OF 182 LAYHILL RD MM 11.1 (C-216),Montgomery County,f2009c74002100bd004e3336c4235c0a,https://chart.maryland.gov/video/video.php?feed=f2009c74002100bd004e3336c4235c0a,"<iframe width=""484"" height=""364"" src=""https://chart.maryland.gov/video/video.php?feed=f2009c74002100bd004e3336c4235c0a"" frame border=""0"" allowfullscreen></iframe>",39.096058,-77.031815
-8515002.6224,4766859.343,242,I-695 N OF CHESACO AVE,Baltimore County,92005bf8019100de0052fa36c4235c0a,https://chart.maryland.gov/video/video.php?feed=92005bf8019100de0052fa36c4235c0a,"<iframe width=""484"" height=""364"" src=""https://chart.maryland.gov/video/video.php?feed=92005bf8019100de0052fa36c4235c0a"" frame border=""0"" allowfullscreen></iframe>",39.314762,-76.49157
-8553486.8835,4756058.4649,243,US 29 AT MD 108,Howard County,6b002d0800d40002004b823633235daa,https://chart.maryland.gov/video/video.php?feed=6b002d0800d40002004b823633235daa,"<iframe width=""484"" height=""364"" src=""https://chart.maryland.gov/video/video.php?feed=6b002d0800d40002004b823633235daa"" frame border=""0"" allowfullscreen></iframe>",39.239655,-76.83728
-8497585.1296,4719124.4872,244,WPL C514 at Gantry S-24 MP 36.6,Queen Anne's County,a500ddf12e87001c00503336c4235c0a,https://chart.maryland.gov/video/video.php?feed=a500ddf12e87001c00503336c4235c0a,"<iframe width=""484"" height=""364"" src=""https://chart.maryland.gov/video/video.php?feed=a500ddf12e87001c00503336c4235c0a"" frame border=""0"" allowfullscreen></iframe>",38.982216,-76.335106
-8589522.6725,4719309.7967,245,I-495 & Seven Locks Rd,Montgomery County,a1011d3e036c0075004d823633235daa,https://chart.maryland.gov/video/video.php?feed=a1011d3e036c0075004d823633235daa,"<iframe width=""484"" height=""364"" src=""https://chart.maryland.gov/video/video.php?feed=a1011d3e036c0075004d823633235daa"" frame border=""0"" allowfullscreen></iframe>",38.98351,-77.160995
-8503521.1301,4721096.7611,246,WPL C505 at Gantry N-9 MP 2.0,Anne Arundel County,eb0095b72e50001b00503336c4235c0a,https://chart.maryland.gov/video/video.php?feed=eb0095b72e50001b00503336c4235c0a,"<iframe width=""484"" height=""364"" src=""https://chart.maryland.gov/video/video.php?feed=eb0095b72e50001b00503336c4235c0a"" frame border=""0"" allowfullscreen></iframe>",38.995987,-76.38843
-8526034.3839,4751205.5997,247,I-695 W of East Ordnance Rd (C049) MP 0.6,Anne Arundel County,7101276ec47601b8004606363d235daa,https://chart.maryland.gov/video/video.php?feed=7101276ec47601b8004606363d235daa,"<iframe width=""484"" height=""364"" src=""https://chart.maryland.gov/video/video.php?feed=7101276ec47601b8004606363d235daa"" frame border=""0"" allowfullscreen></iframe>",39.205883,-76.59067
-8573364.0918,4692445.1722,248,I-95/495 AT I-295,Prince George's County,3301a05801f700d700437a45351f0214,https://chart.maryland.gov/video/video.php?feed=3301a05801f700d700437a45351f0214,"<iframe width=""484"" height=""364"" src=""https://chart.maryland.gov/video/video.php?feed=3301a05801f700d700437a45351f0214"" frame border=""0"" allowfullscreen></iframe>",38.79567,-77.01584
-8542568.6679,4762652.0562,249,I-695 AT US 40 WEST TWR,Baltimore County,0101a8c7007a00490052fa36c4235c0a,https://chart.maryland.gov/video/video.php?feed=0101a8c7007a00490052fa36c4235c0a,"<iframe width=""484"" height=""364"" src=""https://chart.maryland.gov/video/video.php?feed=0101a8c7007a00490052fa36c4235c0a"" frame border=""0"" allowfullscreen></iframe>",39.285515,-76.7392
-8591484.6785,4717761.8359,250,I-495 AT AMER LEG BR,Montgomery County,8b00ad8b0064001f0053fa36c4235c0a,https://chart.maryland.gov/video/video.php?feed=8b00ad8b0064001f0053fa36c4235c0a,"<iframe width=""484"" height=""364"" src=""https://chart.maryland.gov/video/video.php?feed=8b00ad8b0064001f0053fa36c4235c0a"" frame border=""0"" allowfullscreen></iframe>",38.9727,-77.17862
-8494486.4402,4784401.2457,251,US 40 AT MD 755,Harford County,c300873b00c10058004506363d235daa,https://chart.maryland.gov/video/video.php?feed=c300873b00c10058004506363d235daa,"<iframe width=""484"" height=""364"" src=""https://chart.maryland.gov/video/video.php?feed=c300873b00c10058004506363d235daa"" frame border=""0"" allowfullscreen></iframe>",39.436573,-76.30727
-8510975.0832,4757104.5825,252,I-695 N of MD 151 North Point Blvd (C056) MP 43.4,Baltimore County,f0005bb8c47701b8004606363d235daa,https://chart.maryland.gov/video/video.php?feed=f0005bb8c47701b8004606363d235daa,"<iframe width=""484"" height=""364"" src=""https://chart.maryland.gov/video/video.php?feed=f0005bb8c47701b8004606363d235daa"" frame border=""0"" allowfullscreen></iframe>",39.246933,-76.45539
-8536875.7891,4743007.7897,253,MD 100 AT MD 170 (502020),Anne Arundel County,1701273b0015003f004c823633235daa,https://chart.maryland.gov/video/video.php?feed=1701273b0015003f004c823633235daa,"<iframe width=""484"" height=""364"" src=""https://chart.maryland.gov/video/video.php?feed=1701273b0015003f004c823633235daa"" frame border=""0"" allowfullscreen></iframe>",39.148796,-76.68806
-8572257.5761,4734333.0004,254,ICC MD 200 WB  W OF MD 650 NEW HAMPSHIRE AVE MM 12.9 (C-218),Montgomery County,2e00aaa1002200bd004e3336c4235c0a,https://chart.maryland.gov/video/video.php?feed=2e00aaa1002200bd004e3336c4235c0a,"<iframe width=""484"" height=""364"" src=""https://chart.maryland.gov/video/video.php?feed=2e00aaa1002200bd004e3336c4235c0a"" frame border=""0"" allowfullscreen></iframe>",39.088337,-77.0059
-8544387.6284,4741780.2779,255,MD 295 NB AT MD 175,Anne Arundel County,ed002d0f006200f20047833633235daa,https://chart.maryland.gov/video/video.php?feed=ed002d0f006200f20047833633235daa,"<iframe width=""484"" height=""364"" src=""https://chart.maryland.gov/video/video.php?feed=ed002d0f006200f20047833633235daa"" frame border=""0"" allowfullscreen></iframe>",39.140244,-76.75554
-8461198.5729,4728382.2199,256,US 301 AT HOPE RD,Queen Anne's County,8800ee33009000070053fa36c4235c0a,https://chart.maryland.gov/video/video.php?feed=8800ee33009000070053fa36c4235c0a,"<iframe width=""484"" height=""364"" src=""https://chart.maryland.gov/video/video.php?feed=8800ee33009000070053fa36c4235c0a"" frame border=""0"" allowfullscreen></iframe>",39.046833,-76.00824
-8519334.0638,4777471.3225,257,I-695 AT HARFORD RD,Baltimore County,6001ce5800f700d700437a45351f0214,https://chart.maryland.gov/video/video.php?feed=6001ce5800f700d700437a45351f0214,"<iframe width=""484"" height=""364"" src=""https://chart.maryland.gov/video/video.php?feed=6001ce5800f700d700437a45351f0214"" frame border=""0"" allowfullscreen></iframe>",39.388477,-76.53048
-8804496.7506,4820752.6261,258,I-68 at US 219 (Grantsville Tower),Garrett County,be0017de00e800dd00451536ea235d0a,https://chart.maryland.gov/video/video.php?feed=be0017de00e800dd00451536ea235d0a,"<iframe width=""484"" height=""364"" src=""https://chart.maryland.gov/video/video.php?feed=be0017de00e800dd00451536ea235d0a"" frame border=""0"" allowfullscreen></iframe>",39.68832,-79.09214
-8447094.3934,4773874.3901,259,RWIS MD 213 AT SASSAFRAS RIVER,Kent County,0601b947006500d40050fa36c4235c0a,https://chart.maryland.gov/video/video.php?feed=0601b947006500d40050fa36c4235c0a,"<iframe width=""484"" height=""364"" src=""https://chart.maryland.gov/video/video.php?feed=0601b947006500d40050fa36c4235c0a"" frame border=""0"" allowfullscreen></iframe>",39.3635,-75.88154
-8478503.1877,4794913.4663,260,US 40 AT MD 132,Harford County,20008c9300c10058004506363d235daa,https://chart.maryland.gov/video/video.php?feed=20008c9300c10058004506363d235daa,"<iframe width=""484"" height=""364"" src=""https://chart.maryland.gov/video/video.php?feed=20008c9300c10058004506363d235daa"" frame border=""0"" allowfullscreen></iframe>",39.509468,-76.16369
-8557469.3383,4738217.1472,261,RWIS I-95 AT PATUXENT,Howard County,0301bd3e006700d40050fa36c4235c0a,https://chart.maryland.gov/video/video.php?feed=0301bd3e006700d40050fa36c4235c0a,"<iframe width=""484"" height=""364"" src=""https://chart.maryland.gov/video/video.php?feed=0301bd3e006700d40050fa36c4235c0a"" frame border=""0"" allowfullscreen></iframe>",39.115414,-76.873055
-8557196.6056,4678418.943,262,RWIS US-301 AT MD-5,Prince George's County,ce00c32600eb002a0053fa36c4235c0a,https://chart.maryland.gov/video/video.php?feed=ce00c32600eb002a0053fa36c4235c0a,"<iframe width=""484"" height=""364"" src=""https://chart.maryland.gov/video/video.php?feed=ce00c32600eb002a0053fa36c4235c0a"" frame border=""0"" allowfullscreen></iframe>",38.6974,-76.870605
-8583396.7609,4726177.8036,263,Rockville Pk (MD 355) & Tuckerman La (North),Montgomery County,1701519c02510075004d823633235daa,https://chart.maryland.gov/video/video.php?feed=1701519c02510075004d823633235daa,"<iframe width=""484"" height=""364"" src=""https://chart.maryland.gov/video/video.php?feed=1701519c02510075004d823633235daa"" frame border=""0"" allowfullscreen></iframe>",39.031452,-77.105965
-8584931.3001,4723919.2797,264,I-495 & Old Georgetown Rd (MD 187),Montgomery County,7a0155fb02510075004d823633235daa,https://chart.maryland.gov/video/video.php?feed=7a0155fb02510075004d823633235daa,"<iframe width=""484"" height=""364"" src=""https://chart.maryland.gov/video/video.php?feed=7a0155fb02510075004d823633235daa"" frame border=""0"" allowfullscreen></iframe>",39.01569,-77.11975
-8832185.2475,4821635.0856,265,I-68 WEST AT OLD MORGANTOWN RD EAST,Garrett County,1a00149101ce00d20057fa36c4235c0a,https://chart.maryland.gov/video/video.php?feed=1a00149101ce00d20057fa36c4235c0a,"<iframe width=""484"" height=""364"" src=""https://chart.maryland.gov/video/video.php?feed=1a00149101ce00d20057fa36c4235c0a"" frame border=""0"" allowfullscreen></iframe>",39.69442,-79.34087
-8598966.9068,4751015.5388,266,Frederick Rd (MD 355) & Ridge Rd (MD 27),Montgomery County,d400c13500070075004d823633235daa,https://chart.maryland.gov/video/video.php?feed=d400c13500070075004d823633235daa,"<iframe width=""484"" height=""364"" src=""https://chart.maryland.gov/video/video.php?feed=d400c13500070075004d823633235daa"" frame border=""0"" allowfullscreen></iframe>",39.20456,-77.245834
-8845727.2636,4816705.3055,267,I-68 AT WV LINE (611004),Garrett County,90006ca901fa00b10052fa36c4235c0a,https://chart.maryland.gov/video/video.php?feed=90006ca901fa00b10052fa36c4235c0a,"<iframe width=""484"" height=""364"" src=""https://chart.maryland.gov/video/video.php?feed=90006ca901fa00b10052fa36c4235c0a"" frame border=""0"" allowfullscreen></iframe>",39.660336,-79.46252
-8636394.746,4772828.5445,268,RWIS US 340 at MD 180,Frederick County,3200a76b008000d30050fa36c4235c0a,https://chart.maryland.gov/video/video.php?feed=3200a76b008000d30050fa36c4235c0a,"<iframe width=""484"" height=""364"" src=""https://chart.maryland.gov/video/video.php?feed=3200a76b008000d30050fa36c4235c0a"" frame border=""0"" allowfullscreen></iframe>",39.356236,-77.582054
-8557340.7643,4678072.3498,269,US 301 at MD 5,Prince George's County,ed001490006500cb004a02366d235daa,https://chart.maryland.gov/video/video.php?feed=ed001490006500cb004a02366d235daa,"<iframe width=""484"" height=""364"" src=""https://chart.maryland.gov/video/video.php?feed=ed001490006500cb004a02366d235daa"" frame border=""0"" allowfullscreen></iframe>",38.69497,-76.8719
-8539418.3263,4755402.6485,270,I-95 S OF I-195 (403028),Baltimore County,9d010b5800f700d700437a45351f0214,https://chart.maryland.gov/video/video.php?feed=9d010b5800f700d700437a45351f0214,"<iframe width=""484"" height=""364"" src=""https://chart.maryland.gov/video/video.php?feed=9d010b5800f700d700437a45351f0214"" frame border=""0"" allowfullscreen></iframe>",39.235092,-76.7109
-8558418.7823,4731217.3797,271,"ICC MD 200 WB W OF US 1, MM 20.1 (C228)",Prince George's County,ce0018ce01bd00590054fa36c4235c0a,https://chart.maryland.gov/video/video.php?feed=ce0018ce01bd00590054fa36c4235c0a,"<iframe width=""484"" height=""364"" src=""https://chart.maryland.gov/video/video.php?feed=ce0018ce01bd00590054fa36c4235c0a"" frame border=""0"" allowfullscreen></iframe>",39.06661,-76.881584
-8518081.2742,4769439.9397,272,"I-95 NB, N of Chesaco Ave MM 62.0 (C027B)",Baltimore County,5e0044bd00b400a5004e3336c4235c0a,https://chart.maryland.gov/video/video.php?feed=5e0044bd00b400a5004e3336c4235c0a,"<iframe width=""484"" height=""364"" src=""https://chart.maryland.gov/video/video.php?feed=5e0044bd00b400a5004e3336c4235c0a"" frame border=""0"" allowfullscreen></iframe>",39.332695,-76.519226
-8590816.205,4719046.2974,273,I-495 S. OF RIVER RD,Montgomery County,d401425800f700d700437a45351f0214,https://chart.maryland.gov/video/video.php?feed=d401425800f700d700437a45351f0214,"<iframe width=""484"" height=""364"" src=""https://chart.maryland.gov/video/video.php?feed=d401425800f700d700437a45351f0214"" frame border=""0"" allowfullscreen></iframe>",38.98167,-77.172615
-8684759.8365,4812052.2764,274,I-70 AT MD 56,Washington County,6300ce27008400160057fa36c4235c0a,https://chart.maryland.gov/video/video.php?feed=6300ce27008400160057fa36c4235c0a,"<iframe width=""484"" height=""364"" src=""https://chart.maryland.gov/video/video.php?feed=6300ce27008400160057fa36c4235c0a"" frame border=""0"" allowfullscreen></iframe>",39.62815,-78.016525
-8624646.7548,4781424.8678,275,I-70 AT MT PHILLIP RD,Frederick County,30001ac501a600d60057fa36c4235c0a,https://chart.maryland.gov/video/video.php?feed=30001ac501a600d60057fa36c4235c0a,"<iframe width=""484"" height=""364"" src=""https://chart.maryland.gov/video/video.php?feed=30001ac501a600d60057fa36c4235c0a"" frame border=""0"" allowfullscreen></iframe>",39.41592,-77.47652
-8530542.2667,4760265.5867,276,I-95 N of MD 648 Annapolis Rd (C030) MP 52.3,Baltimore City,3e016827019000e300441a366e230214,https://chart.maryland.gov/video/video.php?feed=3e016827019000e300441a366e230214,"<iframe width=""484"" height=""364"" src=""https://chart.maryland.gov/video/video.php?feed=3e016827019000e300441a366e230214"" frame border=""0"" allowfullscreen></iframe>",39.26892,-76.631165
-8508491.5454,4775417.1533,277,MD 43 AT US 40,Baltimore County,9400173a00a8006e004de2369e235daa,https://chart.maryland.gov/video/video.php?feed=9400173a00a8006e004de2369e235daa,"<iframe width=""484"" height=""364"" src=""https://chart.maryland.gov/video/video.php?feed=9400173a00a8006e004de2369e235daa"" frame border=""0"" allowfullscreen></iframe>",39.374214,-76.43308
-8487191.674,4717339.4454,278,US 50 AT KENT NARROWS BRIDGE,Queen Anne's County,37003b8e0098007b00488436cf235d0a,https://chart.maryland.gov/video/video.php?feed=37003b8e0098007b00488436cf235d0a,"<iframe width=""484"" height=""364"" src=""https://chart.maryland.gov/video/video.php?feed=37003b8e0098007b00488436cf235d0a"" frame border=""0"" allowfullscreen></iframe>",38.96975,-76.24174
-8568922.4441,4631028.5734,279,US 301 N on top of Toll Plaza (C060) MP 2.1,Charles County,cb017974c47801b8004606363d235daa,https://chart.maryland.gov/video/video.php?feed=cb017974c47801b8004606363d235daa,"<iframe width=""484"" height=""364"" src=""https://chart.maryland.gov/video/video.php?feed=cb017974c47801b8004606363d235daa"" frame border=""0"" allowfullscreen></iframe>",38.364376,-76.97594
-8642880.8874,4770453.9113,280,US 340 AT MD 17,Frederick County,1b00c8e9008000160057fa36c4235c0a,https://chart.maryland.gov/video/video.php?feed=1b00c8e9008000160057fa36c4235c0a,"<iframe width=""484"" height=""364"" src=""https://chart.maryland.gov/video/video.php?feed=1b00c8e9008000160057fa36c4235c0a"" frame border=""0"" allowfullscreen></iframe>",39.33974,-77.64032
-8536772.262,4778535.6575,281,I-695 AT GREENSPRING,Baltimore County,6501d35800f700d700437a45351f0214,https://chart.maryland.gov/video/video.php?feed=6501d35800f700d700437a45351f0214,"<iframe width=""484"" height=""364"" src=""https://chart.maryland.gov/video/video.php?feed=6501d35800f700d700437a45351f0214"" frame border=""0"" allowfullscreen></iframe>",39.395866,-76.68713
-8564062.2352,4732244.8679,282,ICC MD 200 WB E OF BRIGGS CHANEY RD MM 17.1 (C-223),Montgomery County,aa00cb3a00f300ae004e3336c4235c0a,https://chart.maryland.gov/video/video.php?feed=aa00cb3a00f300ae004e3336c4235c0a,"<iframe width=""484"" height=""364"" src=""https://chart.maryland.gov/video/video.php?feed=aa00cb3a00f300ae004e3336c4235c0a"" frame border=""0"" allowfullscreen></iframe>",39.073776,-76.93228
-8499016.0303,4785150.6312,283,I-95 N of MD 152 (C020) MP 74.2,Harford County,0901cb3400e80039004606363d235daa,https://chart.maryland.gov/video/video.php?feed=0901cb3400e80039004606363d235daa,"<iframe width=""484"" height=""364"" src=""https://chart.maryland.gov/video/video.php?feed=0901cb3400e80039004606363d235daa"" frame border=""0"" allowfullscreen></iframe>",39.441772,-76.34796
-8539795.6994,4777735.6312,284,I-695 AT PARK HGTS,Baltimore County,5b01c95800f700d700437a45351f0214,https://chart.maryland.gov/video/video.php?feed=5b01c95800f700d700437a45351f0214,"<iframe width=""484"" height=""364"" src=""https://chart.maryland.gov/video/video.php?feed=5b01c95800f700d700437a45351f0214"" frame border=""0"" allowfullscreen></iframe>",39.390312,-76.71429
-8517486.7168,4770787.2704,285,"I-95SB, MP 62.7 (C027A)",Baltimore County,e9003d5100b200a5004e3336c4235c0a,https://chart.maryland.gov/video/video.php?feed=e9003d5100b200a5004e3336c4235c0a,"<iframe width=""484"" height=""364"" src=""https://chart.maryland.gov/video/video.php?feed=e9003d5100b200a5004e3336c4235c0a"" frame border=""0"" allowfullscreen></iframe>",39.342056,-76.513885
-8545795.8199,4765750.6364,286,I-70 1 MI. W OF I-695,Baltimore County,a6ff0db200ee00ce004be2369e235daa,https://chart.maryland.gov/video/video.php?feed=a6ff0db200ee00ce004be2369e235daa,"<iframe width=""484"" height=""364"" src=""https://chart.maryland.gov/video/video.php?feed=a6ff0db200ee00ce004be2369e235daa"" frame border=""0"" allowfullscreen></iframe>",39.307056,-76.76819
-8585070.4495,4739987.2189,287,"ICC MD 200 EB W OF MUNCASTER, MM 5.6 (C-210)",Montgomery County,da0039a900af0059004d06363d235daa,https://chart.maryland.gov/video/video.php?feed=da0039a900af0059004d06363d235daa,"<iframe width=""484"" height=""364"" src=""https://chart.maryland.gov/video/video.php?feed=da0039a900af0059004d06363d235daa"" frame border=""0"" allowfullscreen></iframe>",39.12775,-77.121
-8540825.4047,4760718.5338,288,I-695 AT MD 144 FREDERICK RD,Baltimore County,300027c9002700ba004a823633235daa,https://chart.maryland.gov/video/video.php?feed=300027c9002700ba004a823633235daa,"<iframe width=""484"" height=""364"" src=""https://chart.maryland.gov/video/video.php?feed=300027c9002700ba004a823633235daa"" frame border=""0"" allowfullscreen></iframe>",39.27207,-76.72354
-8612567.4769,4817480.2497,289,US 15 AT ST ANTHONY RD,Frederick County,61000ccc01a9000b0057fa36c4235c0a,https://chart.maryland.gov/video/video.php?feed=61000ccc01a9000b0057fa36c4235c0a,"<iframe width=""484"" height=""364"" src=""https://chart.maryland.gov/video/video.php?feed=61000ccc01a9000b0057fa36c4235c0a"" frame border=""0"" allowfullscreen></iframe>",39.665695,-77.36801
-8505721.3598,4789964.5221,290,RWIS US 1 AT BALTIMORE/HARFORD COUNTY LINE,Baltimore County,6300e3d800cf000b0051fa36c4235c0a,https://chart.maryland.gov/video/video.php?feed=6300e3d800cf000b0051fa36c4235c0a,"<iframe width=""484"" height=""364"" src=""https://chart.maryland.gov/video/video.php?feed=6300e3d800cf000b0051fa36c4235c0a"" frame border=""0"" allowfullscreen></iframe>",39.47516,-76.408195
-8519426.4589,4765952.0534,291,"I-95 NB, South of US 40, MM 60.0, C042A (C-42A) On Top TRS 8082",Baltimore City,1601e0b4007c00340055fa36c4235c0a,https://chart.maryland.gov/video/video.php?feed=1601e0b4007c00340055fa36c4235c0a,"<iframe width=""484"" height=""364"" src=""https://chart.maryland.gov/video/video.php?feed=1601e0b4007c00340055fa36c4235c0a"" frame border=""0"" allowfullscreen></iframe>",39.308456,-76.53131
-8574637.0302,4721319.2048,292,Colesville Rd (US 29) & Fenton St,Montgomery County,13015dbd01210075004d823633235daa,https://chart.maryland.gov/video/video.php?feed=13015dbd01210075004d823633235daa,"<iframe width=""484"" height=""364"" src=""https://chart.maryland.gov/video/video.php?feed=13015dbd01210075004d823633235daa"" frame border=""0"" allowfullscreen></iframe>",38.99754,-77.027275
-8590092.6283,4773302.7898,293,I-70 AT RIDGE RD,Carroll County,0d00209701ab00d60057fa36c4235c0a,https://chart.maryland.gov/video/video.php?feed=0d00209701ab00d60057fa36c4235c0a,"<iframe width=""484"" height=""364"" src=""https://chart.maryland.gov/video/video.php?feed=0d00209701ab00d60057fa36c4235c0a"" frame border=""0"" allowfullscreen></iframe>",39.35953,-77.166115
-8533586.2982,4622657.8854,294,MD 5 AT NEWTOWNE NECK RD,Saint Mary's County,4400e8f9008c00070053fa36c4235c0a,https://chart.maryland.gov/video/video.php?feed=4400e8f9008c00070053fa36c4235c0a,"<iframe width=""484"" height=""364"" src=""https://chart.maryland.gov/video/video.php?feed=4400e8f9008c00070053fa36c4235c0a"" frame border=""0"" allowfullscreen></iframe>",38.305393,-76.65851
-8467711.8763,4807036.3522,295,I-95 S of Md 222 (C008) MP 93.2,Cecil County,df00815800e40039004606363d235daa,https://chart.maryland.gov/video/video.php?feed=df00815800e40039004606363d235daa,"<iframe width=""484"" height=""364"" src=""https://chart.maryland.gov/video/video.php?feed=df00815800e40039004606363d235daa"" frame border=""0"" allowfullscreen></iframe>",39.593437,-76.06675
-8555610.8594,4703429.8595,296,Ritchie at Walker Mill Rd,Prince George's County,7e01eb5801f700d700437a45351f0214,https://chart.maryland.gov/video/video.php?feed=7e01eb5801f700d700437a45351f0214,"<iframe width=""484"" height=""364"" src=""https://chart.maryland.gov/video/video.php?feed=7e01eb5801f700d700437a45351f0214"" frame border=""0"" allowfullscreen></iframe>",38.872536,-76.85636
-8372760.8034,4628017.3042,297,US 50 AT US 113,Worcester County,a00040f20098007b00488436cf235d0a,https://chart.maryland.gov/video/video.php?feed=a00040f20098007b00488436cf235d0a,"<iframe width=""484"" height=""364"" src=""https://chart.maryland.gov/video/video.php?feed=a00040f20098007b00488436cf235d0a"" frame border=""0"" allowfullscreen></iframe>",38.343163,-75.21379
-8568963.6323,4724452.27,298,I-495 & New Hampshire Ave (MD 650),Montgomery County,4b01c94502640075004d823633235daa,https://chart.maryland.gov/video/video.php?feed=4b01c94502640075004d823633235daa,"<iframe width=""484"" height=""364"" src=""https://chart.maryland.gov/video/video.php?feed=4b01c94502640075004d823633235daa"" frame border=""0"" allowfullscreen></iframe>",39.01941,-76.97631
-8521441.3417,4718698.8896,299,Riva Road at MD 665,Anne Arundel County,b601235801f700d700437a45351f0214,https://chart.maryland.gov/video/video.php?feed=b601235801f700d700437a45351f0214,"<iframe width=""484"" height=""364"" src=""https://chart.maryland.gov/video/video.php?feed=b601235801f700d700437a45351f0214"" frame border=""0"" allowfullscreen></iframe>",38.979244,-76.54941
-8597550.4776,4653164.9927,300,RWIS MD-344 AT MD-224,Charles County,2900b9a9008d00680055fa36c4235c0a,https://chart.maryland.gov/video/video.php?feed=2900b9a9008d00680055fa36c4235c0a,"<iframe width=""484"" height=""364"" src=""https://chart.maryland.gov/video/video.php?feed=2900b9a9008d00680055fa36c4235c0a"" frame border=""0"" allowfullscreen></iframe>",38.520126,-77.23311
-8533946.9733,4780301.0112,301,I-83 JFX S OF I-695,Baltimore County,5200c288003d00fc0052fa36c4235c0a,https://chart.maryland.gov/video/video.php?feed=5200c288003d00fc0052fa36c4235c0a,"<iframe width=""484"" height=""364"" src=""https://chart.maryland.gov/video/video.php?feed=5200c288003d00fc0052fa36c4235c0a"" frame border=""0"" allowfullscreen></iframe>",39.40812,-76.66175
-8548097.2391,4747260.595,302,I-95 SOUTH/NORTH AT MD 175,Howard County,bcff34a000aa00dd004c823633235daa,https://chart.maryland.gov/video/video.php?feed=bcff34a000aa00dd004c823633235daa,"<iframe width=""484"" height=""364"" src=""https://chart.maryland.gov/video/video.php?feed=bcff34a000aa00dd004c823633235daa"" frame border=""0"" allowfullscreen></iframe>",39.178417,-76.788864
-8563726.0503,4737672.8148,303,US 29 AT MD 198,Montgomery County,33000ab5004b0005004be33696235daa,https://chart.maryland.gov/video/video.php?feed=33000ab5004b0005004be33696235daa,"<iframe width=""484"" height=""364"" src=""https://chart.maryland.gov/video/video.php?feed=33000ab5004b0005004be33696235daa"" frame border=""0"" allowfullscreen></iframe>",39.11162,-76.92926
-8526404.4099,4756230.2231,304,I-895 at Shell Rd (C038)  MP 7.9,Baltimore City,a9014bc3044b0160004806363d235daa,https://chart.maryland.gov/video/video.php?feed=a9014bc3044b0160004806363d235daa,"<iframe width=""484"" height=""364"" src=""https://chart.maryland.gov/video/video.php?feed=a9014bc3044b0160004806363d235daa"" frame border=""0"" allowfullscreen></iframe>",39.24085,-76.593994
-8551081.7146,4784025.7811,305,I-795 S OF FRANKLIN BLVD,Baltimore County,58001a9400fe00a7004e3436c4235c0a,https://chart.maryland.gov/video/video.php?feed=58001a9400fe00a7004e3436c4235c0a,"<iframe width=""484"" height=""364"" src=""https://chart.maryland.gov/video/video.php?feed=58001a9400fe00a7004e3436c4235c0a"" frame border=""0"" allowfullscreen></iframe>",39.433968,-76.815674
-8554635.1441,4706274.2131,307,I-95/495 AT MD 214,Prince George's County,4701b45801f700d700437a45351f0214,https://chart.maryland.gov/video/video.php?feed=4701b45801f700d700437a45351f0214,"<iframe width=""484"" height=""364"" src=""https://chart.maryland.gov/video/video.php?feed=4701b45801f700d700437a45351f0214"" frame border=""0"" allowfullscreen></iframe>",38.892426,-76.847595
-8573379.6765,4692205.2209,308,I-95/495 AT NATL HARBOR,Prince George's County,3e0012c100f6004f004de33696235daa,https://chart.maryland.gov/video/video.php?feed=3e0012c100f6004f004de33696235daa,"<iframe width=""484"" height=""364"" src=""https://chart.maryland.gov/video/video.php?feed=3e0012c100f6004f004de33696235daa"" frame border=""0"" allowfullscreen></iframe>",38.79399,-77.01598
-8465551.165,4663333.3466,309,RWIS US 50 at CHOPTANK RIVER,Talbot County,1400b84100a300ab0050fa36c4235c0a,https://chart.maryland.gov/video/video.php?feed=1400b84100a300ab0050fa36c4235c0a,"<iframe width=""484"" height=""364"" src=""https://chart.maryland.gov/video/video.php?feed=1400b84100a300ab0050fa36c4235c0a"" frame border=""0"" allowfullscreen></iframe>",38.591557,-76.04734
-8574593.059,4719851.1376,311,East-West Hwy (MD 410) & Georgia Ave (US 29),Montgomery County,ae01694b01220075004d823633235daa,https://chart.maryland.gov/video/video.php?feed=ae01694b01220075004d823633235daa,"<iframe width=""484"" height=""364"" src=""https://chart.maryland.gov/video/video.php?feed=ae01694b01220075004d823633235daa"" frame border=""0"" allowfullscreen></iframe>",38.98729,-77.02688
-8419297.9166,4636340.3698,312,US 50 W OF SALISBURY,Wicomico County,2700e18300fd00f30056fa36c4235c0a,https://chart.maryland.gov/video/video.php?feed=2700e18300fd00f30056fa36c4235c0a,"<iframe width=""484"" height=""364"" src=""https://chart.maryland.gov/video/video.php?feed=2700e18300fd00f30056fa36c4235c0a"" frame border=""0"" allowfullscreen></iframe>",38.40178,-75.63184
-8495254.5447,4788419.0905,314,MD 24 AT MD 924,Harford County,480010fc00bf00580045e2369e235daa,https://chart.maryland.gov/video/video.php?feed=480010fc00bf00580045e2369e235daa,"<iframe width=""484"" height=""364"" src=""https://chart.maryland.gov/video/video.php?feed=480010fc00bf00580045e2369e235daa"" frame border=""0"" allowfullscreen></iframe>",39.464443,-76.31417
-8659063.4018,4810384.2129,315,RWIS I-70/I-81,Washington County,90ffa4d300a100ab0050fa36c4235c0a,https://chart.maryland.gov/video/video.php?feed=90ffa4d300a100ab0050fa36c4235c0a,"<iframe width=""484"" height=""364"" src=""https://chart.maryland.gov/video/video.php?feed=90ffa4d300a100ab0050fa36c4235c0a"" frame border=""0"" allowfullscreen></iframe>",39.616608,-77.78569
-8538326.95,4752976.6566,316,I-895 E of Wash Blvd (C044) MP 1.4,Baltimore County,5800ec93c37401b8004606363d235daa,https://chart.maryland.gov/video/video.php?feed=5800ec93c37401b8004606363d235daa,"<iframe width=""484"" height=""364"" src=""https://chart.maryland.gov/video/video.php?feed=5800ec93c37401b8004606363d235daa"" frame border=""0"" allowfullscreen></iframe>",39.21821,-76.701096
-8766110.4505,4814946.2504,317,I-68 AT CUMBERLAND (ALLEGANY 911 TWR),Allegany County,7300129800e800dd00451536ea235d0a,https://chart.maryland.gov/video/video.php?feed=7300129800e800dd00451536ea235d0a,"<iframe width=""484"" height=""364"" src=""https://chart.maryland.gov/video/video.php?feed=7300129800e800dd00451536ea235d0a"" frame border=""0"" allowfullscreen></iframe>",39.64817,-78.74731
-8487808.384,4791425.5251,318,I-95 N of MD 543  (C016) MP 80.4,Harford County,cf00b70f00e70039004606363d235daa,https://chart.maryland.gov/video/video.php?feed=cf00b70f00e70039004606363d235daa,"<iframe width=""484"" height=""364"" src=""https://chart.maryland.gov/video/video.php?feed=cf00b70f00e70039004606363d235daa"" frame border=""0"" allowfullscreen></iframe>",39.48529,-76.24728
-8595337.8914,4741771.0922,319,I-270 & W Diamond Ave (MD 117),Montgomery County,9201113c036b0075004d823633235daa,https://chart.maryland.gov/video/video.php?feed=9201113c036b0075004d823633235daa,"<iframe width=""484"" height=""364"" src=""https://chart.maryland.gov/video/video.php?feed=9201113c036b0075004d823633235daa"" frame border=""0"" allowfullscreen></iframe>",39.14018,-77.213234
-8557375.2734,4792018.352,320,MD-140 AT BALT CO LINE,Carroll County,6700b9e700f300040053fa36c4235c0a,https://chart.maryland.gov/video/video.php?feed=6700b9e700f300040053fa36c4235c0a,"<iframe width=""484"" height=""364"" src=""https://chart.maryland.gov/video/video.php?feed=6700b9e700f300040053fa36c4235c0a"" frame border=""0"" allowfullscreen></iframe>",39.4894,-76.87221
-8606531.7341,4822708.6088,321,RWIS US 15 AT MD 140,Frederick County,e7008978002900f00050fa36c4235c0a,https://chart.maryland.gov/video/video.php?feed=e7008978002900f00050fa36c4235c0a,"<iframe width=""484"" height=""364"" src=""https://chart.maryland.gov/video/video.php?feed=e7008978002900f00050fa36c4235c0a"" frame border=""0"" allowfullscreen></iframe>",39.70184,-77.31379
-8499651.6646,4719933.487,322,WPL C511 at Gantry N-19 MP 3.9,Queen Anne's County,1a0172df2d83001300503336c4235c0a,https://chart.maryland.gov/video/video.php?feed=1a0172df2d83001300503336c4235c0a,"<iframe width=""484"" height=""364"" src=""https://chart.maryland.gov/video/video.php?feed=1a0172df2d83001300503336c4235c0a"" frame border=""0"" allowfullscreen></iframe>",38.987865,-76.35367
-8586647.8467,4741466.8212,323,"ICC MD 200 EB, DECKOVER INTERIOR, MM 4.5 (C-206)",Montgomery County,a70150c00554004e004d06363d235daa,https://chart.maryland.gov/video/video.php?feed=a70150c00554004e004d06363d235daa,"<iframe width=""484"" height=""364"" src=""https://chart.maryland.gov/video/video.php?feed=a70150c00554004e004d06363d235daa"" frame border=""0"" allowfullscreen></iframe>",39.13806,-77.13517
-8513042.2861,4755717.9754,324,I-695 S of Peninsula Expwy (C055) MP 44.7,Baltimore County,bc00548bc47701b8004606363d235daa,https://chart.maryland.gov/video/video.php?feed=bc00548bc47701b8004606363d235daa,"<iframe width=""484"" height=""364"" src=""https://chart.maryland.gov/video/video.php?feed=bc00548bc47701b8004606363d235daa"" frame border=""0"" allowfullscreen></iframe>",39.237286,-76.47396
-8574992.028,4735197.4336,325,ICC MD 200 EB AT BONIFANT MM 11.8 (C-217),Montgomery County,9f00a319002200bd004e3336c4235c0a,https://chart.maryland.gov/video/video.php?feed=9f00a319002200bd004e3336c4235c0a,"<iframe width=""484"" height=""364"" src=""https://chart.maryland.gov/video/video.php?feed=9f00a319002200bd004e3336c4235c0a"" frame border=""0"" allowfullscreen></iframe>",39.094364,-77.030464
-8438189.9473,4813845.5164,326,I-95 N of Md 279 Ex 109 (C001) MP 108.4,Cecil County,0f019fd7443a0032004606363d235daa,https://chart.maryland.gov/video/video.php?feed=0f019fd7443a0032004606363d235daa,"<iframe width=""484"" height=""364"" src=""https://chart.maryland.gov/video/video.php?feed=0f019fd7443a0032004606363d235daa"" frame border=""0"" allowfullscreen></iframe>",39.640556,-75.80155
-8359018.4123,4626459.9895,327,US 50 AT OC DRAWBRIDGE,Worcester County,3aff0a92008500bb004b8436cf235d0a,https://chart.maryland.gov/video/video.php?feed=3aff0a92008500bb004b8436cf235d0a,"<iframe width=""484"" height=""364"" src=""https://chart.maryland.gov/video/video.php?feed=3aff0a92008500bb004b8436cf235d0a"" frame border=""0"" allowfullscreen></iframe>",38.33219,-75.09034
-8521441.3417,4718697.3144,328,MD 665 AT RIVA ROAD,Anne Arundel County,b1011e5801f700d700437a45351f0214,https://chart.maryland.gov/video/video.php?feed=b1011e5801f700d700437a45351f0214,"<iframe width=""484"" height=""364"" src=""https://chart.maryland.gov/video/video.php?feed=b1011e5801f700d700437a45351f0214"" frame border=""0"" allowfullscreen></iframe>",38.979233,-76.54941
-8802200.2295,4820044.6895,329,I-68 WEST PRIOR TO LOWER NEW GERMANY RD,Garrett County,ec000e6a01cd00d20057fa36c4235c0a,https://chart.maryland.gov/video/video.php?feed=ec000e6a01cd00d20057fa36c4235c0a,"<iframe width=""484"" height=""364"" src=""https://chart.maryland.gov/video/video.php?feed=ec000e6a01cd00d20057fa36c4235c0a"" frame border=""0"" allowfullscreen></iframe>",39.683426,-79.07151
-8521892.1857,4779107.2674,330,I-695 W OF MD 41,Baltimore County,0f000df40056008d004be2369e235daa,https://chart.maryland.gov/video/video.php?feed=0f000df40056008d004be2369e235daa,"<iframe width=""484"" height=""364"" src=""https://chart.maryland.gov/video/video.php?feed=0f000df40056008d004be2369e235daa"" frame border=""0"" allowfullscreen></iframe>",39.399834,-76.55346
-8497356.2567,4719087.2539,331,WPL C513 at Gantry N-26 MP 5.0,Queen Anne's County,9800cdf62e85001c00503336c4235c0a,https://chart.maryland.gov/video/video.php?feed=9800cdf62e85001c00503336c4235c0a,"<iframe width=""484"" height=""364"" src=""https://chart.maryland.gov/video/video.php?feed=9800cdf62e85001c00503336c4235c0a"" frame border=""0"" allowfullscreen></iframe>",38.981956,-76.33305
-8573190.4334,4691122.2253,332,National Harbor at Waterfront,Prince George's County,a70006f700e700af004502366d235daa,https://chart.maryland.gov/video/video.php?feed=a70006f700e700af004502366d235daa,"<iframe width=""484"" height=""364"" src=""https://chart.maryland.gov/video/video.php?feed=a70006f700e700af004502366d235daa"" frame border=""0"" allowfullscreen></iframe>",38.786407,-77.01428
-8505871.7525,4724218.152,333,US 50 AT SANDY POINT,Anne Arundel County,7901e75800f700d700437a45351f0214,https://chart.maryland.gov/video/video.php?feed=7901e75800f700d700437a45351f0214,"<iframe width=""484"" height=""364"" src=""https://chart.maryland.gov/video/video.php?feed=7901e75800f700d700437a45351f0214"" frame border=""0"" allowfullscreen></iframe>",39.017776,-76.409546
-8532634.0712,4754953.1018,334,I-895 at MD 295 (C046) MP 4.5,Baltimore County,7d000a98c47501b8004606363d235daa,https://chart.maryland.gov/video/video.php?feed=7d000a98c47501b8004606363d235daa,"<iframe width=""484"" height=""364"" src=""https://chart.maryland.gov/video/video.php?feed=7d000a98c47501b8004606363d235daa"" frame border=""0"" allowfullscreen></iframe>",39.231964,-76.649956
-8552031.9378,4744300.7712,335,I-95 NB AT MD 32,Howard County,f201605800f700d700437a45351f0214,https://chart.maryland.gov/video/video.php?feed=f201605800f700d700437a45351f0214,"<iframe width=""484"" height=""364"" src=""https://chart.maryland.gov/video/video.php?feed=f201605800f700d700437a45351f0214"" frame border=""0"" allowfullscreen></iframe>",39.157803,-76.82421
-8556282.116,4705856.7339,336,MD 214 AT RITCHIE RD,Prince George's County,4201af5801f700d700437a45351f0214,https://chart.maryland.gov/video/video.php?feed=4201af5801f700d700437a45351f0214,"<iframe width=""484"" height=""364"" src=""https://chart.maryland.gov/video/video.php?feed=4201af5801f700d700437a45351f0214"" frame border=""0"" allowfullscreen></iframe>",38.889507,-76.86239
-8573310.6585,4630294.1642,337,US 301 S of Nice Br VA Side (C057) MP 0.0,Charles County,420166ffc47701b8004606363d235daa,https://chart.maryland.gov/video/video.php?feed=420166ffc47701b8004606363d235daa,"<iframe width=""484"" height=""364"" src=""https://chart.maryland.gov/video/video.php?feed=420166ffc47701b8004606363d235daa"" frame border=""0"" allowfullscreen></iframe>",38.359203,-77.01536
-8528720.5232,4755987.319,338,I-895 at Potee Street (C048) MP6.7,Baltimore City,fa011d4100680049004806363d235daa,https://chart.maryland.gov/video/video.php?feed=fa011d4100680049004806363d235daa,"<iframe width=""484"" height=""364"" src=""https://chart.maryland.gov/video/video.php?feed=fa011d4100680049004806363d235daa"" frame border=""0"" allowfullscreen></iframe>",39.23916,-76.6148
-8653607.6336,4808634.0715,339,I-70 W. of MD 65 (Hagerstown Tower),Washington County,10010d3a00e800dd00451536ea235d0a,https://chart.maryland.gov/video/video.php?feed=10010d3a00e800dd00451536ea235d0a,"<iframe width=""484"" height=""364"" src=""https://chart.maryland.gov/video/video.php?feed=10010d3a00e800dd00451536ea235d0a"" frame border=""0"" allowfullscreen></iframe>",39.604496,-77.73668
-8524429.8248,4719492.1022,340,US 50 AT I-97 | 502017,Anne Arundel County,8301f15800f700d700437a45351f0214,https://chart.maryland.gov/video/video.php?feed=8301f15800f700d700437a45351f0214,"<iframe width=""484"" height=""364"" src=""https://chart.maryland.gov/video/video.php?feed=8301f15800f700d700437a45351f0214"" frame border=""0"" allowfullscreen></iframe>",38.984783,-76.576256
-8572169.6337,4723833.3162,341,I-495 & University Blvd (MD 193),Montgomery County,e4ff858700010075004d823633235daa,https://chart.maryland.gov/video/video.php?feed=e4ff858700010075004d823633235daa,"<iframe width=""484"" height=""364"" src=""https://chart.maryland.gov/video/video.php?feed=e4ff858700010075004d823633235daa"" frame border=""0"" allowfullscreen></iframe>",39.01509,-77.00511
-8822048.4947,4820892.9464,342,RWIS I-68 at US 219,Garrett County,1800a05f00a100ab0050fa36c4235c0a,https://chart.maryland.gov/video/video.php?feed=1800a05f00a100ab0050fa36c4235c0a,"<iframe width=""484"" height=""364"" src=""https://chart.maryland.gov/video/video.php?feed=1800a05f00a100ab0050fa36c4235c0a"" frame border=""0"" allowfullscreen></iframe>",39.68929,-79.24981
-8570229.335,4734552.8667,343,ICC MD 200 WB E OF 650 NEW HAMPSHIRE AVE MM 13.9 (C-219),Montgomery County,a800b113002300bd004e3336c4235c0a,https://chart.maryland.gov/video/video.php?feed=a800b113002300bd004e3336c4235c0a,"<iframe width=""484"" height=""364"" src=""https://chart.maryland.gov/video/video.php?feed=a800b113002300bd004e3336c4235c0a"" frame border=""0"" allowfullscreen></iframe>",39.08987,-76.98768
-8530577.8889,4729636.6339,344,I-97 S OF MD-32 (502023),Anne Arundel County,3b009d0700e600e30051fa36c4235c0a,https://chart.maryland.gov/video/video.php?feed=3b009d0700e600e30051fa36c4235c0a,"<iframe width=""484"" height=""364"" src=""https://chart.maryland.gov/video/video.php?feed=3b009d0700e600e30051fa36c4235c0a"" frame border=""0"" allowfullscreen></iframe>",39.055584,-76.631485
-8565447.0496,4725018.9612,345,I-95 AT I-495,Prince George's County,8b010ae2017f00490059fa36c4235c0a,https://chart.maryland.gov/video/video.php?feed=8b010ae2017f00490059fa36c4235c0a,"<iframe width=""484"" height=""364"" src=""https://chart.maryland.gov/video/video.php?feed=8b010ae2017f00490059fa36c4235c0a"" frame border=""0"" allowfullscreen></iframe>",39.022247,-76.94287
-8518136.266,4776128.5687,346,I-695 AT PUTTY HILL AVE,Baltimore County,dbff12ba0057008d004be2369e235daa,https://chart.maryland.gov/video/video.php?feed=dbff12ba0057008d004be2369e235daa,"<iframe width=""484"" height=""364"" src=""https://chart.maryland.gov/video/video.php?feed=dbff12ba0057008d004be2369e235daa"" frame border=""0"" allowfullscreen></iframe>",39.379154,-76.51972
-8817417.1586,4786887.4489,347,RWIS MD 135 at Salt Dome,Garrett County,9c00ad6c00a300100053fa36c4235c0a,https://chart.maryland.gov/video/video.php?feed=9c00ad6c00a300100053fa36c4235c0a,"<iframe width=""484"" height=""364"" src=""https://chart.maryland.gov/video/video.php?feed=9c00ad6c00a300100053fa36c4235c0a"" frame border=""0"" allowfullscreen></iframe>",39.45382,-79.208206
-8590984.4087,4733970.2961,348,I-270 & W Montgomery Ave (MD 28),Montgomery County,df012178036c0075004d823633235daa,https://chart.maryland.gov/video/video.php?feed=df012178036c0075004d823633235daa,"<iframe width=""484"" height=""364"" src=""https://chart.maryland.gov/video/video.php?feed=df012178036c0075004d823633235daa"" frame border=""0"" allowfullscreen></iframe>",39.085808,-77.174126
-8620049.2599,4781330.3437,349,US-15 AT US-40,Frederick County,8cffcf8b00c500980058fa36c4235c0a,https://chart.maryland.gov/video/video.php?feed=8cffcf8b00c500980058fa36c4235c0a,"<iframe width=""484"" height=""364"" src=""https://chart.maryland.gov/video/video.php?feed=8cffcf8b00c500980058fa36c4235c0a"" frame border=""0"" allowfullscreen></iframe>",39.406025,-77.43274
-8548558.7697,4780969.2584,350,I-795 AT OWINGS MILLS BLVD,Baltimore County,c400ed1700f60018005cd336c4235c0a,https://chart.maryland.gov/video/video.php?feed=c400ed1700f60018005cd336c4235c0a,"<iframe width=""484"" height=""364"" src=""https://chart.maryland.gov/video/video.php?feed=c400ed1700f60018005cd336c4235c0a"" frame border=""0"" allowfullscreen></iframe>",39.412785,-76.793015
-8542042.1267,4776937.3969,351,I-695 O/L AT EX 20 MD 140,Baltimore County,0f012c5400e000aa004e3436c4235c0a,https://chart.maryland.gov/video/video.php?feed=0f012c5400e000aa004e3436c4235c0a,"<iframe width=""484"" height=""364"" src=""https://chart.maryland.gov/video/video.php?feed=0f012c5400e000aa004e3436c4235c0a"" frame border=""0"" allowfullscreen></iframe>",39.38477,-76.73447
-8564891.5654,4724821.6545,352,I-95/495 W. OF US 1,Prince George's County,01026f5800f700d700437a45351f0214,https://chart.maryland.gov/video/video.php?feed=01026f5800f700d700437a45351f0214,"<iframe width=""484"" height=""364"" src=""https://chart.maryland.gov/video/video.php?feed=01026f5800f700d700437a45351f0214"" frame border=""0"" allowfullscreen></iframe>",39.021988,-76.93973
-8557653.5721,4747673.6093,353,US 29 AT MD 32,Howard County,a100285e00ba0001004b823633235daa,https://chart.maryland.gov/video/video.php?feed=a100285e00ba0001004b823633235daa,"<iframe width=""484"" height=""364"" src=""https://chart.maryland.gov/video/video.php?feed=a100285e00ba0001004b823633235daa"" frame border=""0"" allowfullscreen></iframe>",39.181293,-76.87471
-8542399.4623,4762626.3118,354,I-695 AT BALT NATL PK,Baltimore County,4201b05800f700d700437a45351f0214,https://chart.maryland.gov/video/video.php?feed=4201b05800f700d700437a45351f0214,"<iframe width=""484"" height=""364"" src=""https://chart.maryland.gov/video/video.php?feed=4201b05800f700d700437a45351f0214"" frame border=""0"" allowfullscreen></iframe>",39.285336,-76.73768
-8577204.6142,4726822.4106,355,Georgia Ave (MD 97) & Veirs Mill Rd (MD 586),Montgomery County,910095c5025e0075004d823633235daa,https://chart.maryland.gov/video/video.php?feed=910095c5025e0075004d823633235daa,"<iframe width=""484"" height=""364"" src=""https://chart.maryland.gov/video/video.php?feed=910095c5025e0075004d823633235daa"" frame border=""0"" allowfullscreen></iframe>",39.03595,-77.05034
-8534894.3022,4807041.1194,356,"I-83 N OF EX 27 MD 137, HEREFORD TWR",Baltimore County,b0001b4e006c00800045833633235daa,https://chart.maryland.gov/video/video.php?feed=b0001b4e006c00800045833633235daa,"<iframe width=""484"" height=""364"" src=""https://chart.maryland.gov/video/video.php?feed=b0001b4e006c00800045833633235daa"" frame border=""0"" allowfullscreen></iframe>",39.59347,-76.67026
-8587391.4609,4726481.7583,357,I-270 S OF SPLIT,Montgomery County,1501835800f700d700437a45351f0214,https://chart.maryland.gov/video/video.php?feed=1501835800f700d700437a45351f0214,"<iframe width=""484"" height=""364"" src=""https://chart.maryland.gov/video/video.php?feed=1501835800f700d700437a45351f0214"" frame border=""0"" allowfullscreen></iframe>",39.033573,-77.14185
-8555525.1434,4713005.1607,358,I-95/495 S. OF US 50,Prince George's County,3d01aa5801f700d700437a45351f0214,https://chart.maryland.gov/video/video.php?feed=3d01aa5801f700d700437a45351f0214,"<iframe width=""484"" height=""364"" src=""https://chart.maryland.gov/video/video.php?feed=3d01aa5801f700d700437a45351f0214"" frame border=""0"" allowfullscreen></iframe>",38.939472,-76.85559
-8587126.5205,4741622.5437,359,"ICC MD 200 WB AT Olde Mill Run, MM 4.3 (C-204)",Montgomery County,d60032ad00ae0059004d06363d235daa,https://chart.maryland.gov/video/video.php?feed=d60032ad00ae0059004d06363d235daa,"<iframe width=""484"" height=""364"" src=""https://chart.maryland.gov/video/video.php?feed=d60032ad00ae0059004d06363d235daa"" frame border=""0"" allowfullscreen></iframe>",39.139145,-77.13947
-8479381.4985,4817367.164,360,RWIS US 1 AT CONOWINGO,Cecil County,d4ffb40500a300ab0050fa36c4235c0a,https://chart.maryland.gov/video/video.php?feed=d4ffb40500a300ab0050fa36c4235c0a,"<iframe width=""484"" height=""364"" src=""https://chart.maryland.gov/video/video.php?feed=d4ffb40500a300ab0050fa36c4235c0a"" frame border=""0"" allowfullscreen></iframe>",39.664913,-76.17158
-8443282.814,4814659.9958,361,I-95 S of Md 213 Singerly Rd (C002) MP 105.9,Cecil County,7d015d1d00e10039004606363d235daa,https://chart.maryland.gov/video/video.php?feed=7d015d1d00e10039004606363d235daa,"<iframe width=""484"" height=""364"" src=""https://chart.maryland.gov/video/video.php?feed=7d015d1d00e10039004606363d235daa"" frame border=""0"" allowfullscreen></iframe>",39.64619,-75.8473
-8670451.3857,4815471.0717,362,I-70 WB AT ST PAUL RD,Washington County,1b00d699004a008e0057fa36c4235c0a,https://chart.maryland.gov/video/video.php?feed=1b00d699004a008e0057fa36c4235c0a,"<iframe width=""484"" height=""364"" src=""https://chart.maryland.gov/video/video.php?feed=1b00d699004a008e0057fa36c4235c0a"" frame border=""0"" allowfullscreen></iframe>",39.6518,-77.88799
-8576137.0603,4691980.4145,363,I-95/495 W.W. Brg VA,Prince George's County,3501154f00350088004502366d235daa,https://chart.maryland.gov/video/video.php?feed=3501154f00350088004502366d235daa,"<iframe width=""484"" height=""364"" src=""https://chart.maryland.gov/video/video.php?feed=3501154f00350088004502366d235daa"" frame border=""0"" allowfullscreen></iframe>",38.792416,-77.04075
-8577424.4702,4727597.7705,364,Georgia Ave (MD 97) & University Blvd (MD 193),Montgomery County,e000990f025f0075004d823633235daa,https://chart.maryland.gov/video/video.php?feed=e000990f025f0075004d823633235daa,"<iframe width=""484"" height=""364"" src=""https://chart.maryland.gov/video/video.php?feed=e000990f025f0075004d823633235daa"" frame border=""0"" allowfullscreen></iframe>",39.04136,-77.052315
-8509657.0604,4776960.4414,365,I-95 N of Md 43 Whitemarsh Blvd (C022) MP 67.5,Baltimore County,f101757700e30039004606363d235daa,https://chart.maryland.gov/video/video.php?feed=f101757700e30039004606363d235daa,"<iframe width=""484"" height=""364"" src=""https://chart.maryland.gov/video/video.php?feed=f101757700e30039004606363d235daa"" frame border=""0"" allowfullscreen></iframe>",39.38493,-76.44355
-8518167.4355,4622424.1041,366,MD 4 AT THREE NOTCH RD,Saint Mary's County,2300b7fb0096000b0053fa36c4235c0a,https://chart.maryland.gov/video/video.php?feed=2300b7fb0096000b0053fa36c4235c0a,"<iframe width=""484"" height=""364"" src=""https://chart.maryland.gov/video/video.php?feed=2300b7fb0096000b0053fa36c4235c0a"" frame border=""0"" allowfullscreen></iframe>",38.303745,-76.52
-8495213.3565,4787020.3751,367,I-95 S of Md 24 (C019) MP 76.3,Harford County,aa00c7da00e70039004606363d235daa,https://chart.maryland.gov/video/video.php?feed=aa00c7da00e70039004606363d235daa,"<iframe width=""484"" height=""364"" src=""https://chart.maryland.gov/video/video.php?feed=aa00c7da00e70039004606363d235daa"" frame border=""0"" allowfullscreen></iframe>",39.454742,-76.3138
-8562323.4247,4825010.8515,368,RWIS MD 30 AT PA LINE,Carroll County,a5ffabd8008200d30050fa36c4235c0a,https://chart.maryland.gov/video/video.php?feed=a5ffabd8008200d30050fa36c4235c0a,"<iframe width=""484"" height=""364"" src=""https://chart.maryland.gov/video/video.php?feed=a5ffabd8008200d30050fa36c4235c0a"" frame border=""0"" allowfullscreen></iframe>",39.71775,-76.91666
-8471192.8368,4801774.0182,369,US 40 S of Hatem Br (C062) MP 1.8,Harford County,760110e924670007004806363d235daa,https://chart.maryland.gov/video/video.php?feed=760110e924670007004806363d235daa,"<iframe width=""484"" height=""364"" src=""https://chart.maryland.gov/video/video.php?feed=760110e924670007004806363d235daa"" frame border=""0"" allowfullscreen></iframe>",39.557,-76.09802
-8590239.0134,4773340.9434,370,RWIS I-70/MD 27,Carroll County,e0ffa81e00a200ab0050fa36c4235c0a,https://chart.maryland.gov/video/video.php?feed=e0ffa81e00a200ab0050fa36c4235c0a,"<iframe width=""484"" height=""364"" src=""https://chart.maryland.gov/video/video.php?feed=e0ffa81e00a200ab0050fa36c4235c0a"" frame border=""0"" allowfullscreen></iframe>",39.359795,-77.16743
-8395884.0881,4633961.7644,371,US 50 AT SIXTY FOOT RD,Wicomico County,8200ccfe00b400300057fa36c4235c0a,https://chart.maryland.gov/video/video.php?feed=8200ccfe00b400300057fa36c4235c0a,"<iframe width=""484"" height=""364"" src=""https://chart.maryland.gov/video/video.php?feed=8200ccfe00b400300057fa36c4235c0a"" frame border=""0"" allowfullscreen></iframe>",38.385033,-75.42151
-8499315.4797,4719646.7709,372,WPL C512 at Gantry S-19 MP 35.7,Anne Arundel County,6400d5b92e86001c00503336c4235c0a,https://chart.maryland.gov/video/video.php?feed=6400d5b92e86001c00503336c4235c0a,"<iframe width=""484"" height=""364"" src=""https://chart.maryland.gov/video/video.php?feed=6400d5b92e86001c00503336c4235c0a"" frame border=""0"" allowfullscreen></iframe>",38.985863,-76.35065
-8568084.6536,4631181.9072,373,US 301 N of Toll Plaza (C061) 1/2 Mile North of Toll Plaza MP 2.5,Charles County,f7ff8198c47801b8004606363d235daa,https://chart.maryland.gov/video/video.php?feed=f7ff8198c47801b8004606363d235daa,"<iframe width=""484"" height=""364"" src=""https://chart.maryland.gov/video/video.php?feed=f7ff8198c47801b8004606363d235daa"" frame border=""0"" allowfullscreen></iframe>",38.365456,-76.968414
-8806139.2696,4791673.1811,374,RWIS MD 135 AT MEADOW OAKS DR,Garrett County,cc00bf4800bb00370056fa36c4235c0a,https://chart.maryland.gov/video/video.php?feed=cc00bf4800bb00370056fa36c4235c0a,"<iframe width=""484"" height=""364"" src=""https://chart.maryland.gov/video/video.php?feed=cc00bf4800bb00370056fa36c4235c0a"" frame border=""0"" allowfullscreen></iframe>",39.487007,-79.106895
-8535264.3282,4806895.215,375,RWIS I-83 AT MD-137,Baltimore County,f500c12a006900d40050fa36c4235c0a,https://chart.maryland.gov/video/video.php?feed=f500c12a006900d40050fa36c4235c0a,"<iframe width=""484"" height=""364"" src=""https://chart.maryland.gov/video/video.php?feed=f500c12a006900d40050fa36c4235c0a"" frame border=""0"" allowfullscreen></iframe>",39.59246,-76.673584
-8517497.8488,4774736.6034,376,I-695 AT EXIT 32 US 1 BELAIR RD,Baltimore County,0b0013d500f00007004ce2369e235daa,https://chart.maryland.gov/video/video.php?feed=0b0013d500f00007004ce2369e235daa,"<iframe width=""484"" height=""364"" src=""https://chart.maryland.gov/video/video.php?feed=0b0013d500f00007004ce2369e235daa"" frame border=""0"" allowfullscreen></iframe>",39.369488,-76.513985
-8567614.9967,4724384.3552,377,I-495 E. OF MD 650,Prince George's County,0602745800f700d700437a45351f0214,https://chart.maryland.gov/video/video.php?feed=0602745800f700d700437a45351f0214,"<iframe width=""484"" height=""364"" src=""https://chart.maryland.gov/video/video.php?feed=0602745800f700d700437a45351f0214"" frame border=""0"" allowfullscreen></iframe>",39.018936,-76.964195
-8356547.7875,4634444.9117,378,MD 528 AT 65TH ST TWR,Worcester County,e0002c470097007b00488436cf235d0a,https://chart.maryland.gov/video/video.php?feed=e0002c470097007b00488436cf235d0a,"<iframe width=""484"" height=""364"" src=""https://chart.maryland.gov/video/video.php?feed=e0002c470097007b00488436cf235d0a"" frame border=""0"" allowfullscreen></iframe>",38.388435,-75.068146
-8518395.6405,4753349.0965,379,I-695 O/L Pier #19,Baltimore City,1d00a7ae017200850053fa36c4235c0a,https://chart.maryland.gov/video/video.php?feed=1d00a7ae017200850053fa36c4235c0a,"<iframe width=""484"" height=""364"" src=""https://chart.maryland.gov/video/video.php?feed=1d00a7ae017200850053fa36c4235c0a"" frame border=""0"" allowfullscreen></iframe>",39.220802,-76.52205
-8525242.9023,4756243.159,380,I-895 N of Childs St (C037) MP 8.4,Baltimore City,eb0165ea044c0160004806363d235daa,https://chart.maryland.gov/video/video.php?feed=eb0165ea044c0160004806363d235daa,"<iframe width=""484"" height=""364"" src=""https://chart.maryland.gov/video/video.php?feed=eb0165ea044c0160004806363d235daa"" frame border=""0"" allowfullscreen></iframe>",39.24094,-76.58356
-8568410.3745,4694241.7018,381,I-95/495 AT MD 414,Prince George's County,9d00119e00770051004de33696235daa,https://chart.maryland.gov/video/video.php?feed=9d00119e00770051004de33696235daa,"<iframe width=""484"" height=""364"" src=""https://chart.maryland.gov/video/video.php?feed=9d00119e00770051004de33696235daa"" frame border=""0"" allowfullscreen></iframe>",38.808247,-76.97134
-8582487.8373,4722550.8266,382,Rockville Pk (MD 355) & Cedar La,Montgomery County,ca014d5302510075004d823633235daa,https://chart.maryland.gov/video/video.php?feed=ca014d5302510075004d823633235daa,"<iframe width=""484"" height=""364"" src=""https://chart.maryland.gov/video/video.php?feed=ca014d5302510075004d823633235daa"" frame border=""0"" allowfullscreen></iframe>",39.006138,-77.0978
-8585112.7509,4730060.971,383,Rockville Pk (MD 355) & Twinbrook Pkwy,Montgomery County,47012916022f0075004d823633235daa,https://chart.maryland.gov/video/video.php?feed=47012916022f0075004d823633235daa,"<iframe width=""484"" height=""364"" src=""https://chart.maryland.gov/video/video.php?feed=47012916022f0075004d823633235daa"" frame border=""0"" allowfullscreen></iframe>",39.058544,-77.12138
-8840370.5697,4816999.4273,384,I-68 AT EXIT 4 MD 42 FRIENDSVILLE RD,Garrett County,1d01f5fa004e002e005cd336c4235c0a,https://chart.maryland.gov/video/video.php?feed=1d01f5fa004e002e005cd336c4235c0a,"<iframe width=""484"" height=""364"" src=""https://chart.maryland.gov/video/video.php?feed=1d01f5fa004e002e005cd336c4235c0a"" frame border=""0"" allowfullscreen></iframe>",39.66153,-79.41016
-8541976.4482,4776870.8562,385,I-695 I/L AT EX 20 MD 140,Baltimore County,8c0032ca00e100aa004e3436c4235c0a,https://chart.maryland.gov/video/video.php?feed=8c0032ca00e100aa004e3436c4235c0a,"<iframe width=""484"" height=""364"" src=""https://chart.maryland.gov/video/video.php?feed=8c0032ca00e100aa004e3436c4235c0a"" frame border=""0"" allowfullscreen></iframe>",39.384308,-76.73388
-8582244.0476,4723882.0287,386,I-495 E. OF I-270,Montgomery County,de014c5800f700d700437a45351f0214,https://chart.maryland.gov/video/video.php?feed=de014c5800f700d700437a45351f0214,"<iframe width=""484"" height=""364"" src=""https://chart.maryland.gov/video/video.php?feed=de014c5800f700d700437a45351f0214"" frame border=""0"" allowfullscreen></iframe>",39.01543,-77.09561
-8522032.4482,4750948.0199,387,I-695 E of Quarantine Rd (C051) MP 49.8,Baltimore City,e40037d1c47601b8004606363d235daa,https://chart.maryland.gov/video/video.php?feed=e40037d1c47601b8004606363d235daa,"<iframe width=""484"" height=""364"" src=""https://chart.maryland.gov/video/video.php?feed=e40037d1c47601b8004606363d235daa"" frame border=""0"" allowfullscreen></iframe>",39.20409,-76.55472
-8443346.2662,4650133.9929,388,US 50 AT MD 731 VIENNA TWR,Dorchester County,0901227b0096007b00488436cf235d0a,https://chart.maryland.gov/video/video.php?feed=0901227b0096007b00488436cf235d0a,"<iframe width=""484"" height=""364"" src=""https://chart.maryland.gov/video/video.php?feed=0901227b0096007b00488436cf235d0a"" frame border=""0"" allowfullscreen></iframe>",38.49882,-75.84787
-8496068.2902,4718661.085,389,US 50 AT MD 8 E OF BAY,Queen Anne's County,ac0036080098007b00488436cf235d0a,https://chart.maryland.gov/video/video.php?feed=ac0036080098007b00488436cf235d0a,"<iframe width=""484"" height=""364"" src=""https://chart.maryland.gov/video/video.php?feed=ac0036080098007b00488436cf235d0a"" frame border=""0"" allowfullscreen></iframe>",38.97898,-76.32148
-8560215.0336,4711694.4178,390,US 50 AT MD 202,Prince George's County,6001cd5801f700d700437a45351f0214,https://chart.maryland.gov/video/video.php?feed=6001cd5801f700d700437a45351f0214,"<iframe width=""484"" height=""364"" src=""https://chart.maryland.gov/video/video.php?feed=6001cd5801f700d700437a45351f0214"" frame border=""0"" allowfullscreen></iframe>",38.930313,-76.89772
-8520996.0638,4765270.9925,391,I-895 N of US 40 Ex 13 Pulaski Hwy (C033) MP 13.4,Baltimore City,2e01710d019100e300441a366e230214,https://chart.maryland.gov/video/video.php?feed=2e01710d019100e300441a366e230214,"<iframe width=""484"" height=""364"" src=""https://chart.maryland.gov/video/video.php?feed=2e01710d019100e300441a366e230214"" frame border=""0"" allowfullscreen></iframe>",39.303722,-76.54541
-8468813.9393,4723783.7442,392,US 301 AT MD 213,Queen Anne's County,2500d30000c800b50058fa36c4235c0a,https://chart.maryland.gov/video/video.php?feed=2500d30000c800b50058fa36c4235c0a,"<iframe width=""484"" height=""364"" src=""https://chart.maryland.gov/video/video.php?feed=2500d30000c800b50058fa36c4235c0a"" frame border=""0"" allowfullscreen></iframe>",39.014744,-76.07665
-8488740.1281,4791131.2882,393,I-95 S of Md 543 Ex 80 (C017) MP 80.0,Harford County,ef013c29023c0160004806363d235daa,https://chart.maryland.gov/video/video.php?feed=ef013c29023c0160004806363d235daa,"<iframe width=""484"" height=""364"" src=""https://chart.maryland.gov/video/video.php?feed=ef013c29023c0160004806363d235daa"" frame border=""0"" allowfullscreen></iframe>",39.48325,-76.25565
-8514892.9727,4723773.8585,394,US 50 AT Ex. 27 MD 2,Anne Arundel County,6f01dd5800f700d700437a45351f0214,https://chart.maryland.gov/video/video.php?feed=6f01dd5800f700d700437a45351f0214,"<iframe width=""484"" height=""364"" src=""https://chart.maryland.gov/video/video.php?feed=6f01dd5800f700d700437a45351f0214"" frame border=""0"" allowfullscreen></iframe>",39.014675,-76.490585
-8607623.7783,4761470.6148,395,I-270 & Old Hundred Rd (MD 109),Montgomery County,7a00a1dc01250075004d823633235daa,https://chart.maryland.gov/video/video.php?feed=7a00a1dc01250075004d823633235daa,"<iframe width=""484"" height=""364"" src=""https://chart.maryland.gov/video/video.php?feed=7a00a1dc01250075004d823633235daa"" frame border=""0"" allowfullscreen></iframe>",39.2773,-77.3236
-8670513.7246,4815401.3831,396,I-70 EB AT ST PAUL RD,Washington County,4300ceca0049008e0057fa36c4235c0a,https://chart.maryland.gov/video/video.php?feed=4300ceca0049008e0057fa36c4235c0a,"<iframe width=""484"" height=""364"" src=""https://chart.maryland.gov/video/video.php?feed=4300ceca0049008e0057fa36c4235c0a"" frame border=""0"" allowfullscreen></iframe>",39.651318,-77.88855
-8473950.7772,4717672.0586,398,US 50 AT BLOOMINGDALE RD,Queen Anne's County,e900fc1700fe00040057fa36c4235c0a,https://chart.maryland.gov/video/video.php?feed=e900fc1700fe00040057fa36c4235c0a,"<iframe width=""484"" height=""364"" src=""https://chart.maryland.gov/video/video.php?feed=e900fc1700fe00040057fa36c4235c0a"" frame border=""0"" allowfullscreen></iframe>",38.972073,-76.122795
-8543090.7563,4765559.1502,399,I-695 AT I-70,Baltimore County,3801a65800f700d700437a45351f0214,https://chart.maryland.gov/video/video.php?feed=3801a65800f700d700437a45351f0214,"<iframe width=""484"" height=""364"" src=""https://chart.maryland.gov/video/video.php?feed=3801a65800f700d700437a45351f0214"" frame border=""0"" allowfullscreen></iframe>",39.305725,-76.74389
-8502070.6371,4720480.4469,400,WPL C508 at Gantry S-12 MP 34.3,Anne Arundel County,6202603d2d7f001300503336c4235c0a,https://chart.maryland.gov/video/video.php?feed=6202603d2d7f001300503336c4235c0a,"<iframe width=""484"" height=""364"" src=""https://chart.maryland.gov/video/video.php?feed=6202603d2d7f001300503336c4235c0a"" frame border=""0"" allowfullscreen></iframe>",38.991684,-76.3754
-8587881.2666,4727049.8529,401,I-270 & Tuckerman La,Montgomery County,bf014156024f0075004d823633235daa,https://chart.maryland.gov/video/video.php?feed=bf014156024f0075004d823633235daa,"<iframe width=""484"" height=""364"" src=""https://chart.maryland.gov/video/video.php?feed=bf014156024f0075004d823633235daa"" frame border=""0"" allowfullscreen></iframe>",39.037537,-77.14625
-8535833.8387,4757579.5253,402,I-95 AT I-695 SW,Baltimore County,ca01375801f700d700437a45351f0214,https://chart.maryland.gov/video/video.php?feed=ca01375801f700d700437a45351f0214,"<iframe width=""484"" height=""364"" src=""https://chart.maryland.gov/video/video.php?feed=ca01375801f700d700437a45351f0214"" frame border=""0"" allowfullscreen></iframe>",39.250237,-76.6787
-8515495.7677,4612922.294,403,MD 5 AT GREAT MILLS RD,Saint Mary's County,2c00d6f6008900070053fa36c4235c0a,https://chart.maryland.gov/video/video.php?feed=2c00d6f6008900070053fa36c4235c0a,"<iframe width=""484"" height=""364"" src=""https://chart.maryland.gov/video/video.php?feed=2c00d6f6008900070053fa36c4235c0a"" frame border=""0"" allowfullscreen></iframe>",38.236732,-76.496
-8554201.9999,4703040.95,404,I-95/495 AT EXIT 13 (Ritchie Marlboro Rd),Prince George's County,6501d25801f700d700437a45351f0214,https://chart.maryland.gov/video/video.php?feed=6501d25801f700d700437a45351f0214,"<iframe width=""484"" height=""364"" src=""https://chart.maryland.gov/video/video.php?feed=6501d25801f700d700437a45351f0214"" frame border=""0"" allowfullscreen></iframe>",38.869816,-76.843704
-8565850.0262,4732514.0164,405,ICC MD 200 EB E OF US 29 MM 16.2 (C-222),Montgomery County,f6ff8097001e00bd004e3336c4235c0a,https://chart.maryland.gov/video/video.php?feed=f6ff8097001e00bd004e3336c4235c0a,"<iframe width=""484"" height=""364"" src=""https://chart.maryland.gov/video/video.php?feed=f6ff8097001e00bd004e3336c4235c0a"" frame border=""0"" allowfullscreen></iframe>",39.075653,-76.94834
-8557602.3651,4711125.0366,406,MD 202 AT MD 704,Prince George's County,5b01c85801f700d700437a45351f0214,https://chart.maryland.gov/video/video.php?feed=5b01c85801f700d700437a45351f0214,"<iframe width=""484"" height=""364"" src=""https://chart.maryland.gov/video/video.php?feed=5b01c85801f700d700437a45351f0214"" frame border=""0"" allowfullscreen></iframe>",38.926334,-76.87425
-8441179.9889,4649584.5371,407,RWIS US 50 AT MD 331,Dorchester County,2c0085cd001d00f00050fa36c4235c0a,https://chart.maryland.gov/video/video.php?feed=2c0085cd001d00f00050fa36c4235c0a,"<iframe width=""484"" height=""364"" src=""https://chart.maryland.gov/video/video.php?feed=2c0085cd001d00f00050fa36c4235c0a"" frame border=""0"" allowfullscreen></iframe>",38.494957,-75.82841
-8558296.5535,4713599.6947,408,US 50 AT MD 410 | US 50 AT MD 410 East/West Highway,Prince George's County,5eff09b3009600e9004ae33696235daa,https://chart.maryland.gov/video/video.php?feed=5eff09b3009600e9004ae33696235daa,"<iframe width=""484"" height=""364"" src=""https://chart.maryland.gov/video/video.php?feed=5eff09b3009600e9004ae33696235daa"" frame border=""0"" allowfullscreen></iframe>",38.943626,-76.880486
-8637660.0033,4795265.819,409,I-70 W AT SOUTH MOUNTAIN,Frederick County,e2ffcef400b100a00052fa36c4235c0a,https://chart.maryland.gov/video/video.php?feed=e2ffcef400b100a00052fa36c4235c0a,"<iframe width=""484"" height=""364"" src=""https://chart.maryland.gov/video/video.php?feed=e2ffcef400b100a00052fa36c4235c0a"" frame border=""0"" allowfullscreen></iframe>",39.51191,-77.59342
-8528064.8514,4723124.5745,410,"I-97 AT MD-178
CROWNSVILLE",Anne Arundel County,2a0016ad00c900410047833633235daa,https://chart.maryland.gov/video/video.php?feed=2a0016ad00c900410047833633235daa,"<iframe width=""484"" height=""364"" src=""https://chart.maryland.gov/video/video.php?feed=2a0016ad00c900410047833633235daa"" frame border=""0"" allowfullscreen></iframe>",39.010143,-76.60891
-8526811.394,4759892.7474,411,"I-95 South, at Ex 55 Key Hwy, C040A On Top DMS 8839 MP 54.1",Baltimore City,e700b9fe004e00100055fa36c4235c0a,https://chart.maryland.gov/video/video.php?feed=e700b9fe004e00100055fa36c4235c0a,"<iframe width=""484"" height=""364"" src=""https://chart.maryland.gov/video/video.php?feed=e700b9fe004e00100055fa36c4235c0a"" frame border=""0"" allowfullscreen></iframe>",39.266327,-76.59765
-8734543.5825,4819212.1253,412,I-68 AT EXIT 62 US 40,Allegany County,2700f1a000bf00030057fa36c4235c0a,https://chart.maryland.gov/video/video.php?feed=2700f1a000bf00030057fa36c4235c0a,"<iframe width=""484"" height=""364"" src=""https://chart.maryland.gov/video/video.php?feed=2700f1a000bf00030057fa36c4235c0a"" frame border=""0"" allowfullscreen></iframe>",39.67767,-78.46374
-8790037.4619,4818714.8764,413,I-68 AT SAVAGE MT,Garrett County,8c01c60d073d000800447a45351f0214,https://chart.maryland.gov/video/video.php?feed=8c01c60d073d000800447a45351f0214,"<iframe width=""484"" height=""364"" src=""https://chart.maryland.gov/video/video.php?feed=8c01c60d073d000800447a45351f0214"" frame border=""0"" allowfullscreen></iframe>",39.674232,-78.96225
-8411727.078,4638950.1266,414,US 13 AT SALISBURY MSP TWR,Wicomico County,1001f0c505380031004a06363d235daa,https://chart.maryland.gov/video/video.php?feed=1001f0c505380031004a06363d235daa,"<iframe width=""484"" height=""364"" src=""https://chart.maryland.gov/video/video.php?feed=1001f0c505380031004a06363d235daa"" frame border=""0"" allowfullscreen></iframe>",38.42015,-75.56383
-8559279.9498,4721027.0067,415,I-95/495 AT MD-193,Prince George's County,63016dde026300e50051fa36c4235c0a,https://chart.maryland.gov/video/video.php?feed=63016dde026300e50051fa36c4235c0a,"<iframe width=""484"" height=""364"" src=""https://chart.maryland.gov/video/video.php?feed=63016dde026300e50051fa36c4235c0a"" frame border=""0"" allowfullscreen></iframe>",38.9955,-76.88932
-8500617.9178,4720225.2239,416,WPL C509 at Gantry N-16 MP 3.4,Queen Anne's County,080169d92d80001300503336c4235c0a,https://chart.maryland.gov/video/video.php?feed=080169d92d80001300503336c4235c0a,"<iframe width=""484"" height=""364"" src=""https://chart.maryland.gov/video/video.php?feed=080169d92d80001300503336c4235c0a"" frame border=""0"" allowfullscreen></iframe>",38.989902,-76.36235
-8575535.9351,4692033.2593,417,I-95/495 on W.W. Brg MD,Prince George's County,e700100700340088004502366d235daa,https://chart.maryland.gov/video/video.php?feed=e700100700340088004502366d235daa,"<iframe width=""484"" height=""364"" src=""https://chart.maryland.gov/video/video.php?feed=e700100700340088004502366d235daa"" frame border=""0"" allowfullscreen></iframe>",38.792786,-77.03535
-8696131.1224,4820673.0639,418,I-70 AT MP 5,Washington County,6c00cd28008b00170058fa36c4235c0a,https://chart.maryland.gov/video/video.php?feed=6c00cd28008b00170058fa36c4235c0a,"<iframe width=""484"" height=""364"" src=""https://chart.maryland.gov/video/video.php?feed=6c00cd28008b00170058fa36c4235c0a"" frame border=""0"" allowfullscreen></iframe>",39.68777,-78.118675
-8571218.9652,4693777.862,419,I-95/495 N of MD 210,Prince George's County,67000b9c00240088004502366d235daa,https://chart.maryland.gov/video/video.php?feed=67000b9c00240088004502366d235daa,"<iframe width=""484"" height=""364"" src=""https://chart.maryland.gov/video/video.php?feed=67000b9c00240088004502366d235daa"" frame border=""0"" allowfullscreen></iframe>",38.805,-76.99657
-8516325.0979,4773147.0091,420,I-695 Median at MM32.3 (C027),Baltimore County,3801d561005e00d00057fa36c4235c0a,https://chart.maryland.gov/video/video.php?feed=3801d561005e00d00057fa36c4235c0a,"<iframe width=""484"" height=""364"" src=""https://chart.maryland.gov/video/video.php?feed=3801d561005e00d00057fa36c4235c0a"" frame border=""0"" allowfullscreen></iframe>",39.358448,-76.50345
-8527156.0391,4780972.4283,421,I-695 AT DULANEY VALLEY RD,Baltimore County,3b0121f4017600da0058fa36c4235c0a,https://chart.maryland.gov/video/video.php?feed=3b0121f4017600da0058fa36c4235c0a,"<iframe width=""484"" height=""364"" src=""https://chart.maryland.gov/video/video.php?feed=3b0121f4017600da0058fa36c4235c0a"" frame border=""0"" allowfullscreen></iframe>",39.41278,-76.600746
-8505344.5434,4723025.2944,422,WPL C502 at Gantry S-1 MP 32.0,Anne Arundel County,4900c5b02e84001c00503336c4235c0a,https://chart.maryland.gov/video/video.php?feed=4900c5b02e84001c00503336c4235c0a,"<iframe width=""484"" height=""364"" src=""https://chart.maryland.gov/video/video.php?feed=4900c5b02e84001c00503336c4235c0a"" frame border=""0"" allowfullscreen></iframe>",39.00945,-76.40481
-8533583.5152,4753069.6216,423,I-695 AT BALTIMORE WASHINGTON PKWY,Anne Arundel County,ac00e19000770012005cd336c4235c0a,https://chart.maryland.gov/video/video.php?feed=ac00e19000770012005cd336c4235c0a,"<iframe width=""484"" height=""364"" src=""https://chart.maryland.gov/video/video.php?feed=ac00e19000770012005cd336c4235c0a"" frame border=""0"" allowfullscreen></iframe>",39.218876,-76.65849
-8574584.1534,4720267.9039,424,Georgia Ave (US 29) & Sligo Ave,Montgomery County,0601f50e012b0075004d823633235daa,https://chart.maryland.gov/video/video.php?feed=0601f50e012b0075004d823633235daa,"<iframe width=""484"" height=""364"" src=""https://chart.maryland.gov/video/video.php?feed=0601f50e012b0075004d823633235daa"" frame border=""0"" allowfullscreen></iframe>",38.9902,-77.0268
-8531932.0905,4730809.6252,425,RWIS I-97 AT MD-32,Anne Arundel County,dd00bf3a00ea002a0053fa36c4235c0a,https://chart.maryland.gov/video/video.php?feed=dd00bf3a00ea002a0053fa36c4235c0a,"<iframe width=""484"" height=""364"" src=""https://chart.maryland.gov/video/video.php?feed=dd00bf3a00ea002a0053fa36c4235c0a"" frame border=""0"" allowfullscreen></iframe>",39.063766,-76.64365
-8534168.4991,4780797.7979,426,I-695 AT I-83 JFX,Baltimore County,5101bf5800f700d700437a45351f0214,https://chart.maryland.gov/video/video.php?feed=5101bf5800f700d700437a45351f0214,"<iframe width=""484"" height=""364"" src=""https://chart.maryland.gov/video/video.php?feed=5101bf5800f700d700437a45351f0214"" frame border=""0"" allowfullscreen></iframe>",39.411568,-76.66374
-8543619.5239,4774749.8511,427,I-695 AT OLD COURT RD,Baltimore County,1bff1ca000a6008e004be2369e235daa,https://chart.maryland.gov/video/video.php?feed=1bff1ca000a6008e004be2369e235daa,"<iframe width=""484"" height=""364"" src=""https://chart.maryland.gov/video/video.php?feed=1bff1ca000a6008e004be2369e235daa"" frame border=""0"" allowfullscreen></iframe>",39.36958,-76.74864
-8515381.1086,4771154.0358,428,I-695 E of I-95 on I/L (C025) MP 32.6,Baltimore County,d6009a3500e50039004606363d235daa,https://chart.maryland.gov/video/video.php?feed=d6009a3500e50039004606363d235daa,"<iframe width=""484"" height=""364"" src=""https://chart.maryland.gov/video/video.php?feed=d6009a3500e50039004606363d235daa"" frame border=""0"" allowfullscreen></iframe>",39.344604,-76.49497
-8539154.4991,4755683.3379,429,I-95 N OF I-195,Baltimore County,9801065800f700d700437a45351f0214,https://chart.maryland.gov/video/video.php?feed=9801065800f700d700437a45351f0214,"<iframe width=""484"" height=""364"" src=""https://chart.maryland.gov/video/video.php?feed=9801065800f700d700437a45351f0214"" frame border=""0"" allowfullscreen></iframe>",39.237045,-76.70853
-8521941.1662,4762932.3723,430,I-895 N of Eastern Ave (C034) MP 12.2,Baltimore City,67017443019100e300441a366e230214,https://chart.maryland.gov/video/video.php?feed=67017443019100e300441a366e230214,"<iframe width=""484"" height=""364"" src=""https://chart.maryland.gov/video/video.php?feed=67017443019100e300441a366e230214"" frame border=""0"" allowfullscreen></iframe>",39.287464,-76.5539
-8589701.3403,4740332.2009,431,I-370 / Shady Grove Metro & Shady Grove Rd,Montgomery County,e900b1fe02610075004d823633235daa,https://chart.maryland.gov/video/video.php?feed=e900b1fe02610075004d823633235daa,"<iframe width=""484"" height=""364"" src=""https://chart.maryland.gov/video/video.php?feed=e900b1fe02610075004d823633235daa"" frame border=""0"" allowfullscreen></iframe>",39.130154,-77.1626
-8571931.9666,4726380.5824,432,Columbia Pk (US 29) & Lockwood Dr,Montgomery County,1d01d54801280075004d823633235daa,https://chart.maryland.gov/video/video.php?feed=1d01d54801280075004d823633235daa,"<iframe width=""484"" height=""364"" src=""https://chart.maryland.gov/video/video.php?feed=1d01d54801280075004d823633235daa"" frame border=""0"" allowfullscreen></iframe>",39.032867,-77.002975
-8572784.1173,4690534.0025,433,National Harbor at American Way ,Prince George's County,a70010ea00ea00af004502366d235daa,https://chart.maryland.gov/video/video.php?feed=a70010ea00ea00af004502366d235daa,"<iframe width=""484"" height=""364"" src=""https://chart.maryland.gov/video/video.php?feed=a70010ea00ea00af004502366d235daa"" frame border=""0"" allowfullscreen></iframe>",38.782288,-77.01063
-8565288.976,4726505.2611,434,I-95 AT CHERRY HILL RD,Prince George's County,fc016a5800f700d700437a45351f0214,https://chart.maryland.gov/video/video.php?feed=fc016a5800f700d700437a45351f0214,"<iframe width=""484"" height=""364"" src=""https://chart.maryland.gov/video/video.php?feed=fc016a5800f700d700437a45351f0214"" frame border=""0"" allowfullscreen></iframe>",39.033737,-76.9433
-8494394.045,4787533.0658,435,I-95 N of Md 24 Ex 77 (C018) MP 76.7,Harford County,d801490d01350160004806363d235daa,https://chart.maryland.gov/video/video.php?feed=d801490d01350160004806363d235daa,"<iframe width=""484"" height=""364"" src=""https://chart.maryland.gov/video/video.php?feed=d801490d01350160004806363d235daa"" frame border=""0"" allowfullscreen></iframe>",39.458298,-76.30644
-8557426.4803,4709162.4257,436,Sheriff Rd at William Paca Elem. School,Prince George's County,fb00078a0045000c004a02366d235daa,https://chart.maryland.gov/video/video.php?feed=fb00078a0045000c004a02366d235daa,"<iframe width=""484"" height=""364"" src=""https://chart.maryland.gov/video/video.php?feed=fb00078a0045000c004a02366d235daa"" frame border=""0"" allowfullscreen></iframe>",38.912617,-76.87267
-8532986.2861,4716142.5294,437,US 50 AT EX 16 MD 424 DAVIDSONVILLE ROAD,Anne Arundel County,000109f6004b00a6004af03676235daa,https://chart.maryland.gov/video/video.php?feed=000109f6004b00a6004af03676235daa,"<iframe width=""484"" height=""364"" src=""https://chart.maryland.gov/video/video.php?feed=000109f6004b00a6004af03676235daa"" frame border=""0"" allowfullscreen></iframe>",38.96139,-76.65312
-8578918.9344,4738416.2935,438,ICC MD 200 EB E OF MD 97 MM 8.7 (C-213),Montgomery County,d2005d9a001a00bd004e3336c4235c0a,https://chart.maryland.gov/video/video.php?feed=d2005d9a001a00bd004e3336c4235c0a,"<iframe width=""484"" height=""364"" src=""https://chart.maryland.gov/video/video.php?feed=d2005d9a001a00bd004e3336c4235c0a"" frame border=""0"" allowfullscreen></iframe>",39.116802,-77.06574
-8521120.7416,4762503.1999,439,"I-95 N of O'Donnell St, S Turn (C041)  MP 57.7",Baltimore City,8301fd37011a004b004606363d235daa,https://chart.maryland.gov/video/video.php?feed=8301fd37011a004b004606363d235daa,"<iframe width=""484"" height=""364"" src=""https://chart.maryland.gov/video/video.php?feed=8301fd37011a004b004606363d235daa"" frame border=""0"" allowfullscreen></iframe>",39.28448,-76.54653
-8832622.7331,4797646.0392,440,US-219 S AT DEEP CREEK LAKE,Garrett County,60ffe582008000c8005bd336c4235c0a,https://chart.maryland.gov/video/video.php?feed=60ffe582008000c8005bd336c4235c0a,"<iframe width=""484"" height=""364"" src=""https://chart.maryland.gov/video/video.php?feed=60ffe582008000c8005bd336c4235c0a"" frame border=""0"" allowfullscreen></iframe>",39.528404,-79.3448
-8751002.7258,4824494.2116,441,I-68 AT STREET RD,Allegany County,f300e11b007e00c8005bd336c4235c0a,https://chart.maryland.gov/video/video.php?feed=f300e11b007e00c8005bd336c4235c0a,"<iframe width=""484"" height=""364"" src=""https://chart.maryland.gov/video/video.php?feed=f300e11b007e00c8005bd336c4235c0a"" frame border=""0"" allowfullscreen></iframe>",39.71418,-78.611595
-8703260.5792,4823760.542,442,I-70 AT Hancock Tower,Washington County,950008fc01cf000f005cd336c4235c0a,https://chart.maryland.gov/video/video.php?feed=950008fc01cf000f005cd336c4235c0a,"<iframe width=""484"" height=""364"" src=""https://chart.maryland.gov/video/video.php?feed=950008fc01cf000f005cd336c4235c0a"" frame border=""0"" allowfullscreen></iframe>",39.70911,-78.18272
-8619212.5826,4779013.7735,443,I-70 WEST PAST I-270,Frederick County,0800f82400b50086005bd336c4235c0a,https://chart.maryland.gov/video/video.php?feed=0800f82400b50086005bd336c4235c0a,"<iframe width=""484"" height=""364"" src=""https://chart.maryland.gov/video/video.php?feed=0800f82400b50086005bd336c4235c0a"" frame border=""0"" allowfullscreen></iframe>",39.399185,-77.427704
-8586824.8446,4741544.7539,444,"ICC MD 200 EB, DECKOVER APPROACH, MM 4.4 (C-205)",Montgomery County,550255680555004e004d06363d235daa,https://chart.maryland.gov/video/video.php?feed=550255680555004e004d06363d235daa,"<iframe width=""484"" height=""364"" src=""https://chart.maryland.gov/video/video.php?feed=550255680555004e004d06363d235daa"" frame border=""0"" allowfullscreen></iframe>",39.138603,-77.13676
-8553761.8427,4729793.7513,445,MD 295 SOUTH AT MD 197,Prince George's County,f1ff17ec018300940059fa36c4235c0a,https://chart.maryland.gov/video/video.php?feed=f1ff17ec018300940059fa36c4235c0a,"<iframe width=""484"" height=""364"" src=""https://chart.maryland.gov/video/video.php?feed=f1ff17ec018300940059fa36c4235c0a"" frame border=""0"" allowfullscreen></iframe>",39.05668,-76.83975
-8552079.8052,4732723.5185,446,MD-295 AT Brock Bridge,Anne Arundel County,dfffda900085001b0058fa36c4235c0a,https://chart.maryland.gov/video/video.php?feed=dfffda900085001b0058fa36c4235c0a,"<iframe width=""484"" height=""364"" src=""https://chart.maryland.gov/video/video.php?feed=dfffda900085001b0058fa36c4235c0a"" frame border=""0"" allowfullscreen></iframe>",39.077114,-76.82464
-8533709.3062,4760256.9593,447,I-95 N of Desoto Rd (C031) MP 50.7,Baltimore City,94016b7a019000e300441a366e230214,https://chart.maryland.gov/video/video.php?feed=94016b7a019000e300441a366e230214,"<iframe width=""484"" height=""364"" src=""https://chart.maryland.gov/video/video.php?feed=94016b7a019000e300441a366e230214"" frame border=""0"" allowfullscreen></iframe>",39.26886,-76.659615
-8597050.0965,4775526.0226,448,I-70 WEST OF BARTHOLOWS RD,Frederick County,1101dd5c00fa0006005bfa36c4235c0a,https://chart.maryland.gov/video/video.php?feed=1101dd5c00fa0006005bfa36c4235c0a,"<iframe width=""484"" height=""364"" src=""https://chart.maryland.gov/video/video.php?feed=1101dd5c00fa0006005bfa36c4235c0a"" frame border=""0"" allowfullscreen></iframe>",39.37497,-77.228615
-8515305.4114,4772417.6652,449,"I-95S GP @ I-695, MP 64.0 (C024A)",Baltimore County,65002ee001eb009c0052fa36c4235c0a,https://chart.maryland.gov/video/video.php?feed=65002ee001eb009c0052fa36c4235c0a,"<iframe width=""484"" height=""364"" src=""https://chart.maryland.gov/video/video.php?feed=65002ee001eb009c0052fa36c4235c0a"" frame border=""0"" allowfullscreen></iframe>",39.353382,-76.49429
-8515240.4008,4770915.2338,450,"I-695 O/L, East of I-95, West of MD 7 (C025A) | MP32.8",Baltimore County,23011ea3006a0009004c06363d235daa,https://chart.maryland.gov/video/video.php?feed=23011ea3006a0009004c06363d235daa,"<iframe width=""484"" height=""364"" src=""https://chart.maryland.gov/video/video.php?feed=23011ea3006a0009004c06363d235daa"" frame border=""0"" allowfullscreen></iframe>",39.342945,-76.493706
-8509404.3652,4775883.6,451,"MD 43 EB, East of I-95 (C022B) MP 67.0",Baltimore County,6e01c36600f9007b0054fa36c4235c0a,https://chart.maryland.gov/video/video.php?feed=6e01c36600f9007b0054fa36c4235c0a,"<iframe width=""484"" height=""364"" src=""https://chart.maryland.gov/video/video.php?feed=6e01c36600f9007b0054fa36c4235c0a"" frame border=""0"" allowfullscreen></iframe>",39.377453,-76.44128
-8503118.1535,4805736.7229,452,MD-24 at Jarrettsville Road,Harford County,e1ffe19600f100a2005afa36c4235c0a,https://chart.maryland.gov/video/video.php?feed=e1ffe19600f100a2005afa36c4235c0a,"<iframe width=""484"" height=""364"" src=""https://chart.maryland.gov/video/video.php?feed=e1ffe19600f100a2005afa36c4235c0a"" frame border=""0"" allowfullscreen></iframe>",39.58444,-76.38481
-8519253.9137,4821134.5334,453,MD 23 AT MEADOW TREE DR,Harford County,deffdbfb008f00a2005afa36c4235c0a,https://chart.maryland.gov/video/video.php?feed=deffdbfb008f00a2005afa36c4235c0a,"<iframe width=""484"" height=""364"" src=""https://chart.maryland.gov/video/video.php?feed=deffdbfb008f00a2005afa36c4235c0a"" frame border=""0"" allowfullscreen></iframe>",39.69096,-76.52976
-8469283.7075,4805950.4994,454,I-95 S of Frenchtown Rd (C009) MP 92.2,Cecil County,2300899400e40039004606363d235daa,https://chart.maryland.gov/video/video.php?feed=2300899400e40039004606363d235daa,"<iframe width=""484"" height=""364"" src=""https://chart.maryland.gov/video/video.php?feed=2300899400e40039004606363d235daa"" frame border=""0"" allowfullscreen></iframe>",39.58592,-76.08087
-8469019.8803,4715135.1391,455,US 50 AT MD 213,Queen Anne's County,c1001a40029d00fa0051fa36c4235c0a,https://chart.maryland.gov/video/video.php?feed=c1001a40029d00fa0051fa36c4235c0a,"<iframe width=""484"" height=""364"" src=""https://chart.maryland.gov/video/video.php?feed=c1001a40029d00fa0051fa36c4235c0a"" frame border=""0"" allowfullscreen></iframe>",38.954353,-76.0785
-8412309.2789,4626620.351,456,US 13 AT MD 12,Wicomico County,ab00e2c7007000bd0058fa36c4235c0a,https://chart.maryland.gov/video/video.php?feed=ab00e2c7007000bd0058fa36c4235c0a,"<iframe width=""484"" height=""364"" src=""https://chart.maryland.gov/video/video.php?feed=ab00e2c7007000bd0058fa36c4235c0a"" frame border=""0"" allowfullscreen></iframe>",38.33332,-75.56906
-8545616.5955,4749951.0916,457,I-95 SOUTH AT MD 100,Howard County,dd00060501d40026005afa36c4235c0a,https://chart.maryland.gov/video/video.php?feed=dd00060501d40026005afa36c4235c0a,"<iframe width=""484"" height=""364"" src=""https://chart.maryland.gov/video/video.php?feed=dd00060501d40026005afa36c4235c0a"" frame border=""0"" allowfullscreen></iframe>",39.19715,-76.76658
-8659019.9872,4810375.8314,459,I-70 E AT I-81,Washington County,1b01e0330015001c005afa36c4235c0a,https://chart.maryland.gov/video/video.php?feed=1b01e0330015001c005afa36c4235c0a,"<iframe width=""484"" height=""364"" src=""https://chart.maryland.gov/video/video.php?feed=1b01e0330015001c005afa36c4235c0a"" frame border=""0"" allowfullscreen></iframe>",39.61655,-77.7853
-8659019.9872,4810375.8314,460,I-70 W AT I-81,Washington County,f100e6020016001c005afa36c4235c0a,https://chart.maryland.gov/video/video.php?feed=f100e6020016001c005afa36c4235c0a,"<iframe width=""484"" height=""364"" src=""https://chart.maryland.gov/video/video.php?feed=f100e6020016001c005afa36c4235c0a"" frame border=""0"" allowfullscreen></iframe>",39.61655,-77.7853
-8505344.5434,4723025.2944,461,WPL 4x4,Anne Arundel County,a000ff6d00d600ad005bd336c4235c0a,https://chart.maryland.gov/video/video.php?feed=a000ff6d00d600ad005bd336c4235c0a,"<iframe width=""484"" height=""364"" src=""https://chart.maryland.gov/video/video.php?feed=a000ff6d00d600ad005bd336c4235c0a"" frame border=""0"" allowfullscreen></iframe>",39.00945,-76.40481
-8516475.3792,4719545.0903,462,TAYLOR AVE W OF ROWE BLVD,Anne Arundel County,9100565400a500df004e823633235daa,https://chart.maryland.gov/video/video.php?feed=9100565400a500df004e823633235daa,"<iframe width=""484"" height=""364"" src=""https://chart.maryland.gov/video/video.php?feed=9100565400a500df004e823633235daa"" frame border=""0"" allowfullscreen></iframe>",38.985153,-76.5048
-8516956.2794,4719422.9317,463,GATE 2 AT FARRAGUT,Anne Arundel County,e4ff5ca100a500df004e823633235daa,https://chart.maryland.gov/video/video.php?feed=e4ff5ca100a500df004e823633235daa,"<iframe width=""484"" height=""364"" src=""https://chart.maryland.gov/video/video.php?feed=e4ff5ca100a500df004e823633235daa"" frame border=""0"" allowfullscreen></iframe>",38.9843,-76.50912
